{"type":"FeatureCollection","features":[{"id":"0","type":"Feature","properties":{"ADMIN_AREA_NAME":"City of North Vancouver","area_km2":14.923753643566064,"source":"BC ABMS (WHSE_LEGAL_ADMIN_BOUNDARIES.ABMS_MUNICIPALITIES_SP)"},"geometry":{"type":"Polygon","coordinates":[[[-123.10259927949565,49.30790412533475],[-123.03853763152905,49.295988707465504],[-123.03853702036247,49.30137011300998],[-123.03813837928416,49.31327746540988],[-123.0547862818229,49.31345967490137],[-123.05467662565052,49.3207188947183],[-123.04100291374318,49.32051689694641],[-123.04071288469771,49.327218171434616],[-123.05027163920397,49.32728416943753],[-123.0533015960414,49.32734882954898],[-123.05300761934872,49.33554349406477],[-123.06884321701096,49.335587524192846],[-123.07729768573215,49.335647556107084],[-123.09108080638627,49.33564569250405],[-123.09112851501132,49.331054067550184],[-123.10208992256497,49.33103128499993],[-123.10226354864102,49.32392161608359],[-123.10259651495915,49.31631500134904],[-123.10259927949565,49.30790412533475]]]}}]}