{"type":"FeatureCollection","features":[{"id":"0","type":"Feature","properties":{"DAUID":"59150073","population_2021":1009.0,"population_density":3880.7692307692305,"adult_population_18plus_proxy":804.0,"adult_population_density":3092.3076923076924,"canadian_citizens_18plus":680.0,"citizen_adult_density":2615.3846153846152,"age_0_14":160.0,"age_18_34_proxy":205.0,"age_35_49":260.0,"age_50_64":210.0,"senior_population_65plus":125.0,"senior_population_75plus":45.0,"senior_population_85plus":15.0,"senior_density":480.7692307692308,"occupied_private_dwellings":393.0,"housing_density":1511.5384615384614,"land_area_km2":0.26},"geometry":{"type":"Polygon","coordinates":[[[-123.0945709875588,49.32400019749375],[-123.09457751028074,49.3232375017713],[-123.10050862239328,49.323308494030876],[-123.10197819224555,49.32385139645132],[-123.10214241336163,49.323863998262354],[-123.10214667850673,49.32417029899399],[-123.10189081334902,49.324714189623826],[-123.10197521542118,49.32568364201168],[-123.10193385157811,49.326537123143964],[-123.10230541357643,49.32844079656287],[-123.10221849673842,49.32981253955309],[-123.10210060319979,49.330246426517576],[-123.10204454465932,49.331035982959754],[-123.09810620504054,49.33089133142364],[-123.09830529848749,49.32979204264809],[-123.09784669222914,49.3287131091672],[-123.0978549757021,49.327526297675455],[-123.0977711918669,49.32649370641916],[-123.09790458004181,49.32618559705576],[-123.09926151869374,49.324069498395524],[-123.0945709875588,49.32400019749375]]]}},{"id":"1","type":"Feature","properties":{"DAUID":"59150074","population_2021":696.0,"population_density":9942.857142857141,"adult_population_18plus_proxy":536.0,"adult_population_density":7657.142857142856,"canadian_citizens_18plus":500.0,"citizen_adult_density":7142.857142857142,"age_0_14":130.0,"age_18_34_proxy":135.0,"age_35_49":145.0,"age_50_64":185.0,"senior_population_65plus":65.0,"senior_population_75plus":20.0,"senior_population_85plus":5.0,"senior_density":928.5714285714284,"occupied_private_dwellings":242.0,"housing_density":3457.142857142857,"land_area_km2":0.07},"geometry":{"type":"Polygon","coordinates":[[[-123.09497469443981,49.3256340117622],[-123.09485022978158,49.32564600443416],[-123.0947301777129,49.32573829867828],[-123.09435550975185,49.32644868979516],[-123.09359658887955,49.32644090018218],[-123.09446438424558,49.32471249547544],[-123.09455697701098,49.32439879224122],[-123.0945709875588,49.32400019749375],[-123.09926151869374,49.324069498395524],[-123.09819900377853,49.32572521487238],[-123.09722617600345,49.325816103489565],[-123.09648250284634,49.32583040019739],[-123.09600358831186,49.32578959170574],[-123.09497469443981,49.3256340117622]]]}},{"id":"2","type":"Feature","properties":{"DAUID":"59150075","population_2021":427.0,"population_density":1940.909090909091,"adult_population_18plus_proxy":340.0,"adult_population_density":1545.4545454545455,"canadian_citizens_18plus":280.0,"citizen_adult_density":1272.7272727272727,"age_0_14":75.0,"age_18_34_proxy":63.0,"age_35_49":90.0,"age_50_64":80.0,"senior_population_65plus":105.0,"senior_population_75plus":40.0,"senior_population_85plus":10.0,"senior_density":477.27272727272725,"occupied_private_dwellings":156.0,"housing_density":709.0909090909091,"land_area_km2":0.22},"geometry":{"type":"Polygon","coordinates":[[[-123.09237431385732,49.330900948680735],[-123.09180751807129,49.32858208103891],[-123.09256100621873,49.32843140616003],[-123.09251520032505,49.32837169254454],[-123.09253319298149,49.3283045925573],[-123.09310992100409,49.32746630594459],[-123.09359658887955,49.32644090018218],[-123.09435550975185,49.32644868979516],[-123.0947301777129,49.32573829867828],[-123.09485022978158,49.32564600443416],[-123.09497469443981,49.3256340117622],[-123.09600358831186,49.32578959170574],[-123.09648250284634,49.32583040019739],[-123.09722617600345,49.325816103489565],[-123.09819900377853,49.32572521487238],[-123.09790458004181,49.32618559705576],[-123.0977711918669,49.32649370641916],[-123.0978549757021,49.327526297675455],[-123.09784669222914,49.3287131091672],[-123.09830529848749,49.32979204264809],[-123.09810620504054,49.33089133142364],[-123.0949910359604,49.33106802565917],[-123.09398299798697,49.331069898658484],[-123.09326209792572,49.33104780100199],[-123.09237431385732,49.330900948680735]]]}},{"id":"3","type":"Feature","properties":{"DAUID":"59150076","population_2021":536.0,"population_density":1624.2424242424242,"adult_population_18plus_proxy":418.0,"adult_population_density":1266.6666666666665,"canadian_citizens_18plus":325.0,"citizen_adult_density":984.8484848484848,"age_0_14":100.0,"age_18_34_proxy":97.0,"age_35_49":125.0,"age_50_64":100.0,"senior_population_65plus":95.0,"senior_population_75plus":30.0,"senior_population_85plus":10.0,"senior_density":287.8787878787879,"occupied_private_dwellings":200.0,"housing_density":606.060606060606,"land_area_km2":0.33},"geometry":{"type":"Polygon","coordinates":[[[-123.08812745613947,49.33229751368677],[-123.088167909915,49.33121691261384],[-123.08748109654141,49.331374895652004],[-123.08457288722424,49.3313488014701],[-123.08459679318625,49.32939409882236],[-123.08456338467916,49.32926892427137],[-123.08440106338074,49.3291600197571],[-123.08534261979615,49.328408101329686],[-123.08933360638792,49.32845270398417],[-123.08941960779717,49.32826489837543],[-123.08946869291428,49.326389304558475],[-123.09108888121624,49.326398319890956],[-123.09114531324263,49.326197507894165],[-123.09116171051024,49.32429400423576],[-123.09248618752696,49.323595604055036],[-123.09301380349794,49.32338638850877],[-123.09339881976645,49.32327970327609],[-123.0937744920892,49.323233010693635],[-123.09457751028074,49.3232375017713],[-123.09455697701098,49.32439879224122],[-123.09446438424558,49.32471249547544],[-123.09310992100409,49.32746630594459],[-123.09253319298149,49.3283045925573],[-123.09251520032505,49.32837169254454],[-123.09256100621873,49.32843140616003],[-123.09180751807129,49.32858208103891],[-123.09237431385732,49.330900948680735],[-123.0914340377073,49.33072897028323],[-123.09151178791235,49.33091956913929],[-123.09162083018686,49.33194575701833],[-123.09159761245823,49.33216285194572],[-123.09097437747442,49.33216162073705],[-123.0890489985896,49.33230253474611],[-123.08812745613947,49.33229751368677]]]}},{"id":"4","type":"Feature","properties":{"DAUID":"59150077","population_2021":456.0,"population_density":4145.454545454545,"adult_population_18plus_proxy":343.0,"adult_population_density":3118.181818181818,"canadian_citizens_18plus":270.0,"citizen_adult_density":2454.5454545454545,"age_0_14":95.0,"age_18_34_proxy":77.0,"age_35_49":100.0,"age_50_64":90.0,"senior_population_65plus":65.0,"senior_population_75plus":35.0,"senior_population_85plus":10.0,"senior_density":590.9090909090909,"occupied_private_dwellings":149.0,"housing_density":1354.5454545454545,"land_area_km2":0.11},"geometry":{"type":"Polygon","coordinates":[[[-123.08554539114876,49.32824700634825],[-123.08657592122746,49.32717419549976],[-123.08584230611721,49.32687249761023],[-123.0862888794647,49.32637829874655],[-123.08837890767145,49.325145812842365],[-123.0883770985963,49.324278385247844],[-123.0906635978942,49.32429590588606],[-123.09093560443348,49.324411301718754],[-123.09116171051024,49.32429400423576],[-123.09114531324263,49.326197507894165],[-123.09108888121624,49.326398319890956],[-123.08946869291428,49.326389304558475],[-123.08941960779717,49.32826489837543],[-123.08933360638792,49.32845270398417],[-123.08534261979615,49.328408101329686],[-123.08554539114876,49.32824700634825]]]}},{"id":"5","type":"Feature","properties":{"DAUID":"59150078","population_2021":721.0,"population_density":1502.0833333333335,"adult_population_18plus_proxy":558.0,"adult_population_density":1162.5,"canadian_citizens_18plus":465.0,"citizen_adult_density":968.75,"age_0_14":130.0,"age_18_34_proxy":127.0,"age_35_49":170.0,"age_50_64":170.0,"senior_population_65plus":90.0,"senior_population_75plus":35.0,"senior_population_85plus":10.0,"senior_density":187.5,"occupied_private_dwellings":239.0,"housing_density":497.9166666666667,"land_area_km2":0.48},"geometry":{"type":"Polygon","coordinates":[[[-123.08150291488438,49.32838740991766],[-123.08161560712524,49.323191707774676],[-123.0847608965573,49.32322440681829],[-123.08486740460435,49.318951700807936],[-123.08561838217462,49.31895219420377],[-123.0857123885119,49.31892229680114],[-123.0884051800114,49.319080134627214],[-123.08846194182725,49.31892649203108],[-123.08880730154652,49.319074198308115],[-123.08978691763689,49.319047414330996],[-123.091577504071,49.31905149439523],[-123.09140127450145,49.320061261474926],[-123.09184159055471,49.320211511590266],[-123.09139371612305,49.320160704554404],[-123.09124570105436,49.32225530502434],[-123.09116171051024,49.32429400423576],[-123.09093560443348,49.324411301718754],[-123.0906635978942,49.32429590588606],[-123.0883770985963,49.324278385247844],[-123.08837890767145,49.325145812842365],[-123.0862888794647,49.32637829874655],[-123.08584230611721,49.32687249761023],[-123.08657592122746,49.32717419549976],[-123.08554539114876,49.32824700634825],[-123.08534261979615,49.328408101329686],[-123.08150291488438,49.32838740991766]]]}},{"id":"6","type":"Feature","properties":{"DAUID":"59150079","population_2021":517.0,"population_density":5170.0,"adult_population_18plus_proxy":438.0,"adult_population_density":4380.0,"canadian_citizens_18plus":350.0,"citizen_adult_density":3500.0,"age_0_14":55.0,"age_18_34_proxy":106.0,"age_35_49":85.0,"age_50_64":170.0,"senior_population_65plus":85.0,"senior_population_75plus":30.0,"senior_population_85plus":10.0,"senior_density":850.0,"occupied_private_dwellings":206.0,"housing_density":2060.0,"land_area_km2":0.1},"geometry":{"type":"Polygon","coordinates":[[[-123.0847608965573,49.32322440681829],[-123.08161560712524,49.323191707774676],[-123.08159208848666,49.32424221335721],[-123.07851819317351,49.32421049501544],[-123.0785704254832,49.32213940009114],[-123.08163858673025,49.32217280347778],[-123.08169691079783,49.32113770705542],[-123.08481110386347,49.32115869729459],[-123.0847608965573,49.32322440681829]]]}},{"id":"7","type":"Feature","properties":{"DAUID":"59150080","population_2021":344.0,"population_density":4914.285714285714,"adult_population_18plus_proxy":292.0,"adult_population_density":4171.428571428571,"canadian_citizens_18plus":210.0,"citizen_adult_density":2999.9999999999995,"age_0_14":40.0,"age_18_34_proxy":83.0,"age_35_49":70.0,"age_50_64":95.0,"senior_population_65plus":35.0,"senior_population_75plus":10.0,"senior_population_85plus":0.0,"senior_density":499.99999999999994,"occupied_private_dwellings":134.0,"housing_density":1914.285714285714,"land_area_km2":0.07},"geometry":{"type":"Polygon","coordinates":[[[-123.08066128286889,49.31864630776562],[-123.08154438450873,49.31777130154866],[-123.08426640482426,49.31895080636818],[-123.08486740460435,49.318951700807936],[-123.08481110386347,49.32115869729459],[-123.08169691079783,49.32113770705542],[-123.08174672591937,49.31894860912469],[-123.08134540011135,49.318921487883],[-123.08066128286889,49.31864630776562]]]}},{"id":"8","type":"Feature","properties":{"DAUID":"59150081","population_2021":697.0,"population_density":4646.666666666667,"adult_population_18plus_proxy":570.0,"adult_population_density":3800.0,"canadian_citizens_18plus":430.0,"citizen_adult_density":2866.666666666667,"age_0_14":100.0,"age_18_34_proxy":158.0,"age_35_49":165.0,"age_50_64":150.0,"senior_population_65plus":100.0,"senior_population_75plus":50.0,"senior_population_85plus":10.0,"senior_density":666.6666666666667,"occupied_private_dwellings":283.0,"housing_density":1886.6666666666667,"land_area_km2":0.15},"geometry":{"type":"Polygon","coordinates":[[[-123.07567018866644,49.31920668830834],[-123.07767910698453,49.317189496206325],[-123.08078190639779,49.318521699529946],[-123.08066128286889,49.31864630776562],[-123.08134540011135,49.318921487883],[-123.08174672591937,49.31894860912469],[-123.08163858673025,49.32217280347778],[-123.0785704254832,49.32213940009114],[-123.07861989199154,49.32004671285027],[-123.07549610777379,49.32002520065051],[-123.07555560701469,49.319518785956184],[-123.07567018866644,49.31920668830834]]]}},{"id":"9","type":"Feature","properties":{"DAUID":"59150082","population_2021":709.0,"population_density":14180.0,"adult_population_18plus_proxy":582.0,"adult_population_density":11640.0,"canadian_citizens_18plus":515.0,"citizen_adult_density":10300.0,"age_0_14":115.0,"age_18_34_proxy":98.0,"age_35_49":170.0,"age_50_64":165.0,"senior_population_65plus":145.0,"senior_population_75plus":65.0,"senior_population_85plus":15.0,"senior_density":2900.0,"occupied_private_dwellings":335.0,"housing_density":6700.0,"land_area_km2":0.05},"geometry":{"type":"Polygon","coordinates":[[[-123.07553601840821,49.321068390374755],[-123.07549610777379,49.32002520065051],[-123.07861989199154,49.32004671285027],[-123.0785704254832,49.32213940009114],[-123.0755024118184,49.32210509193289],[-123.07553601840821,49.321068390374755]]]}},{"id":"10","type":"Feature","properties":{"DAUID":"59150083","population_2021":545.0,"population_density":10900.0,"adult_population_18plus_proxy":448.0,"adult_population_density":8960.0,"canadian_citizens_18plus":390.0,"citizen_adult_density":7800.0,"age_0_14":85.0,"age_18_34_proxy":88.0,"age_35_49":125.0,"age_50_64":105.0,"senior_population_65plus":115.0,"senior_population_75plus":55.0,"senior_population_85plus":20.0,"senior_density":2300.0,"occupied_private_dwellings":262.0,"housing_density":5240.0,"land_area_km2":0.05},"geometry":{"type":"Polygon","coordinates":[[[-123.07543210215978,49.324177399052466],[-123.0755024118184,49.32210509193289],[-123.0785704254832,49.32213940009114],[-123.07851819317351,49.32421049501544],[-123.07543210215978,49.324177399052466]]]}},{"id":"11","type":"Feature","properties":{"DAUID":"59150084","population_2021":884.0,"population_density":17680.0,"adult_population_18plus_proxy":824.0,"adult_population_density":16480.0,"canadian_citizens_18plus":715.0,"citizen_adult_density":14300.0,"age_0_14":45.0,"age_18_34_proxy":125.0,"age_35_49":185.0,"age_50_64":175.0,"senior_population_65plus":330.0,"senior_population_75plus":225.0,"senior_population_85plus":120.0,"senior_density":6600.0,"occupied_private_dwellings":583.0,"housing_density":11660.0,"land_area_km2":0.05},"geometry":{"type":"Polygon","coordinates":[[[-123.07229521609355,49.323097191284],[-123.07234821888018,49.3210181023693],[-123.07553601840821,49.321068390374755],[-123.07546801451477,49.32312909564723],[-123.07229521609355,49.323097191284]]]}},{"id":"12","type":"Feature","properties":{"DAUID":"59150085","population_2021":926.0,"population_density":18520.0,"adult_population_18plus_proxy":826.0,"adult_population_density":16520.0,"canadian_citizens_18plus":695.0,"citizen_adult_density":13900.0,"age_0_14":85.0,"age_18_34_proxy":165.0,"age_35_49":215.0,"age_50_64":175.0,"senior_population_65plus":280.0,"senior_population_75plus":155.0,"senior_population_85plus":55.0,"senior_density":5600.0,"occupied_private_dwellings":537.0,"housing_density":10740.0,"land_area_km2":0.05},"geometry":{"type":"Polygon","coordinates":[[[-123.07070711155633,49.3241296050211],[-123.07076270386213,49.32205499888597],[-123.0723188988967,49.32206931696825],[-123.07229521609355,49.323097191284],[-123.07546801451477,49.32312909564723],[-123.07543210215978,49.324177399052466],[-123.07070711155633,49.3241296050211]]]}},{"id":"13","type":"Feature","properties":{"DAUID":"59150086","population_2021":728.0,"population_density":14560.0,"adult_population_18plus_proxy":659.0,"adult_population_density":13180.0,"canadian_citizens_18plus":550.0,"citizen_adult_density":11000.0,"age_0_14":60.0,"age_18_34_proxy":166.0,"age_35_49":150.0,"age_50_64":170.0,"senior_population_65plus":155.0,"senior_population_75plus":70.0,"senior_population_85plus":15.0,"senior_density":3100.0,"occupied_private_dwellings":432.0,"housing_density":8640.0,"land_area_km2":0.05},"geometry":{"type":"Polygon","coordinates":[[[-123.06911990420781,49.32514850431791],[-123.06914680438437,49.324114307896906],[-123.07543210215978,49.324177399052466],[-123.07539559484958,49.32521220712768],[-123.06911990420781,49.32514850431791]]]}},{"id":"14","type":"Feature","properties":{"DAUID":"59150087","population_2021":437.0,"population_density":14566.666666666668,"adult_population_18plus_proxy":398.0,"adult_population_density":13266.666666666668,"canadian_citizens_18plus":315.0,"citizen_adult_density":10500.0,"age_0_14":30.0,"age_18_34_proxy":151.0,"age_35_49":120.0,"age_50_64":75.0,"senior_population_65plus":50.0,"senior_population_75plus":10.0,"senior_population_85plus":5.0,"senior_density":1666.6666666666667,"occupied_private_dwellings":243.0,"housing_density":8100.0,"land_area_km2":0.03},"geometry":{"type":"Polygon","coordinates":[[[-123.06914680438437,49.324114307896906],[-123.06919817688707,49.32204050334739],[-123.07076270386213,49.32205499888597],[-123.07070711155633,49.3241296050211],[-123.06914680438437,49.324114307896906]]]}},{"id":"15","type":"Feature","properties":{"DAUID":"59150088","population_2021":377.0,"population_density":12566.666666666668,"adult_population_18plus_proxy":326.0,"adult_population_density":10866.666666666668,"canadian_citizens_18plus":245.0,"citizen_adult_density":8166.666666666667,"age_0_14":45.0,"age_18_34_proxy":79.0,"age_35_49":90.0,"age_50_64":105.0,"senior_population_65plus":50.0,"senior_population_75plus":15.0,"senior_population_85plus":10.0,"senior_density":1666.6666666666667,"occupied_private_dwellings":195.0,"housing_density":6500.0,"land_area_km2":0.03},"geometry":{"type":"Polygon","coordinates":[[[-123.06609321397701,49.32302360020844],[-123.06612287523751,49.322011102685096],[-123.06919817688707,49.32204050334739],[-123.06917551556803,49.323052304703836],[-123.06609321397701,49.32302360020844]]]}},{"id":"16","type":"Feature","properties":{"DAUID":"59150089","population_2021":606.0,"population_density":7575.0,"adult_population_18plus_proxy":487.0,"adult_population_density":6087.5,"canadian_citizens_18plus":390.0,"citizen_adult_density":4875.0,"age_0_14":95.0,"age_18_34_proxy":126.0,"age_35_49":145.0,"age_50_64":150.0,"senior_population_65plus":75.0,"senior_population_75plus":35.0,"senior_population_85plus":0.0,"senior_density":937.5,"occupied_private_dwellings":261.0,"housing_density":3262.5,"land_area_km2":0.08},"geometry":{"type":"Polygon","coordinates":[[[-123.06296998725004,49.3240529025304],[-123.06302560627327,49.32198370462081],[-123.06612287523751,49.322011102685096],[-123.06609321397701,49.32302360020844],[-123.06917551556803,49.323052304703836],[-123.06914680438437,49.324114307896906],[-123.06296998725004,49.3240529025304]]]}},{"id":"17","type":"Feature","properties":{"DAUID":"59150090","population_2021":565.0,"population_density":5650.0,"adult_population_18plus_proxy":453.0,"adult_population_density":4530.0,"canadian_citizens_18plus":400.0,"citizen_adult_density":4000.0,"age_0_14":85.0,"age_18_34_proxy":98.0,"age_35_49":110.0,"age_50_64":135.0,"senior_population_65plus":110.0,"senior_population_75plus":45.0,"senior_population_85plus":15.0,"senior_density":1100.0,"occupied_private_dwellings":204.0,"housing_density":2040.0,"land_area_km2":0.1},"geometry":{"type":"Polygon","coordinates":[[[-123.06291367781272,49.32613460202608],[-123.06296998725004,49.3240529025304],[-123.06914680438437,49.324114307896906],[-123.0690936036372,49.32619430509261],[-123.06291367781272,49.32613460202608]]]}},{"id":"18","type":"Feature","properties":{"DAUID":"59150091","population_2021":781.0,"population_density":15620.0,"adult_population_18plus_proxy":689.0,"adult_population_density":13780.0,"canadian_citizens_18plus":535.0,"citizen_adult_density":10700.0,"age_0_14":65.0,"age_18_34_proxy":218.0,"age_35_49":185.0,"age_50_64":165.0,"senior_population_65plus":120.0,"senior_population_75plus":40.0,"senior_population_85plus":10.0,"senior_density":2400.0,"occupied_private_dwellings":429.0,"housing_density":8580.0,"land_area_km2":0.05},"geometry":{"type":"Polygon","coordinates":[[[-123.06906789419482,49.32720960445298],[-123.06911990420781,49.32514850431791],[-123.07224069819856,49.32517810611977],[-123.07218799518029,49.32725280198475],[-123.06906789419482,49.32720960445298]]]}},{"id":"19","type":"Feature","properties":{"DAUID":"59150092","population_2021":598.0,"population_density":11960.0,"adult_population_18plus_proxy":546.0,"adult_population_density":10920.0,"canadian_citizens_18plus":400.0,"citizen_adult_density":8000.0,"age_0_14":40.0,"age_18_34_proxy":168.0,"age_35_49":130.0,"age_50_64":135.0,"senior_population_65plus":105.0,"senior_population_75plus":50.0,"senior_population_85plus":15.0,"senior_density":2100.0,"occupied_private_dwellings":343.0,"housing_density":6860.0,"land_area_km2":0.05},"geometry":{"type":"Polygon","coordinates":[[[-123.06907870450694,49.32823400049044],[-123.06906789419482,49.32720960445298],[-123.07535898400964,49.32729630146239],[-123.07533048630371,49.32831330403807],[-123.06907870450694,49.32823400049044]]]}},{"id":"20","type":"Feature","properties":{"DAUID":"59150093","population_2021":593.0,"population_density":5930.0,"adult_population_18plus_proxy":492.0,"adult_population_density":4920.0,"canadian_citizens_18plus":400.0,"citizen_adult_density":4000.0,"age_0_14":80.0,"age_18_34_proxy":124.0,"age_35_49":110.0,"age_50_64":125.0,"senior_population_65plus":145.0,"senior_population_75plus":60.0,"senior_population_85plus":20.0,"senior_density":1450.0,"occupied_private_dwellings":267.0,"housing_density":2670.0,"land_area_km2":0.1},"geometry":{"type":"Polygon","coordinates":[[[-123.07218799518029,49.32725280198475],[-123.07221430990192,49.326226707101576],[-123.07846960267959,49.326290597391875],[-123.07839500045749,49.32932659745101],[-123.07614759825606,49.329296412545474],[-123.07530332018622,49.329486100412346],[-123.07535898400964,49.32729630146239],[-123.07218799518029,49.32725280198475]]]}},{"id":"21","type":"Feature","properties":{"DAUID":"59150094","population_2021":687.0,"population_density":8587.5,"adult_population_18plus_proxy":584.0,"adult_population_density":7300.0,"canadian_citizens_18plus":545.0,"citizen_adult_density":6812.5,"age_0_14":85.0,"age_18_34_proxy":142.0,"age_35_49":155.0,"age_50_64":160.0,"senior_population_65plus":130.0,"senior_population_75plus":55.0,"senior_population_85plus":20.0,"senior_density":1625.0,"occupied_private_dwellings":317.0,"housing_density":3962.5,"land_area_km2":0.08},"geometry":{"type":"Polygon","coordinates":[[[-123.07846960267959,49.326290597391875],[-123.07221430990192,49.326226707101576],[-123.07224069819856,49.32517810611977],[-123.07539559484958,49.32521220712768],[-123.07543210215978,49.324177399052466],[-123.07851819317351,49.32421049501544],[-123.07846960267959,49.326290597391875]]]}},{"id":"22","type":"Feature","properties":{"DAUID":"59150095","population_2021":530.0,"population_density":4076.9230769230767,"adult_population_18plus_proxy":421.0,"adult_population_density":3238.4615384615386,"canadian_citizens_18plus":360.0,"citizen_adult_density":2769.230769230769,"age_0_14":85.0,"age_18_34_proxy":91.0,"age_35_49":110.0,"age_50_64":150.0,"senior_population_65plus":70.0,"senior_population_75plus":20.0,"senior_population_85plus":0.0,"senior_density":538.4615384615385,"occupied_private_dwellings":193.0,"housing_density":1484.6153846153845,"land_area_km2":0.13},"geometry":{"type":"Polygon","coordinates":[[[-123.07839500045749,49.32932659745101],[-123.07851819317351,49.32421049501544],[-123.08159208848666,49.32424221335721],[-123.0814810842081,49.329366707240354],[-123.07839500045749,49.32932659745101]]]}},{"id":"23","type":"Feature","properties":{"DAUID":"59150096","population_2021":569.0,"population_density":3347.0588235294117,"adult_population_18plus_proxy":471.0,"adult_population_density":2770.5882352941176,"canadian_citizens_18plus":370.0,"citizen_adult_density":2176.470588235294,"age_0_14":80.0,"age_18_34_proxy":102.0,"age_35_49":125.0,"age_50_64":120.0,"senior_population_65plus":115.0,"senior_population_75plus":45.0,"senior_population_85plus":15.0,"senior_density":676.470588235294,"occupied_private_dwellings":213.0,"housing_density":1252.941176470588,"land_area_km2":0.17},"geometry":{"type":"Polygon","coordinates":[[[-123.08457288722424,49.3313488014701],[-123.07528099506804,49.33125531869078],[-123.07530332018622,49.329486100412346],[-123.07614759825606,49.329296412545474],[-123.0814810842081,49.329366707240354],[-123.08150291488438,49.32838740991766],[-123.08534261979615,49.328408101329686],[-123.08440106338074,49.3291600197571],[-123.08456338467916,49.32926892427137],[-123.08459679318625,49.32939409882236],[-123.08457288722424,49.3313488014701]]]}},{"id":"24","type":"Feature","properties":{"DAUID":"59150097","population_2021":711.0,"population_density":4443.75,"adult_population_18plus_proxy":553.0,"adult_population_density":3456.25,"canadian_citizens_18plus":495.0,"citizen_adult_density":3093.75,"age_0_14":125.0,"age_18_34_proxy":112.0,"age_35_49":160.0,"age_50_64":175.0,"senior_population_65plus":110.0,"senior_population_75plus":55.0,"senior_population_85plus":15.0,"senior_density":687.5,"occupied_private_dwellings":248.0,"housing_density":1550.0,"land_area_km2":0.16},"geometry":{"type":"Polygon","coordinates":[[[-123.0782934827636,49.3356474030789],[-123.07833866753056,49.332357589396615],[-123.08144729862408,49.33241370454129],[-123.08265588184267,49.332338231909596],[-123.08453418597583,49.33233484356359],[-123.08449780901813,49.33564470868335],[-123.08141180166449,49.3356191149312],[-123.07962289720935,49.33562121506471],[-123.0788050378941,49.33567089992199],[-123.07875020702055,49.33564979760528],[-123.0782934827636,49.3356474030789]]]}},{"id":"25","type":"Feature","properties":{"DAUID":"59150098","population_2021":429.0,"population_density":3900.0,"adult_population_18plus_proxy":336.0,"adult_population_density":3054.5454545454545,"canadian_citizens_18plus":325.0,"citizen_adult_density":2954.5454545454545,"age_0_14":75.0,"age_18_34_proxy":57.0,"age_35_49":100.0,"age_50_64":110.0,"senior_population_65plus":65.0,"senior_population_75plus":30.0,"senior_population_85plus":5.0,"senior_density":590.9090909090909,"occupied_private_dwellings":185.0,"housing_density":1681.8181818181818,"land_area_km2":0.11},"geometry":{"type":"Polygon","coordinates":[[[-123.08447857751375,49.33190642817218],[-123.08457288722424,49.3313488014701],[-123.08748109654141,49.331374895652004],[-123.088167909915,49.33121691261384],[-123.08810810766298,49.33523134690639],[-123.08450300265253,49.335190006591084],[-123.08454878581689,49.33218024161476],[-123.08447857751375,49.33190642817218]]]}},{"id":"26","type":"Feature","properties":{"DAUID":"59150099","population_2021":581.0,"population_density":5810.0,"adult_population_18plus_proxy":457.0,"adult_population_density":4570.0,"canadian_citizens_18plus":420.0,"citizen_adult_density":4200.0,"age_0_14":100.0,"age_18_34_proxy":126.0,"age_35_49":140.0,"age_50_64":125.0,"senior_population_65plus":60.0,"senior_population_75plus":20.0,"senior_population_85plus":5.0,"senior_density":600.0,"occupied_private_dwellings":202.0,"housing_density":2020.0,"land_area_km2":0.1},"geometry":{"type":"Polygon","coordinates":[[[-123.08770002420938,49.33566079641118],[-123.08449780901813,49.33564470868335],[-123.08450300265253,49.335190006591084],[-123.08810810766298,49.33523134690639],[-123.08812745613947,49.33229751368677],[-123.0890489985896,49.33230253474611],[-123.09097437747442,49.33216162073705],[-123.09159761245823,49.33216285194572],[-123.09153911234779,49.33238641029593],[-123.09145460275506,49.333429966002214],[-123.09137344943099,49.335729502775756],[-123.09092876045692,49.335731188002576],[-123.08810167957681,49.33555270601941],[-123.08770002420938,49.33566079641118]]]}},{"id":"27","type":"Feature","properties":{"DAUID":"59150140","population_2021":498.0,"population_density":5533.333333333334,"adult_population_18plus_proxy":416.0,"adult_population_density":4622.222222222223,"canadian_citizens_18plus":420.0,"citizen_adult_density":4666.666666666667,"age_0_14":70.0,"age_18_34_proxy":108.0,"age_35_49":95.0,"age_50_64":120.0,"senior_population_65plus":80.0,"senior_population_75plus":30.0,"senior_population_85plus":5.0,"senior_density":888.8888888888889,"occupied_private_dwellings":214.0,"housing_density":2377.777777777778,"land_area_km2":0.09},"geometry":{"type":"Polygon","coordinates":[[[-123.06890838668399,49.3322959076447],[-123.06882348462914,49.33200698023567],[-123.07200265182192,49.332034824795336],[-123.07200338430442,49.33337231420372],[-123.07206061675743,49.33346843160555],[-123.07201030405679,49.335657512729775],[-123.06885978627288,49.33564960883096],[-123.06890838668399,49.3322959076447]]]}},{"id":"28","type":"Feature","properties":{"DAUID":"59150141","population_2021":1359.0,"population_density":4853.571428571428,"adult_population_18plus_proxy":1161.0,"adult_population_density":4146.428571428571,"canadian_citizens_18plus":1005.0,"citizen_adult_density":3589.2857142857138,"age_0_14":165.0,"age_18_34_proxy":257.0,"age_35_49":345.0,"age_50_64":320.0,"senior_population_65plus":240.0,"senior_population_75plus":100.0,"senior_population_85plus":25.0,"senior_density":857.1428571428571,"occupied_private_dwellings":668.0,"housing_density":2385.7142857142853,"land_area_km2":0.28},"geometry":{"type":"Polygon","coordinates":[[[-123.06895171106603,49.33171971318649],[-123.06907870450694,49.32823400049044],[-123.07533048630371,49.32831330403807],[-123.07528099506804,49.33125531869078],[-123.08457288722424,49.3313488014701],[-123.08447857751375,49.33190642817218],[-123.08454878581689,49.33218024161476],[-123.08453418597583,49.33233484356359],[-123.08265588184267,49.332338231909596],[-123.08144729862408,49.33241370454129],[-123.07990920106744,49.33236849033928],[-123.07200271250848,49.33231671757076],[-123.07200265182192,49.332034824795336],[-123.06882348462914,49.33200698023567],[-123.06895171106603,49.33171971318649]]]}},{"id":"29","type":"Feature","properties":{"DAUID":"59150142","population_2021":523.0,"population_density":2905.5555555555557,"adult_population_18plus_proxy":421.0,"adult_population_density":2338.888888888889,"canadian_citizens_18plus":360.0,"citizen_adult_density":2000.0,"age_0_14":90.0,"age_18_34_proxy":88.0,"age_35_49":120.0,"age_50_64":120.0,"senior_population_65plus":90.0,"senior_population_75plus":30.0,"senior_population_85plus":10.0,"senior_density":500.0,"occupied_private_dwellings":201.0,"housing_density":1116.6666666666667,"land_area_km2":0.18},"geometry":{"type":"Polygon","coordinates":[[[-123.0619131072055,49.32842041318147],[-123.06126260551312,49.32689859192247],[-123.06113909640975,49.326698798564124],[-123.06084620802119,49.3264359985451],[-123.06036649500282,49.32616899977408],[-123.06033659455736,49.32609880988681],[-123.0690936036372,49.32619430509261],[-123.06906789419482,49.32720960445298],[-123.06288957926937,49.3271228950785],[-123.062838493614,49.329165204604635],[-123.06589810130517,49.32920958627575],[-123.06589051090607,49.33017760217711],[-123.06899148271857,49.33019957347824],[-123.06895171106603,49.33171971318649],[-123.06882348462914,49.33200698023567],[-123.06587823420665,49.3319945573602],[-123.06586271321619,49.331159497784434],[-123.06278030966926,49.331123486499955],[-123.06280751539279,49.330153283788135],[-123.06199850915604,49.330153811464236],[-123.0619131072055,49.32842041318147]]]}},{"id":"30","type":"Feature","properties":{"DAUID":"59150143","population_2021":497.0,"population_density":3823.076923076923,"adult_population_18plus_proxy":397.0,"adult_population_density":3053.846153846154,"canadian_citizens_18plus":360.0,"citizen_adult_density":2769.230769230769,"age_0_14":85.0,"age_18_34_proxy":85.0,"age_35_49":110.0,"age_50_64":120.0,"senior_population_65plus":80.0,"senior_population_75plus":40.0,"senior_population_85plus":15.0,"senior_density":615.3846153846154,"occupied_private_dwellings":194.0,"housing_density":1492.3076923076922,"land_area_km2":0.13},"geometry":{"type":"Polygon","coordinates":[[[-123.062838493614,49.329165204604635],[-123.06288957926937,49.3271228950785],[-123.06906789419482,49.32720960445298],[-123.06907870450694,49.32823400049044],[-123.06899148271857,49.33019957347824],[-123.06589051090607,49.33017760217711],[-123.06589810130517,49.32920958627575],[-123.062838493614,49.329165204604635]]]}},{"id":"31","type":"Feature","properties":{"DAUID":"59150145","population_2021":833.0,"population_density":3085.1851851851848,"adult_population_18plus_proxy":666.0,"adult_population_density":2466.6666666666665,"canadian_citizens_18plus":600.0,"citizen_adult_density":2222.222222222222,"age_0_14":140.0,"age_18_34_proxy":173.0,"age_35_49":200.0,"age_50_64":165.0,"senior_population_65plus":140.0,"senior_population_75plus":35.0,"senior_population_85plus":10.0,"senior_density":518.5185185185185,"occupied_private_dwellings":279.0,"housing_density":1033.3333333333333,"land_area_km2":0.27},"geometry":{"type":"Polygon","coordinates":[[[-123.06291961224903,49.33363470954764],[-123.06145348992672,49.3333877181443],[-123.06144669118267,49.333863096146644],[-123.06113878899656,49.33383669144004],[-123.06060539574905,49.333894303733],[-123.05917549262243,49.3347019985953],[-123.05795649529031,49.33558749845432],[-123.05468261365985,49.335574007029756],[-123.05469437645279,49.334998803348014],[-123.05489198034782,49.33466099818175],[-123.05516141122106,49.33447110347154],[-123.05554838162743,49.33466090417729],[-123.0557190783951,49.33470250644206],[-123.0562883191016,49.33470899197177],[-123.05641869823685,49.33467021306577],[-123.05722320509113,49.33407149992542],[-123.05794907831506,49.33358240850863],[-123.05869218731436,49.33316850158998],[-123.05882238981324,49.333046003952795],[-123.0588457948246,49.332959194758274],[-123.05870729565402,49.33282308641243],[-123.05705288572553,49.332442092909176],[-123.05642051631804,49.332217700516104],[-123.05558170780449,49.33186340685927],[-123.05430870929648,49.33124149736164],[-123.05413130833641,49.33119789291631],[-123.05374638510264,49.33119189962838],[-123.05369439245165,49.33233439881001],[-123.05315089705049,49.33233490706008],[-123.05318957229422,49.33146679813535],[-123.05307035581095,49.33118082836501],[-123.05310981925646,49.32915340362112],[-123.05326115301499,49.32861662154728],[-123.05356089809315,49.328917105579514],[-123.05414810652357,49.32963569783247],[-123.05488939673208,49.33030978234525],[-123.055343712355,49.33063020200768],[-123.05655137131163,49.331283698217064],[-123.05722431299527,49.33156318063223],[-123.05806249358852,49.33181929893097],[-123.05952318258227,49.33208599679555],[-123.0602597991587,49.332142109162284],[-123.06626169906173,49.33198450971677],[-123.06882348462914,49.33200698023567],[-123.06890838668399,49.3322959076447],[-123.06888408057647,49.33409210078596],[-123.06384700233333,49.334047208122634],[-123.06291961224903,49.33363470954764]]]}},{"id":"32","type":"Feature","properties":{"DAUID":"59150146","population_2021":511.0,"population_density":4645.454545454545,"adult_population_18plus_proxy":418.0,"adult_population_density":3800.0,"canadian_citizens_18plus":380.0,"citizen_adult_density":3454.5454545454545,"age_0_14":75.0,"age_18_34_proxy":82.0,"age_35_49":95.0,"age_50_64":115.0,"senior_population_65plus":120.0,"senior_population_75plus":30.0,"senior_population_85plus":10.0,"senior_density":1090.909090909091,"occupied_private_dwellings":169.0,"housing_density":1536.3636363636363,"land_area_km2":0.11},"geometry":{"type":"Polygon","coordinates":[[[-123.05302900253294,49.33556950710574],[-123.05315089705049,49.33233490706008],[-123.05369439245165,49.33233439881001],[-123.05374638510264,49.33119189962838],[-123.05413130833641,49.33119789291631],[-123.05430870929648,49.33124149736164],[-123.05558170780449,49.33186340685927],[-123.05642051631804,49.332217700516104],[-123.05705288572553,49.332442092909176],[-123.05870729565402,49.33282308641243],[-123.05879561371522,49.33288400614252],[-123.0588457948246,49.332959194758274],[-123.05882238981324,49.333046003952795],[-123.05869218731436,49.33316850158998],[-123.05794907831506,49.33358240850863],[-123.05722320509113,49.33407149992542],[-123.05641869823685,49.33467021306577],[-123.0562883191016,49.33470899197177],[-123.0557190783951,49.33470250644206],[-123.05554838162743,49.33466090417729],[-123.05516141122106,49.33447110347154],[-123.05489198034782,49.33466099818175],[-123.05469437645279,49.334998803348014],[-123.05468261365985,49.335574007029756],[-123.05302900253294,49.33556950710574]]]}},{"id":"33","type":"Feature","properties":{"DAUID":"59150176","population_2021":664.0,"population_density":6036.363636363636,"adult_population_18plus_proxy":462.0,"adult_population_density":4200.0,"canadian_citizens_18plus":440.0,"citizen_adult_density":4000.0,"age_0_14":160.0,"age_18_34_proxy":118.0,"age_35_49":155.0,"age_50_64":150.0,"senior_population_65plus":40.0,"senior_population_75plus":15.0,"senior_population_85plus":5.0,"senior_density":363.6363636363636,"occupied_private_dwellings":218.0,"housing_density":1981.8181818181818,"land_area_km2":0.11},"geometry":{"type":"Polygon","coordinates":[[[-123.04097922290656,49.32375074420228],[-123.04096641422952,49.32283289608592],[-123.0411242868541,49.322837194949884],[-123.04160721891738,49.322965702872786],[-123.04195918991635,49.32316271174473],[-123.04278477928182,49.324129199596115],[-123.0441242833325,49.325362906289186],[-123.04502620080552,49.32588841079507],[-123.04560932694201,49.326171801466224],[-123.04589430693048,49.32638410410805],[-123.04609269184544,49.32663900200486],[-123.04616250688133,49.32688229948836],[-123.04616074713648,49.327134526413126],[-123.04425659204075,49.32708533669705],[-123.04242152283895,49.327147179546856],[-123.04148909566301,49.32702479686418],[-123.0406356970165,49.327000415995634],[-123.04070200147456,49.325960073676015],[-123.04097922290656,49.32375074420228]]]}},{"id":"34","type":"Feature","properties":{"DAUID":"59150178","population_2021":789.0,"population_density":1547.0588235294117,"adult_population_18plus_proxy":621.0,"adult_population_density":1217.6470588235293,"canadian_citizens_18plus":555.0,"citizen_adult_density":1088.235294117647,"age_0_14":135.0,"age_18_34_proxy":152.0,"age_35_49":165.0,"age_50_64":175.0,"senior_population_65plus":125.0,"senior_population_75plus":60.0,"senior_population_85plus":20.0,"senior_density":245.09803921568627,"occupied_private_dwellings":278.0,"housing_density":545.0980392156863,"land_area_km2":0.51},"geometry":{"type":"Polygon","coordinates":[[[-123.04096641422952,49.32283289608592],[-123.04094083734205,49.320666942312364],[-123.04171626849596,49.32071966329611],[-123.04488317070745,49.32060933021589],[-123.04627230521251,49.32067228794872],[-123.05070811088312,49.32069798669525],[-123.05066711597892,49.3249498949558],[-123.05464339252268,49.325004304929465],[-123.05463039693095,49.32605329198496],[-123.05623948586585,49.32606019240179],[-123.05618140655989,49.32643329908867],[-123.05606860923464,49.32680129710875],[-123.05580330006875,49.32731738910664],[-123.05531879207413,49.327841000481406],[-123.05481219087592,49.328235214003236],[-123.05356089809315,49.328917105579514],[-123.05326115301499,49.32861662154728],[-123.05302309105974,49.32824499294905],[-123.05303398728842,49.32750260522474],[-123.05324859518615,49.32724596560207],[-123.05324689617237,49.32707788288055],[-123.05113722199916,49.327176655273476],[-123.04747180459836,49.32716839030406],[-123.04616074713648,49.327134526413126],[-123.04616250688133,49.32688229948836],[-123.04609269184544,49.32663900200486],[-123.04589430693048,49.32638410410805],[-123.04560932694201,49.326171801466224],[-123.04502620080552,49.32588841079507],[-123.0441242833325,49.325362906289186],[-123.04278477928182,49.324129199596115],[-123.04195918991635,49.32316271174473],[-123.04160721891738,49.322965702872786],[-123.0411242868541,49.322837194949884],[-123.04096641422952,49.32283289608592]]]}},{"id":"35","type":"Feature","properties":{"DAUID":"59150180","population_2021":507.0,"population_density":3621.428571428571,"adult_population_18plus_proxy":388.0,"adult_population_density":2771.428571428571,"canadian_citizens_18plus":385.0,"citizen_adult_density":2749.9999999999995,"age_0_14":95.0,"age_18_34_proxy":91.0,"age_35_49":95.0,"age_50_64":105.0,"senior_population_65plus":90.0,"senior_population_75plus":35.0,"senior_population_85plus":10.0,"senior_density":642.8571428571428,"occupied_private_dwellings":179.0,"housing_density":1278.5714285714284,"land_area_km2":0.14},"geometry":{"type":"Polygon","coordinates":[[[-123.05066711597892,49.3249498949558],[-123.05070811088312,49.32069798669525],[-123.05468061358903,49.32072079663389],[-123.05463528772891,49.32186519708723],[-123.05464339252268,49.325004304929465],[-123.05066711597892,49.3249498949558]]]}},{"id":"36","type":"Feature","properties":{"DAUID":"59150181","population_2021":527.0,"population_density":3100.0,"adult_population_18plus_proxy":414.0,"adult_population_density":2435.2941176470586,"canadian_citizens_18plus":265.0,"citizen_adult_density":1558.8235294117646,"age_0_14":95.0,"age_18_34_proxy":97.0,"age_35_49":110.0,"age_50_64":120.0,"senior_population_65plus":90.0,"senior_population_75plus":30.0,"senior_population_85plus":5.0,"senior_density":529.4117647058823,"occupied_private_dwellings":187.0,"housing_density":1100.0,"land_area_km2":0.17},"geometry":{"type":"Polygon","coordinates":[[[-123.06296998725004,49.3240529025304],[-123.05627909943371,49.32398610186869],[-123.05623948586585,49.32606019240179],[-123.05463039693095,49.32605329198496],[-123.05463528772891,49.32186519708723],[-123.05754580361787,49.32186799048853],[-123.06302560627327,49.32198370462081],[-123.06296998725004,49.3240529025304]]]}},{"id":"37","type":"Feature","properties":{"DAUID":"59150182","population_2021":838.0,"population_density":1862.2222222222222,"adult_population_18plus_proxy":657.0,"adult_population_density":1460.0,"canadian_citizens_18plus":640.0,"citizen_adult_density":1422.2222222222222,"age_0_14":145.0,"age_18_34_proxy":144.0,"age_35_49":175.0,"age_50_64":200.0,"senior_population_65plus":135.0,"senior_population_75plus":55.0,"senior_population_85plus":20.0,"senior_density":300.0,"occupied_private_dwellings":288.0,"housing_density":640.0,"land_area_km2":0.45},"geometry":{"type":"Polygon","coordinates":[[[-123.05481219087592,49.328235214003236],[-123.05531879207413,49.327841000481406],[-123.05580330006875,49.32731738910664],[-123.05606860923464,49.32680129710875],[-123.05618140655989,49.32643329908867],[-123.05623948586585,49.32606019240179],[-123.05627909943371,49.32398610186869],[-123.06296998725004,49.3240529025304],[-123.06291367781272,49.32613460202608],[-123.06033659455736,49.32609880988681],[-123.06036649500282,49.32616899977408],[-123.06084620802119,49.3264359985451],[-123.06113909640975,49.326698798564124],[-123.06126260551312,49.32689859192247],[-123.0619131072055,49.32842041318147],[-123.06199850915604,49.330153811464236],[-123.06280751539279,49.330153283788135],[-123.06278030966926,49.331123486499955],[-123.06586271321619,49.331159497784434],[-123.06587823420665,49.3319945573602],[-123.0602597991587,49.332142109162284],[-123.05952318258227,49.33208599679555],[-123.05806249358852,49.33181929893097],[-123.05722431299527,49.33156318063223],[-123.05655137131163,49.331283698217064],[-123.055343712355,49.33063020200768],[-123.05488939673208,49.33030978234525],[-123.05414810652357,49.32963569783247],[-123.05356089809315,49.328917105579514],[-123.05481219087592,49.328235214003236]]]}},{"id":"38","type":"Feature","properties":{"DAUID":"59150183","population_2021":764.0,"population_density":4775.0,"adult_population_18plus_proxy":584.0,"adult_population_density":3650.0,"canadian_citizens_18plus":480.0,"citizen_adult_density":3000.0,"age_0_14":150.0,"age_18_34_proxy":130.0,"age_35_49":165.0,"age_50_64":150.0,"senior_population_65plus":140.0,"senior_population_75plus":65.0,"senior_population_85plus":20.0,"senior_density":875.0,"occupied_private_dwellings":299.0,"housing_density":1868.75,"land_area_km2":0.16},"geometry":{"type":"Polygon","coordinates":[[[-123.05995110238436,49.31983929806234],[-123.0600073215077,49.31882310687406],[-123.06617551317755,49.318900705323145],[-123.06612287523751,49.322011102685096],[-123.06302560627327,49.32198370462081],[-123.0599877927644,49.32190469670371],[-123.05995110238436,49.31983929806234]]]}},{"id":"39","type":"Feature","properties":{"DAUID":"59150184","population_2021":666.0,"population_density":8325.0,"adult_population_18plus_proxy":599.0,"adult_population_density":7487.5,"canadian_citizens_18plus":325.0,"citizen_adult_density":4062.5,"age_0_14":55.0,"age_18_34_proxy":138.0,"age_35_49":100.0,"age_50_64":120.0,"senior_population_65plus":240.0,"senior_population_75plus":170.0,"senior_population_85plus":115.0,"senior_density":3000.0,"occupied_private_dwellings":235.0,"housing_density":2937.5,"land_area_km2":0.08},"geometry":{"type":"Polygon","coordinates":[[[-123.06612287523751,49.322011102685096],[-123.06617551317755,49.318900705323145],[-123.06927809032989,49.31892991916698],[-123.06919817688707,49.32204050334739],[-123.06612287523751,49.322011102685096]]]}},{"id":"40","type":"Feature","properties":{"DAUID":"59150185","population_2021":809.0,"population_density":7354.545454545455,"adult_population_18plus_proxy":661.0,"adult_population_density":6009.090909090909,"canadian_citizens_18plus":595.0,"citizen_adult_density":5409.090909090909,"age_0_14":130.0,"age_18_34_proxy":152.0,"age_35_49":175.0,"age_50_64":180.0,"senior_population_65plus":165.0,"senior_population_75plus":65.0,"senior_population_85plus":20.0,"senior_density":1500.0,"occupied_private_dwellings":365.0,"housing_density":3318.181818181818,"land_area_km2":0.11},"geometry":{"type":"Polygon","coordinates":[[[-123.06310791725683,49.3188623905715],[-123.06316440111563,49.31675630148682],[-123.06933283690886,49.31682470259459],[-123.06927809032989,49.31892991916698],[-123.06310791725683,49.3188623905715]]]}},{"id":"41","type":"Feature","properties":{"DAUID":"59150186","population_2021":668.0,"population_density":13360.0,"adult_population_18plus_proxy":596.0,"adult_population_density":11920.0,"canadian_citizens_18plus":440.0,"citizen_adult_density":8800.0,"age_0_14":60.0,"age_18_34_proxy":193.0,"age_35_49":165.0,"age_50_64":115.0,"senior_population_65plus":130.0,"senior_population_75plus":60.0,"senior_population_85plus":15.0,"senior_density":2600.0,"occupied_private_dwellings":353.0,"housing_density":7060.0,"land_area_km2":0.05},"geometry":{"type":"Polygon","coordinates":[[[-123.06925298404721,49.31993439909147],[-123.0693058120393,49.31786160126272],[-123.07256198028453,49.31789578480989],[-123.07243831935585,49.31813291824207],[-123.07237330856128,49.31996679371065],[-123.06925298404721,49.31993439909147]]]}},{"id":"42","type":"Feature","properties":{"DAUID":"59150187","population_2021":1160.0,"population_density":12888.888888888889,"adult_population_18plus_proxy":1051.0,"adult_population_density":11677.777777777777,"canadian_citizens_18plus":910.0,"citizen_adult_density":10111.111111111111,"age_0_14":100.0,"age_18_34_proxy":316.0,"age_35_49":270.0,"age_50_64":195.0,"senior_population_65plus":265.0,"senior_population_75plus":140.0,"senior_population_85plus":45.0,"senior_density":2944.4444444444443,"occupied_private_dwellings":699.0,"housing_density":7766.666666666667,"land_area_km2":0.09},"geometry":{"type":"Polygon","coordinates":[[[-123.06949560724105,49.316468800452085],[-123.07141819504115,49.31462321561574],[-123.0744737916273,49.31595711140311],[-123.07256198028453,49.31789578480989],[-123.0693058120393,49.31786160126272],[-123.06933462428741,49.31675269426235],[-123.06949560724105,49.316468800452085]]]}},{"id":"43","type":"Feature","properties":{"DAUID":"59150188","population_2021":476.0,"population_density":15866.666666666668,"adult_population_18plus_proxy":437.0,"adult_population_density":14566.666666666668,"canadian_citizens_18plus":440.0,"citizen_adult_density":14666.666666666668,"age_0_14":30.0,"age_18_34_proxy":61.0,"age_35_49":90.0,"age_50_64":95.0,"senior_population_65plus":190.0,"senior_population_75plus":90.0,"senior_population_85plus":30.0,"senior_density":6333.333333333334,"occupied_private_dwellings":300.0,"housing_density":10000.0,"land_area_km2":0.03},"geometry":{"type":"Polygon","coordinates":[[[-123.07443081262716,49.31896870373096],[-123.07442961480841,49.31877050173467],[-123.07436928965487,49.31867970448511],[-123.07256198028453,49.31789578480989],[-123.07310780120297,49.31731161943328],[-123.07490140505722,49.318095205165],[-123.07525082088391,49.31811539846183],[-123.07559980154959,49.31803390925329],[-123.07580347997433,49.31792320278775],[-123.0759091994799,49.31781801234299],[-123.07673541125287,49.31815110267259],[-123.07567018866644,49.31920668830834],[-123.07512758156695,49.31899929058909],[-123.07443081262716,49.31896870373096]]]}},{"id":"44","type":"Feature","properties":{"DAUID":"59150189","population_2021":571.0,"population_density":14275.0,"adult_population_18plus_proxy":507.0,"adult_population_density":12675.0,"canadian_citizens_18plus":425.0,"citizen_adult_density":10625.0,"age_0_14":55.0,"age_18_34_proxy":121.0,"age_35_49":150.0,"age_50_64":110.0,"senior_population_65plus":125.0,"senior_population_75plus":60.0,"senior_population_85plus":15.0,"senior_density":3125.0,"occupied_private_dwellings":338.0,"housing_density":8450.0,"land_area_km2":0.04},"geometry":{"type":"Polygon","coordinates":[[[-123.07673541125287,49.31815110267259],[-123.0759091994799,49.31781801234299],[-123.07580347997433,49.31792320278775],[-123.07559980154959,49.31803390925329],[-123.07525082088391,49.31811539846183],[-123.07490140505722,49.318095205165],[-123.07310780120297,49.31731161943328],[-123.0744737916273,49.31595711140311],[-123.07755080828295,49.31730400575318],[-123.07673541125287,49.31815110267259]]]}},{"id":"45","type":"Feature","properties":{"DAUID":"59150190","population_2021":611.0,"population_density":20366.666666666668,"adult_population_18plus_proxy":555.0,"adult_population_density":18500.0,"canadian_citizens_18plus":425.0,"citizen_adult_density":14166.666666666668,"age_0_14":50.0,"age_18_34_proxy":184.0,"age_35_49":140.0,"age_50_64":140.0,"senior_population_65plus":95.0,"senior_population_75plus":15.0,"senior_population_85plus":5.0,"senior_density":3166.666666666667,"occupied_private_dwellings":345.0,"housing_density":11500.0,"land_area_km2":0.03},"geometry":{"type":"Polygon","coordinates":[[[-123.0744737916273,49.31595711140311],[-123.07535659210288,49.3150892993642],[-123.07849600026854,49.31644961357469],[-123.07755080828295,49.31730400575318],[-123.0744737916273,49.31595711140311]]]}},{"id":"46","type":"Feature","properties":{"DAUID":"59150191","population_2021":683.0,"population_density":22766.666666666668,"adult_population_18plus_proxy":616.0,"adult_population_density":20533.333333333336,"canadian_citizens_18plus":500.0,"citizen_adult_density":16666.666666666668,"age_0_14":55.0,"age_18_34_proxy":218.0,"age_35_49":170.0,"age_50_64":140.0,"senior_population_65plus":80.0,"senior_population_75plus":25.0,"senior_population_85plus":0.0,"senior_density":2666.666666666667,"occupied_private_dwellings":388.0,"housing_density":12933.333333333334,"land_area_km2":0.03},"geometry":{"type":"Polygon","coordinates":[[[-123.07535659210288,49.3150892993642],[-123.0762739826412,49.31421609475776],[-123.07937390660474,49.31556991597097],[-123.07849600026854,49.31644961357469],[-123.07535659210288,49.3150892993642]]]}},{"id":"47","type":"Feature","properties":{"DAUID":"59150192","population_2021":1047.0,"population_density":17450.0,"adult_population_18plus_proxy":938.0,"adult_population_density":15633.333333333334,"canadian_citizens_18plus":755.0,"citizen_adult_density":12583.333333333334,"age_0_14":100.0,"age_18_34_proxy":291.0,"age_35_49":315.0,"age_50_64":215.0,"senior_population_65plus":130.0,"senior_population_75plus":50.0,"senior_population_85plus":5.0,"senior_density":2166.666666666667,"occupied_private_dwellings":583.0,"housing_density":9716.666666666668,"land_area_km2":0.06},"geometry":{"type":"Polygon","coordinates":[[[-123.07318480802095,49.31289130358304],[-123.07401828144218,49.31210598985585],[-123.08014748704808,49.31479549729041],[-123.07937390660474,49.31556991597097],[-123.07318480802095,49.31289130358304]]]}},{"id":"48","type":"Feature","properties":{"DAUID":"59150193","population_2021":562.0,"population_density":18733.333333333336,"adult_population_18plus_proxy":521.0,"adult_population_density":17366.666666666668,"canadian_citizens_18plus":390.0,"citizen_adult_density":13000.0,"age_0_14":35.0,"age_18_34_proxy":184.0,"age_35_49":130.0,"age_50_64":105.0,"senior_population_65plus":110.0,"senior_population_75plus":55.0,"senior_population_85plus":15.0,"senior_density":3666.666666666667,"occupied_private_dwellings":356.0,"housing_density":11866.666666666668,"land_area_km2":0.03},"geometry":{"type":"Polygon","coordinates":[[[-123.07230767706113,49.31375740109737],[-123.07318480802095,49.31289130358304],[-123.0762739826412,49.31421609475776],[-123.07535659210288,49.3150892993642],[-123.07230767706113,49.31375740109737]]]}},{"id":"49","type":"Feature","properties":{"DAUID":"59150194","population_2021":573.0,"population_density":19100.0,"adult_population_18plus_proxy":527.0,"adult_population_density":17566.666666666668,"canadian_citizens_18plus":385.0,"citizen_adult_density":12833.333333333334,"age_0_14":40.0,"age_18_34_proxy":169.0,"age_35_49":130.0,"age_50_64":140.0,"senior_population_65plus":100.0,"senior_population_75plus":45.0,"senior_population_85plus":15.0,"senior_density":3333.3333333333335,"occupied_private_dwellings":361.0,"housing_density":12033.333333333334,"land_area_km2":0.03},"geometry":{"type":"Polygon","coordinates":[[[-123.07141819504115,49.31462321561574],[-123.07230767706113,49.31375740109737],[-123.07535659210288,49.3150892993642],[-123.0744737916273,49.31595711140311],[-123.07141819504115,49.31462321561574]]]}},{"id":"50","type":"Feature","properties":{"DAUID":"59150195","population_2021":735.0,"population_density":8166.666666666667,"adult_population_18plus_proxy":602.0,"adult_population_density":6688.888888888889,"canadian_citizens_18plus":490.0,"citizen_adult_density":5444.444444444444,"age_0_14":115.0,"age_18_34_proxy":122.0,"age_35_49":155.0,"age_50_64":160.0,"senior_population_65plus":160.0,"senior_population_75plus":60.0,"senior_population_85plus":15.0,"senior_density":1777.7777777777778,"occupied_private_dwellings":321.0,"housing_density":3566.666666666667,"land_area_km2":0.09},"geometry":{"type":"Polygon","coordinates":[[[-123.07035943946303,49.31564111337028],[-123.06583510853767,49.31369890053826],[-123.06544539955162,49.313597406552795],[-123.06588290274341,49.31357318770973],[-123.06590411946786,49.31221819796409],[-123.06837059612856,49.313294904105],[-123.06926409756919,49.312430996171095],[-123.07230767706113,49.31375740109737],[-123.07035943946303,49.31564111337028]]]}},{"id":"51","type":"Feature","properties":{"DAUID":"59150196","population_2021":564.0,"population_density":9400.0,"adult_population_18plus_proxy":467.0,"adult_population_density":7783.333333333334,"canadian_citizens_18plus":440.0,"citizen_adult_density":7333.333333333334,"age_0_14":85.0,"age_18_34_proxy":118.0,"age_35_49":135.0,"age_50_64":135.0,"senior_population_65plus":75.0,"senior_population_75plus":25.0,"senior_population_85plus":0.0,"senior_density":1250.0,"occupied_private_dwellings":234.0,"housing_density":3900.0,"land_area_km2":0.06},"geometry":{"type":"Polygon","coordinates":[[[-123.06926409756919,49.312430996171095],[-123.0709522859253,49.310787993711955],[-123.07401828144218,49.31210598985585],[-123.07230767706113,49.31375740109737],[-123.06926409756919,49.312430996171095]]]}},{"id":"52","type":"Feature","properties":{"DAUID":"59150197","population_2021":544.0,"population_density":18133.333333333336,"adult_population_18plus_proxy":488.0,"adult_population_density":16266.666666666668,"canadian_citizens_18plus":355.0,"citizen_adult_density":11833.333333333334,"age_0_14":50.0,"age_18_34_proxy":149.0,"age_35_49":135.0,"age_50_64":80.0,"senior_population_65plus":125.0,"senior_population_75plus":50.0,"senior_population_85plus":10.0,"senior_density":4166.666666666667,"occupied_private_dwellings":319.0,"housing_density":10633.333333333334,"land_area_km2":0.03},"geometry":{"type":"Polygon","coordinates":[[[-123.0709522859253,49.310787993711955],[-123.07175000661879,49.3100251061934],[-123.07477111378338,49.31133550006202],[-123.07401828144218,49.31210598985585],[-123.0709522859253,49.310787993711955]]]}},{"id":"53","type":"Feature","properties":{"DAUID":"59150198","population_2021":735.0,"population_density":14700.0,"adult_population_18plus_proxy":652.0,"adult_population_density":13040.0,"canadian_citizens_18plus":515.0,"citizen_adult_density":10300.0,"age_0_14":65.0,"age_18_34_proxy":257.0,"age_35_49":175.0,"age_50_64":145.0,"senior_population_65plus":75.0,"senior_population_75plus":25.0,"senior_population_85plus":5.0,"senior_density":1500.0,"occupied_private_dwellings":394.0,"housing_density":7880.0,"land_area_km2":0.05},"geometry":{"type":"Polygon","coordinates":[[[-123.06718060618897,49.310236186058276],[-123.0687610963253,49.30872989487629],[-123.07175000661879,49.3100251061934],[-123.07014881457103,49.311576902550186],[-123.06718060618897,49.310236186058276]]]}},{"id":"54","type":"Feature","properties":{"DAUID":"59150199","population_2021":588.0,"population_density":11760.0,"adult_population_18plus_proxy":526.0,"adult_population_density":10520.0,"canadian_citizens_18plus":380.0,"citizen_adult_density":7600.0,"age_0_14":50.0,"age_18_34_proxy":173.0,"age_35_49":135.0,"age_50_64":135.0,"senior_population_65plus":80.0,"senior_population_75plus":20.0,"senior_population_85plus":0.0,"senior_density":1600.0,"occupied_private_dwellings":339.0,"housing_density":6780.0,"land_area_km2":0.05},"geometry":{"type":"Polygon","coordinates":[[[-123.0687610963253,49.30872989487629],[-123.07034952053829,49.30716350610989],[-123.07336109241001,49.30846731615591],[-123.07175000661879,49.3100251061934],[-123.0687610963253,49.30872989487629]]]}},{"id":"55","type":"Feature","properties":{"DAUID":"59150200","population_2021":1215.0,"population_density":941.860465116279,"adult_population_18plus_proxy":1004.0,"adult_population_density":778.2945736434108,"canadian_citizens_18plus":890.0,"citizen_adult_density":689.922480620155,"age_0_14":190.0,"age_18_34_proxy":424.0,"age_35_49":370.0,"age_50_64":145.0,"senior_population_65plus":70.0,"senior_population_75plus":15.0,"senior_population_85plus":5.0,"senior_density":54.263565891472865,"occupied_private_dwellings":560.0,"housing_density":434.1085271317829,"land_area_km2":1.29},"geometry":{"type":"Polygon","coordinates":[[[-123.07477111378338,49.31133550006202],[-123.07175000661879,49.3100251061934],[-123.07336109241001,49.30846731615591],[-123.07034952053829,49.30716350610989],[-123.07007468960455,49.30744150374148],[-123.06629577707665,49.305857298656804],[-123.0661431806614,49.30587929944685],[-123.06607339004859,49.30867500375249],[-123.06578830636377,49.30855189563491],[-123.04496881236118,49.30832940542417],[-123.04051569754857,49.307214901156094],[-123.03896132958741,49.30687048313361],[-123.03863568288811,49.30542225483874],[-123.03846071137889,49.30516440477906],[-123.03855118637745,49.30234020554716],[-123.03828301278574,49.302152132939625],[-123.0386680795753,49.298227413362106],[-123.03936402504868,49.29829977605542],[-123.03896754511538,49.29928966493436],[-123.03889742761241,49.29988356325682],[-123.03877573542701,49.30031506914311],[-123.03946262154608,49.30043185352793],[-123.03973702806988,49.299793756440835],[-123.03991665325611,49.29984646554005],[-123.03981975003535,49.30031506588827],[-123.0396694313999,49.300567168314636],[-123.03954654413069,49.301142548703524],[-123.0393113315308,49.30157407626621],[-123.03920192584286,49.30193436726773],[-123.03913364790264,49.30227617007404],[-123.03913443764152,49.302374455118894],[-123.03920185255664,49.30242856579055],[-123.03954712671505,49.302474154106044],[-123.04005575324585,49.302455666641954],[-123.04093443130928,49.30008006679522],[-123.04104401998079,49.3000985585996],[-123.04118063456202,49.29972115842223],[-123.04157935468028,49.29950466758757],[-123.04170363002144,49.299531764032714],[-123.04222624673123,49.29972966206683],[-123.04230843740848,49.29979237387535],[-123.04230892779013,49.29994475424755],[-123.04237883121014,49.29994476270836],[-123.0423928446164,49.29985507023893],[-123.0424875307097,49.29979235432777],[-123.0425836498744,49.29979236860837],[-123.04217253396381,49.3003677635358],[-123.04239233416484,49.30043047307497],[-123.04189703041519,49.30106136029934],[-123.0421037393024,49.301123975292434],[-123.04264072168186,49.30053865435026],[-123.04374045427663,49.30088896535378],[-123.04390522132017,49.30069955631876],[-123.04880342974138,49.302217757359045],[-123.04701754886825,49.3034155626275],[-123.04681104810588,49.30329876986765],[-123.04598612759418,49.30382997685453],[-123.04748463868637,49.30429715955912],[-123.05034614444291,49.30290994893314],[-123.05609635777068,49.304670265709746],[-123.05587885614055,49.306056070434146],[-123.0566487300633,49.30593925876887],[-123.0566897187022,49.306047463921075],[-123.0585055186106,49.30581246851389],[-123.05945445198029,49.305623060217],[-123.0607745352403,49.305460776587],[-123.06133875836036,49.30548636767963],[-123.06147733805446,49.305469268734534],[-123.06195852079684,49.30523426032573],[-123.06231533269013,49.30517157767675],[-123.06429613250253,49.30505337600105],[-123.06451535295531,49.30499076414964],[-123.0646533458153,49.30480985185328],[-123.06484494641185,49.30465745510969],[-123.06502395033279,49.304584858612124],[-123.06597413942075,49.30448517321694],[-123.06660582111552,49.304476559006055],[-123.06679914185368,49.30452075240791],[-123.06712832487389,49.30465605948473],[-123.06721175431642,49.304835464698854],[-123.06744552558003,49.30490816097763],[-123.06802394800236,49.304916652379006],[-123.06957843544444,49.3048525686332],[-123.0704852346664,49.30495936392444],[-123.07093944350642,49.305086162126365],[-123.07117343151016,49.305192951449996],[-123.07125774896893,49.30530976519071],[-123.07132643543568,49.3055532547391],[-123.07147684247057,49.30563447588164],[-123.07284113453537,49.306172855197026],[-123.07348655052918,49.30634375772531],[-123.07534471746837,49.307142760842815],[-123.07596444300378,49.30746595613828],[-123.0761576597248,49.30753726657402],[-123.07658491654941,49.307626958668756],[-123.07674019483169,49.30770510624397],[-123.07698337688232,49.30929567049814],[-123.07685405192834,49.309485253402954],[-123.07662545483839,49.30971240029872],[-123.07640303108381,49.30972964501294],[-123.07477111378338,49.31133550006202]]]}},{"id":"56","type":"Feature","properties":{"DAUID":"59150201","population_2021":577.0,"population_density":7212.5,"adult_population_18plus_proxy":469.0,"adult_population_density":5862.5,"canadian_citizens_18plus":355.0,"citizen_adult_density":4437.5,"age_0_14":90.0,"age_18_34_proxy":157.0,"age_35_49":145.0,"age_50_64":105.0,"senior_population_65plus":55.0,"senior_population_75plus":20.0,"senior_population_85plus":5.0,"senior_density":687.5,"occupied_private_dwellings":243.0,"housing_density":3037.5,"land_area_km2":0.08},"geometry":{"type":"Polygon","coordinates":[[[-123.06601457892525,49.309712796108755],[-123.0661431806614,49.30587929944685],[-123.06629577707665,49.305857298656804],[-123.07007468960455,49.30744150374148],[-123.06718060618897,49.310236186058276],[-123.06601457892525,49.309712796108755]]]}},{"id":"57","type":"Feature","properties":{"DAUID":"59150202","population_2021":834.0,"population_density":4633.333333333334,"adult_population_18plus_proxy":665.0,"adult_population_density":3694.444444444445,"canadian_citizens_18plus":560.0,"citizen_adult_density":3111.1111111111113,"age_0_14":145.0,"age_18_34_proxy":206.0,"age_35_49":195.0,"age_50_64":175.0,"senior_population_65plus":80.0,"senior_population_75plus":20.0,"senior_population_85plus":5.0,"senior_density":444.44444444444446,"occupied_private_dwellings":306.0,"housing_density":1700.0,"land_area_km2":0.18},"geometry":{"type":"Polygon","coordinates":[[[-123.05722489326514,49.30870810158686],[-123.05714270673518,49.3084437102994],[-123.06024390943134,49.30850569327643],[-123.06162929098613,49.30849560452491],[-123.06578830636377,49.30855189563491],[-123.06607339004859,49.30867500375249],[-123.06601457892525,49.309712796108755],[-123.07014881457103,49.311576902550186],[-123.06926409756919,49.312430996171095],[-123.06501370397879,49.310577296403515],[-123.05721178327178,49.31049469387586],[-123.05722489326514,49.30870810158686]]]}},{"id":"58","type":"Feature","properties":{"DAUID":"59150203","population_2021":659.0,"population_density":3876.4705882352937,"adult_population_18plus_proxy":533.0,"adult_population_density":3135.2941176470586,"canadian_citizens_18plus":515.0,"citizen_adult_density":3029.411764705882,"age_0_14":105.0,"age_18_34_proxy":159.0,"age_35_49":145.0,"age_50_64":140.0,"senior_population_65plus":95.0,"senior_population_75plus":40.0,"senior_population_85plus":10.0,"senior_density":558.8235294117646,"occupied_private_dwellings":269.0,"housing_density":1582.3529411764705,"land_area_km2":0.17},"geometry":{"type":"Polygon","coordinates":[[[-123.06837059612856,49.313294904105],[-123.06590411946786,49.31221819796409],[-123.06588290274341,49.31357318770973],[-123.06544539955162,49.313597406552795],[-123.0601165871084,49.313525408779576],[-123.06019398656944,49.31052730158294],[-123.06501370397879,49.310577296403515],[-123.06926409756919,49.312430996171095],[-123.06837059612856,49.313294904105]]]}},{"id":"59","type":"Feature","properties":{"DAUID":"59150204","population_2021":796.0,"population_density":5685.714285714285,"adult_population_18plus_proxy":654.0,"adult_population_density":4671.428571428571,"canadian_citizens_18plus":600.0,"citizen_adult_density":4285.714285714285,"age_0_14":130.0,"age_18_34_proxy":128.0,"age_35_49":160.0,"age_50_64":210.0,"senior_population_65plus":155.0,"senior_population_75plus":50.0,"senior_population_85plus":10.0,"senior_density":1107.142857142857,"occupied_private_dwellings":330.0,"housing_density":2357.142857142857,"land_area_km2":0.14},"geometry":{"type":"Polygon","coordinates":[[[-123.06316440111563,49.31675630148682],[-123.06322218256673,49.31356490432966],[-123.06544539955162,49.313597406552795],[-123.06583510853767,49.31369890053826],[-123.07035943946303,49.31564111337028],[-123.06949560724105,49.316468800452085],[-123.06933462428741,49.31675269426235],[-123.06933283690886,49.31682470259459],[-123.06316440111563,49.31675630148682]]]}},{"id":"60","type":"Feature","properties":{"DAUID":"59150205","population_2021":601.0,"population_density":3163.157894736842,"adult_population_18plus_proxy":467.0,"adult_population_density":2457.8947368421054,"canadian_citizens_18plus":455.0,"citizen_adult_density":2394.7368421052633,"age_0_14":110.0,"age_18_34_proxy":121.0,"age_35_49":135.0,"age_50_64":120.0,"senior_population_65plus":95.0,"senior_population_75plus":30.0,"senior_population_85plus":5.0,"senior_density":500.0,"occupied_private_dwellings":209.0,"housing_density":1100.0,"land_area_km2":0.19},"geometry":{"type":"Polygon","coordinates":[[[-123.05765969570024,49.31669658913155],[-123.05772200500355,49.313505308293024],[-123.06322218256673,49.31356490432966],[-123.06310791725683,49.3188623905715],[-123.0600073215077,49.31882310687406],[-123.06007590228091,49.31672361156993],[-123.05765969570024,49.31669658913155]]]}},{"id":"61","type":"Feature","properties":{"DAUID":"59150206","population_2021":595.0,"population_density":1983.3333333333335,"adult_population_18plus_proxy":476.0,"adult_population_density":1586.6666666666667,"canadian_citizens_18plus":440.0,"citizen_adult_density":1466.6666666666667,"age_0_14":95.0,"age_18_34_proxy":101.0,"age_35_49":110.0,"age_50_64":150.0,"senior_population_65plus":115.0,"senior_population_75plus":50.0,"senior_population_85plus":15.0,"senior_density":383.33333333333337,"occupied_private_dwellings":219.0,"housing_density":730.0,"land_area_km2":0.3},"geometry":{"type":"Polygon","coordinates":[[[-123.0547139121893,49.319785891147745],[-123.05480171163482,49.313470711943864],[-123.05772200500355,49.313505308293024],[-123.05765969570024,49.31669658913155],[-123.06007590228091,49.31672361156993],[-123.06006211546347,49.31776531164066],[-123.05995110238436,49.31983929806234],[-123.0599877927644,49.32190469670371],[-123.05754580361787,49.32186799048853],[-123.05463528772891,49.32186519708723],[-123.0547139121893,49.319785891147745]]]}},{"id":"62","type":"Feature","properties":{"DAUID":"59150210","population_2021":658.0,"population_density":2741.666666666667,"adult_population_18plus_proxy":542.0,"adult_population_density":2258.3333333333335,"canadian_citizens_18plus":415.0,"citizen_adult_density":1729.1666666666667,"age_0_14":95.0,"age_18_34_proxy":134.0,"age_35_49":120.0,"age_50_64":145.0,"senior_population_65plus":125.0,"senior_population_75plus":50.0,"senior_population_85plus":10.0,"senior_density":520.8333333333334,"occupied_private_dwellings":249.0,"housing_density":1037.5,"land_area_km2":0.24},"geometry":{"type":"Polygon","coordinates":[[[-123.05198171957383,49.313437997431315],[-123.04357415256051,49.31333339245497],[-123.04080815373516,49.313294585566716],[-123.04697736644296,49.31053810673904],[-123.04766898438632,49.311512460392244],[-123.05208250020165,49.30951809939073],[-123.05208290766878,49.30940460165989],[-123.05443262605367,49.30943359341376],[-123.05436270028117,49.31243648294672],[-123.0520221087905,49.31241319570491],[-123.05198171957383,49.313437997431315]]]}},{"id":"63","type":"Feature","properties":{"DAUID":"59150212","population_2021":365.0,"population_density":776.5957446808511,"adult_population_18plus_proxy":298.0,"adult_population_density":634.0425531914894,"canadian_citizens_18plus":265.0,"citizen_adult_density":563.8297872340426,"age_0_14":55.0,"age_18_34_proxy":93.0,"age_35_49":70.0,"age_50_64":95.0,"senior_population_65plus":50.0,"senior_population_75plus":30.0,"senior_population_85plus":5.0,"senior_density":106.38297872340426,"occupied_private_dwellings":129.0,"housing_density":274.468085106383,"land_area_km2":0.47},"geometry":{"type":"Polygon","coordinates":[[[-123.05443262605367,49.30943359341376],[-123.05208290766878,49.30940460165989],[-123.05208250020165,49.30951809939073],[-123.04766898438632,49.311512460392244],[-123.04697736644296,49.31053810673904],[-123.04080815373516,49.313294585566716],[-123.03815007534266,49.31326680360058],[-123.03822259206424,49.31051800570679],[-123.0381557193842,49.309707412073784],[-123.03846318556738,49.30917069890739],[-123.03843639146176,49.30767388920367],[-123.03896132958741,49.30687048313361],[-123.04051569754857,49.307214901156094],[-123.04496881236118,49.30832940542417],[-123.05714270673518,49.3084437102994],[-123.05722489326514,49.30870810158686],[-123.05721178327178,49.31049469387586],[-123.05441102126154,49.31046520410331],[-123.05443262605367,49.30943359341376]]]}},{"id":"64","type":"Feature","properties":{"DAUID":"59150213","population_2021":619.0,"population_density":3868.75,"adult_population_18plus_proxy":508.0,"adult_population_density":3175.0,"canadian_citizens_18plus":465.0,"citizen_adult_density":2906.25,"age_0_14":90.0,"age_18_34_proxy":129.0,"age_35_49":140.0,"age_50_64":170.0,"senior_population_65plus":80.0,"senior_population_75plus":25.0,"senior_population_85plus":10.0,"senior_density":500.0,"occupied_private_dwellings":229.0,"housing_density":1431.25,"land_area_km2":0.16},"geometry":{"type":"Polygon","coordinates":[[[-123.05198171957383,49.313437997431315],[-123.0520221087905,49.31241319570491],[-123.05436270028117,49.31243648294672],[-123.05441102126154,49.31046520410331],[-123.06019398656944,49.31052730158294],[-123.0601165871084,49.313525408779576],[-123.05198171957383,49.313437997431315]]]}},{"id":"65","type":"Feature","properties":{"DAUID":"59151761","population_2021":545.0,"population_density":4192.307692307692,"adult_population_18plus_proxy":416.0,"adult_population_density":3200.0,"canadian_citizens_18plus":345.0,"citizen_adult_density":2653.846153846154,"age_0_14":105.0,"age_18_34_proxy":96.0,"age_35_49":100.0,"age_50_64":130.0,"senior_population_65plus":80.0,"senior_population_75plus":30.0,"senior_population_85plus":5.0,"senior_density":615.3846153846154,"occupied_private_dwellings":187.0,"housing_density":1438.4615384615383,"land_area_km2":0.13},"geometry":{"type":"Polygon","coordinates":[[[-123.05917549262243,49.3347019985953],[-123.06060539574905,49.333894303733],[-123.06113878899656,49.33383669144004],[-123.06144669118267,49.333863096146644],[-123.06145348992672,49.3333877181443],[-123.06291961224903,49.33363470954764],[-123.06384700233333,49.334047208122634],[-123.06888408057647,49.33409210078596],[-123.06885978627288,49.33564960883096],[-123.05795649529031,49.33558749845432],[-123.05917549262243,49.3347019985953]]]}},{"id":"66","type":"Feature","properties":{"DAUID":"59153234","population_2021":883.0,"population_density":14716.666666666668,"adult_population_18plus_proxy":840.0,"adult_population_density":14000.0,"canadian_citizens_18plus":765.0,"citizen_adult_density":12750.0,"age_0_14":40.0,"age_18_34_proxy":217.0,"age_35_49":140.0,"age_50_64":190.0,"senior_population_65plus":285.0,"senior_population_75plus":135.0,"senior_population_85plus":30.0,"senior_density":4750.0,"occupied_private_dwellings":616.0,"housing_density":10266.666666666668,"land_area_km2":0.06},"geometry":{"type":"Polygon","coordinates":[[[-123.07401828144218,49.31210598985585],[-123.07557180158842,49.31054658977498],[-123.07865190520178,49.31186031395258],[-123.07702528653972,49.313424884471054],[-123.07401828144218,49.31210598985585]]]}},{"id":"67","type":"Feature","properties":{"DAUID":"59153235","population_2021":1494.0,"population_density":24900.0,"adult_population_18plus_proxy":1386.0,"adult_population_density":23100.0,"canadian_citizens_18plus":1210.0,"citizen_adult_density":20166.666666666668,"age_0_14":90.0,"age_18_34_proxy":377.0,"age_35_49":320.0,"age_50_64":310.0,"senior_population_65plus":385.0,"senior_population_75plus":200.0,"senior_population_85plus":55.0,"senior_density":6416.666666666667,"occupied_private_dwellings":899.0,"housing_density":14983.333333333334,"land_area_km2":0.06},"geometry":{"type":"Polygon","coordinates":[[[-123.07702528653972,49.313424884471054],[-123.07865190520178,49.31186031395258],[-123.0818146781861,49.313175200436994],[-123.08014748704808,49.31479549729041],[-123.07702528653972,49.313424884471054]]]}},{"id":"68","type":"Feature","properties":{"DAUID":"59153236","population_2021":466.0,"population_density":15533.333333333334,"adult_population_18plus_proxy":399.0,"adult_population_density":13300.0,"canadian_citizens_18plus":400.0,"citizen_adult_density":13333.333333333334,"age_0_14":55.0,"age_18_34_proxy":113.0,"age_35_49":95.0,"age_50_64":140.0,"senior_population_65plus":65.0,"senior_population_75plus":20.0,"senior_population_85plus":5.0,"senior_density":2166.666666666667,"occupied_private_dwellings":249.0,"housing_density":8300.0,"land_area_km2":0.03},"geometry":{"type":"Polygon","coordinates":[[[-123.08095560572045,49.31401850595341],[-123.0818146781861,49.313175200436994],[-123.08485811771045,49.3145102023563],[-123.08400931024653,49.315343898395106],[-123.08095560572045,49.31401850595341]]]}},{"id":"69","type":"Feature","properties":{"DAUID":"59153237","population_2021":873.0,"population_density":14550.0,"adult_population_18plus_proxy":793.0,"adult_population_density":13216.666666666668,"canadian_citizens_18plus":670.0,"citizen_adult_density":11166.666666666668,"age_0_14":65.0,"age_18_34_proxy":310.0,"age_35_49":205.0,"age_50_64":165.0,"senior_population_65plus":115.0,"senior_population_75plus":35.0,"senior_population_85plus":5.0,"senior_density":1916.6666666666667,"occupied_private_dwellings":512.0,"housing_density":8533.333333333334,"land_area_km2":0.06},"geometry":{"type":"Polygon","coordinates":[[[-123.07937390660474,49.31556991597097],[-123.08095560572045,49.31401850595341],[-123.08400931024653,49.315343898395106],[-123.08242431362164,49.316904297144866],[-123.07937390660474,49.31556991597097]]]}},{"id":"70","type":"Feature","properties":{"DAUID":"59153238","population_2021":463.0,"population_density":7716.666666666667,"adult_population_18plus_proxy":376.0,"adult_population_density":6266.666666666667,"canadian_citizens_18plus":340.0,"citizen_adult_density":5666.666666666667,"age_0_14":75.0,"age_18_34_proxy":78.0,"age_35_49":110.0,"age_50_64":105.0,"senior_population_65plus":75.0,"senior_population_75plus":25.0,"senior_population_85plus":0.0,"senior_density":1250.0,"occupied_private_dwellings":197.0,"housing_density":3283.3333333333335,"land_area_km2":0.06},"geometry":{"type":"Polygon","coordinates":[[[-123.07849600026854,49.31644961357469],[-123.07937390660474,49.31556991597097],[-123.08242431362164,49.316904297144866],[-123.08078190639779,49.318521699529946],[-123.07767910698453,49.317189496206325],[-123.07849600026854,49.31644961357469]]]}},{"id":"71","type":"Feature","properties":{"DAUID":"59153239","population_2021":844.0,"population_density":16880.0,"adult_population_18plus_proxy":742.0,"adult_population_density":14840.0,"canadian_citizens_18plus":570.0,"citizen_adult_density":11400.0,"age_0_14":90.0,"age_18_34_proxy":273.0,"age_35_49":210.0,"age_50_64":160.0,"senior_population_65plus":105.0,"senior_population_75plus":35.0,"senior_population_85plus":5.0,"senior_density":2100.0,"occupied_private_dwellings":428.0,"housing_density":8560.0,"land_area_km2":0.05},"geometry":{"type":"Polygon","coordinates":[[[-123.08242431362164,49.316904297144866],[-123.08400931024653,49.315343898395106],[-123.08587282276359,49.316154310594946],[-123.08580077871663,49.31839150783224],[-123.08415650701087,49.317637388673866],[-123.08242431362164,49.316904297144866]]]}},{"id":"72","type":"Feature","properties":{"DAUID":"59153241","population_2021":2505.0,"population_density":2846.590909090909,"adult_population_18plus_proxy":2088.0,"adult_population_density":2372.7272727272725,"canadian_citizens_18plus":1455.0,"citizen_adult_density":1653.409090909091,"age_0_14":300.0,"age_18_34_proxy":848.0,"age_35_49":695.0,"age_50_64":365.0,"senior_population_65plus":165.0,"senior_population_75plus":45.0,"senior_population_85plus":10.0,"senior_density":187.5,"occupied_private_dwellings":1022.0,"housing_density":1161.3636363636363,"land_area_km2":0.88},"geometry":{"type":"MultiPolygon","coordinates":[[[[-123.08625566032109,49.31272281640317],[-123.08612036989703,49.31146354956152],[-123.08688193700353,49.311829764091264],[-123.08696393030965,49.31207335877753],[-123.08711712609103,49.312207176520616],[-123.0872130396545,49.31238807533716],[-123.0872070418847,49.312439779386395],[-123.08615863811201,49.31340748255151],[-123.08625566032109,49.31272281640317]]],[[[-123.09339881976645,49.32327970327609],[-123.09248618752696,49.323595604055036],[-123.09116171051024,49.32429400423576],[-123.09124570105436,49.32225530502434],[-123.09139371612305,49.320160704554404],[-123.09184159055471,49.320211511590266],[-123.09140127450145,49.320061261474926],[-123.091577504071,49.31905149439523],[-123.09177649902595,49.31328943236137],[-123.09244393281217,49.313292465519574],[-123.09245843704109,49.313696968003704],[-123.09267862484839,49.31370546781791],[-123.09268994063419,49.31328246161662],[-123.093062956256,49.313291064686645],[-123.09357001782698,49.31323686173683],[-123.09423094629317,49.313253968317156],[-123.09551132458071,49.31319985597573],[-123.09763032269605,49.31318845778133],[-123.09954254339866,49.313241163879084],[-123.10140024505122,49.31323977152163],[-123.1018117299433,49.313265372271225],[-123.10188162673691,49.31339216985322],[-123.10186953029017,49.31451586302721],[-123.10179132378796,49.3159286567784],[-123.10183273201476,49.3165396616408],[-123.10191642876933,49.31684586457388],[-123.10205465282148,49.3170252578967],[-123.10221884105025,49.317070850709136],[-123.10231623748571,49.31706086449673],[-123.102191733331,49.316818775522314],[-123.10219005042511,49.31668346888564],[-123.10239912282765,49.31648121861043],[-123.10239379208686,49.31812981247783],[-123.10224251462922,49.32171490225353],[-123.10220149376053,49.32182010271939],[-123.10220692224857,49.32294429862962],[-123.10214241336163,49.323863998262354],[-123.10197819224555,49.32385139645132],[-123.10050862239328,49.323308494030876],[-123.0937744920892,49.323233010693635],[-123.09339881976645,49.32327970327609]]]]}},{"id":"73","type":"Feature","properties":{"DAUID":"59153327","population_2021":1451.0,"population_density":24183.333333333336,"adult_population_18plus_proxy":1271.0,"adult_population_density":21183.333333333336,"canadian_citizens_18plus":975.0,"citizen_adult_density":16250.0,"age_0_14":150.0,"age_18_34_proxy":390.0,"age_35_49":375.0,"age_50_64":250.0,"senior_population_65plus":265.0,"senior_population_75plus":110.0,"senior_population_85plus":20.0,"senior_density":4416.666666666667,"occupied_private_dwellings":772.0,"housing_density":12866.666666666668,"land_area_km2":0.06},"geometry":{"type":"Polygon","coordinates":[[[-123.07243831935585,49.31813291824207],[-123.07256198028453,49.31789578480989],[-123.07420989836096,49.31858979255797],[-123.07436928965487,49.31867970448511],[-123.07442961480841,49.31877050173467],[-123.07443081262716,49.31896870373096],[-123.07512758156695,49.31899929058909],[-123.07567018866644,49.31920668830834],[-123.07555560701469,49.319518785956184],[-123.07549610777379,49.32002520065051],[-123.07553601840821,49.321068390374755],[-123.07234821888018,49.3210181023693],[-123.07243831935585,49.31813291824207]]]}},{"id":"74","type":"Feature","properties":{"DAUID":"59153328","population_2021":1298.0,"population_density":25960.0,"adult_population_18plus_proxy":1117.0,"adult_population_density":22340.0,"canadian_citizens_18plus":775.0,"citizen_adult_density":15500.0,"age_0_14":160.0,"age_18_34_proxy":399.0,"age_35_49":320.0,"age_50_64":185.0,"senior_population_65plus":200.0,"senior_population_75plus":95.0,"senior_population_85plus":30.0,"senior_density":4000.0,"occupied_private_dwellings":696.0,"housing_density":13920.0,"land_area_km2":0.05},"geometry":{"type":"Polygon","coordinates":[[[-123.06919817688707,49.32204050334739],[-123.06925298404721,49.31993439909147],[-123.07237330856128,49.31996679371065],[-123.0723188988967,49.32206931696825],[-123.06919817688707,49.32204050334739]]]}},{"id":"75","type":"Feature","properties":{"DAUID":"59153963","population_2021":508.0,"population_density":5080.0,"adult_population_18plus_proxy":425.0,"adult_population_density":4250.0,"canadian_citizens_18plus":425.0,"citizen_adult_density":4250.0,"age_0_14":65.0,"age_18_34_proxy":112.0,"age_35_49":80.0,"age_50_64":140.0,"senior_population_65plus":85.0,"senior_population_75plus":30.0,"senior_population_85plus":0.0,"senior_density":850.0,"occupied_private_dwellings":204.0,"housing_density":2040.0,"land_area_km2":0.1},"geometry":{"type":"Polygon","coordinates":[[[-123.07200632852741,49.33328234039235],[-123.07200271250848,49.33231671757076],[-123.07833866753056,49.332357589396615],[-123.07830199646357,49.33512069638032],[-123.07515609071986,49.33508430682871],[-123.07518848684094,49.33415839884868],[-123.07360621072372,49.33413630386632],[-123.07362989028914,49.333216399875525],[-123.07286800322495,49.333212008495565],[-123.07200632852741,49.33328234039235]]]}},{"id":"76","type":"Feature","properties":{"DAUID":"59153965","population_2021":378.0,"population_density":6300.0,"adult_population_18plus_proxy":349.0,"adult_population_density":5816.666666666667,"canadian_citizens_18plus":335.0,"citizen_adult_density":5583.333333333334,"age_0_14":20.0,"age_18_34_proxy":31.0,"age_35_49":35.0,"age_50_64":85.0,"senior_population_65plus":195.0,"senior_population_75plus":105.0,"senior_population_85plus":55.0,"senior_density":3250.0,"occupied_private_dwellings":219.0,"housing_density":3650.0,"land_area_km2":0.06},"geometry":{"type":"Polygon","coordinates":[[[-123.07200338430442,49.33337231420372],[-123.07200632852741,49.33328234039235],[-123.07286800322495,49.333212008495565],[-123.07362989028914,49.333216399875525],[-123.07360621072372,49.33413630386632],[-123.07518848684094,49.33415839884868],[-123.07515609071986,49.33508430682871],[-123.07830199646357,49.33512069638032],[-123.0782934827636,49.3356474030789],[-123.07201030405679,49.335657512729775],[-123.07206061675743,49.33346843160555],[-123.07200338430442,49.33337231420372]]]}},{"id":"77","type":"Feature","properties":{"DAUID":"59153970","population_2021":2195.0,"population_density":10975.0,"adult_population_18plus_proxy":2031.0,"adult_population_density":10155.0,"canadian_citizens_18plus":1665.0,"citizen_adult_density":8325.0,"age_0_14":140.0,"age_18_34_proxy":531.0,"age_35_49":460.0,"age_50_64":525.0,"senior_population_65plus":510.0,"senior_population_75plus":225.0,"senior_population_85plus":50.0,"senior_density":2550.0,"occupied_private_dwellings":1247.0,"housing_density":6235.0,"land_area_km2":0.2},"geometry":{"type":"Polygon","coordinates":[[[-123.0856629144528,49.31374019182259],[-123.08079430839153,49.31166689644484],[-123.07947053436155,49.31103483922416],[-123.07865190520178,49.31186031395258],[-123.07557180158842,49.31054658977498],[-123.07640303108381,49.30972964501294],[-123.07662545483839,49.30971240029872],[-123.07685405192834,49.309485253402954],[-123.07698337688232,49.30929567049814],[-123.07674019483169,49.30770510624397],[-123.07801523182002,49.30821086812068],[-123.07798811861878,49.308400266127904],[-123.07790611701387,49.308471459381536],[-123.07867652616831,49.30882185720201],[-123.08052152412837,49.30951407226115],[-123.08050883957247,49.309720568769464],[-123.08041274423654,49.30982025201735],[-123.08082522937805,49.309989666404434],[-123.0807296446739,49.31008086045383],[-123.08094841105624,49.31018765719427],[-123.08126475005463,49.30988145707473],[-123.08150869720122,49.309972456021676],[-123.08150667373194,49.310038253656565],[-123.08128012566796,49.310268874112886],[-123.08145803160595,49.31034007828009],[-123.08214483248912,49.30964786878225],[-123.08228403790056,49.30968345336814],[-123.08242013861557,49.309521174849365],[-123.08298574702657,49.30976326862258],[-123.08341044964325,49.3093317625837],[-123.08368644415532,49.309457052978665],[-123.08379633182366,49.30942145649651],[-123.08396164538036,49.309269059519366],[-123.0842502471711,49.30940295026915],[-123.0840992431597,49.30958376889309],[-123.08411383204657,49.30964647547431],[-123.08432003814661,49.3097447653495],[-123.08393504324533,49.31016776958343],[-123.08459532420508,49.31044686051602],[-123.08419704464995,49.310824259135714],[-123.08469285139783,49.31103935731917],[-123.08479003181002,49.31130995463266],[-123.08521682093388,49.31143525638516],[-123.08540882601751,49.311362654185544],[-123.08582274610615,49.31134555331607],[-123.08612036989703,49.31146354956152],[-123.08625566032109,49.31272281640317],[-123.08614900853695,49.31351198800764],[-123.0856629144528,49.31374019182259]]]}},{"id":"78","type":"Feature","properties":{"DAUID":"59153971","population_2021":1337.0,"population_density":16712.5,"adult_population_18plus_proxy":1200.0,"adult_population_density":15000.0,"canadian_citizens_18plus":1005.0,"citizen_adult_density":12562.5,"age_0_14":125.0,"age_18_34_proxy":428.0,"age_35_49":300.0,"age_50_64":245.0,"senior_population_65plus":220.0,"senior_population_75plus":95.0,"senior_population_85plus":20.0,"senior_density":2750.0,"occupied_private_dwellings":747.0,"housing_density":9337.5,"land_area_km2":0.08},"geometry":{"type":"Polygon","coordinates":[[[-123.07865190520178,49.31186031395258],[-123.07947053436155,49.31103483922416],[-123.08079430839153,49.31166689644484],[-123.08570711598053,49.313759394203736],[-123.08593410800793,49.314042093556154],[-123.08587282276359,49.316154310594946],[-123.08400931024653,49.315343898395106],[-123.08485811771045,49.3145102023563],[-123.0818146781861,49.313175200436994],[-123.07865190520178,49.31186031395258]]]}}]}