{"type":"FeatureCollection","features":[{"id":"0","type":"Feature","properties":{"intersection_id":"CNV-INT-0001","crash_count":74,"icbc_locations":"BROOKSBANK AVE & COTTON RD & TURNING LANE"},"geometry":{"type":"Point","coordinates":[-123.04049812563854,49.30720045522472]}},{"id":"1","type":"Feature","properties":{"intersection_id":"CNV-INT-0003","crash_count":59,"icbc_locations":"COTTON RD & GLADSTONE AVE & TURNING LANE"},"geometry":{"type":"Point","coordinates":[-123.04368700495809,49.308053831604475]}},{"id":"2","type":"Feature","properties":{"intersection_id":"CNV-INT-0004","crash_count":17,"icbc_locations":"BROOKSBANK AVE & E 3RD ST"},"geometry":{"type":"Point","coordinates":[-123.04044444089895,49.30831587165794]}},{"id":"3","type":"Feature","properties":{"intersection_id":"CNV-INT-0007","crash_count":4,"icbc_locations":"COTTON RD & E 3RD ST"},"geometry":{"type":"Point","coordinates":[-123.04583571456642,49.30823890676837]}},{"id":"4","type":"Feature","properties":{"intersection_id":"CNV-INT-0011","crash_count":9,"icbc_locations":"E 3RD ST & KENNARD AVE"},"geometry":{"type":"Point","coordinates":[-123.0468848083629,49.30842624540823]}},{"id":"5","type":"Feature","properties":{"intersection_id":"CNV-INT-0012","crash_count":7,"icbc_locations":"E 3RD ST & HEYWOOD ST"},"geometry":{"type":"Point","coordinates":[-123.05012302435998,49.308421073748605]}},{"id":"6","type":"Feature","properties":{"intersection_id":"CNV-INT-0015","crash_count":2,"icbc_locations":"E 4TH ST & GLADSTONE AVE"},"geometry":{"type":"Point","coordinates":[-123.04384883136426,49.309227635256015]}},{"id":"7","type":"Feature","properties":{"intersection_id":"CNV-INT-0016","crash_count":6,"icbc_locations":"BROOKSBANK AVE & E 4TH ST"},"geometry":{"type":"Point","coordinates":[-123.04043278628214,49.30930983706593]}},{"id":"8","type":"Feature","properties":{"intersection_id":"CNV-INT-0018","crash_count":1,"icbc_locations":"E 4TH ST & HEYWOOD ST"},"geometry":{"type":"Point","coordinates":[-123.04866720362094,49.3093174183167]}},{"id":"9","type":"Feature","properties":{"intersection_id":"CNV-INT-0019","crash_count":2,"icbc_locations":"E 4TH ST & HENDRY AVE & SHAVINGTON ST"},"geometry":{"type":"Point","coordinates":[-123.05205570794404,49.30943111808939]}},{"id":"10","type":"Feature","properties":{"intersection_id":"CNV-INT-0024","crash_count":1,"icbc_locations":"E 2ND ST & RIDGEWAY AVE"},"geometry":{"type":"Point","coordinates":[-123.06325009796241,49.307568038427746]}},{"id":"11","type":"Feature","properties":{"intersection_id":"CNV-INT-0025","crash_count":14,"icbc_locations":"E 3RD ST & MOODY AVE"},"geometry":{"type":"Point","coordinates":[-123.0602573897247,49.308491638909395]}},{"id":"12","type":"Feature","properties":{"intersection_id":"CNV-INT-0026","crash_count":19,"icbc_locations":"E 3RD ST & QUEENSBURY AVE"},"geometry":{"type":"Point","coordinates":[-123.05721316058997,49.30845720553583]}},{"id":"13","type":"Feature","properties":{"intersection_id":"CNV-INT-0027","crash_count":10,"icbc_locations":"E 3RD ST & RIDGEWAY AVE"},"geometry":{"type":"Point","coordinates":[-123.0632465946195,49.30852602222021]}},{"id":"14","type":"Feature","properties":{"intersection_id":"CNV-INT-0028","crash_count":4,"icbc_locations":"E 4TH ST & MOODY AVE"},"geometry":{"type":"Point","coordinates":[-123.06022165644943,49.309508107610604]}},{"id":"15","type":"Feature","properties":{"intersection_id":"CNV-INT-0029","crash_count":6,"icbc_locations":"E 4TH ST & QUEENSBURY AVE"},"geometry":{"type":"Point","coordinates":[-123.05720661611232,49.30948715244733]}},{"id":"16","type":"Feature","properties":{"intersection_id":"CNV-INT-0030","crash_count":2,"icbc_locations":"E 4TH ST & RIDGEWAY AVE"},"geometry":{"type":"Point","coordinates":[-123.06322424521866,49.30953798786016]}},{"id":"17","type":"Feature","properties":{"intersection_id":"CNV-INT-0032","crash_count":3,"icbc_locations":"E 5TH ST & QUEENSBURY AVE"},"geometry":{"type":"Point","coordinates":[-123.05718068617088,49.310485624009424]}},{"id":"18","type":"Feature","properties":{"intersection_id":"CNV-INT-0033","crash_count":1,"icbc_locations":"E 5TH ST & SUTHERLAND AVE"},"geometry":{"type":"Point","coordinates":[-123.05441064542777,49.31046447352152]}},{"id":"19","type":"Feature","properties":{"intersection_id":"CNV-INT-0034","crash_count":1,"icbc_locations":"E 6TH ST & SUTHERLAND AVE"},"geometry":{"type":"Point","coordinates":[-123.05438464362977,49.311449452518616]}},{"id":"20","type":"Feature","properties":{"intersection_id":"CNV-INT-0035","crash_count":2,"icbc_locations":"E 6TH ST & QUEENSBURY AVE"},"geometry":{"type":"Point","coordinates":[-123.05716378452695,49.31148409182643]}},{"id":"21","type":"Feature","properties":{"intersection_id":"CNV-INT-0036","crash_count":1,"icbc_locations":"E 7TH ST & SUTHERLAND AVE"},"geometry":{"type":"Point","coordinates":[-123.05436510687551,49.312447920991836]}},{"id":"22","type":"Feature","properties":{"intersection_id":"CNV-INT-0037","crash_count":10,"icbc_locations":"BROOKSBANK AVE & E 5TH ST"},"geometry":{"type":"Point","coordinates":[-123.04039706046005,49.31030830918237]}},{"id":"23","type":"Feature","properties":{"intersection_id":"CNV-INT-0038","crash_count":4,"icbc_locations":"E 5TH ST & HENDRY AVE"},"geometry":{"type":"Point","coordinates":[-123.05206322712407,49.31044756459057]}},{"id":"24","type":"Feature","properties":{"intersection_id":"CNV-INT-0039","crash_count":1,"icbc_locations":"KENNARD AVE & SHAVINGTON ST"},"geometry":{"type":"Point","coordinates":[-123.04766826473168,49.311519881388364]}},{"id":"25","type":"Feature","properties":{"intersection_id":"CNV-INT-0043","crash_count":1,"icbc_locations":"CLOVERLEY ST & KENNARD AVE"},"geometry":{"type":"Point","coordinates":[-123.0485173277863,49.31233358720068]}},{"id":"26","type":"Feature","properties":{"intersection_id":"CNV-INT-0044","crash_count":4,"icbc_locations":"ADDERLEY ST & E 7TH ST & HENDRY AVE"},"geometry":{"type":"Point","coordinates":[-123.05200726760259,49.3124220206926]}},{"id":"27","type":"Feature","properties":{"intersection_id":"CNV-INT-0045","crash_count":17,"icbc_locations":"CLOVERLEY ST & E KEITH RD"},"geometry":{"type":"Point","coordinates":[-123.04631096340428,49.31335993687078]}},{"id":"28","type":"Feature","properties":{"intersection_id":"CNV-INT-0046","crash_count":11,"icbc_locations":"ADDERLEY ST & E KEITH RD"},"geometry":{"type":"Point","coordinates":[-123.04901496399086,49.31339480221883]}},{"id":"29","type":"Feature","properties":{"intersection_id":"CNV-INT-0047","crash_count":1,"icbc_locations":"E 5TH ST & RIDGEWAY AVE"},"geometry":{"type":"Point","coordinates":[-123.06319458547225,49.3105499555161]}},{"id":"30","type":"Feature","properties":{"intersection_id":"CNV-INT-0049","crash_count":1,"icbc_locations":"E 6TH ST & RIDGEWAY AVE"},"geometry":{"type":"Point","coordinates":[-123.06318251094892,49.31153043131991]}},{"id":"31","type":"Feature","properties":{"intersection_id":"CNV-INT-0051","crash_count":7,"icbc_locations":"E 7TH ST & QUEENSBURY AVE"},"geometry":{"type":"Point","coordinates":[-123.05714301861337,49.31248705984165]}},{"id":"32","type":"Feature","properties":{"intersection_id":"CNV-INT-0052","crash_count":1,"icbc_locations":"E 7TH ST & RIDGEWAY AVE"},"geometry":{"type":"Point","coordinates":[-123.06316916982553,49.312528898802945]}},{"id":"33","type":"Feature","properties":{"intersection_id":"CNV-INT-0053","crash_count":22,"icbc_locations":"E KEITH RD & MOODY AVE"},"geometry":{"type":"Point","coordinates":[-123.06016596814524,49.31355594576679]}},{"id":"34","type":"Feature","properties":{"intersection_id":"CNV-INT-0055","crash_count":13,"icbc_locations":"E KEITH RD & RIDGEWAY AVE"},"geometry":{"type":"Point","coordinates":[-123.0631146260222,49.31358585514168]}},{"id":"35","type":"Feature","properties":{"intersection_id":"CNV-INT-0056","crash_count":31,"icbc_locations":"E KEITH RD & QUEENSBURY AVE"},"geometry":{"type":"Point","coordinates":[-123.05709903824962,49.31349453401426]}},{"id":"36","type":"Feature","properties":{"intersection_id":"CNV-INT-0058","crash_count":1,"icbc_locations":"E 8TH ST & SUTHERLAND AVE"},"geometry":{"type":"Point","coordinates":[-123.05477936540825,49.31458856541975]}},{"id":"37","type":"Feature","properties":{"intersection_id":"CNV-INT-0060","crash_count":1,"icbc_locations":"E 9TH ST & SUTHERLAND AVE"},"geometry":{"type":"Point","coordinates":[-123.05475469997036,49.315641120820956]}},{"id":"38","type":"Feature","properties":{"intersection_id":"CNV-INT-0068","crash_count":1,"icbc_locations":"E 2ND ST & ST DAVIDS AVE"},"geometry":{"type":"Point","coordinates":[-123.06607628560909,49.307579949810275]}},{"id":"39","type":"Feature","properties":{"intersection_id":"CNV-INT-0070","crash_count":9,"icbc_locations":"E 3RD ST & ST DAVIDS AVE"},"geometry":{"type":"Point","coordinates":[-123.06604635702415,49.308668378244754]}},{"id":"40","type":"Feature","properties":{"intersection_id":"CNV-INT-0072","crash_count":2,"icbc_locations":"E 1ST ST & ST PATRICKS AVE"},"geometry":{"type":"Point","coordinates":[-123.06956071594306,49.307942208043976]}},{"id":"41","type":"Feature","properties":{"intersection_id":"CNV-INT-0074","crash_count":3,"icbc_locations":"E 2ND ST & ST PATRICKS AVE"},"geometry":{"type":"Point","coordinates":[-123.06878281879989,49.308725251259574]}},{"id":"42","type":"Feature","properties":{"intersection_id":"CNV-INT-0075","crash_count":4,"icbc_locations":"E 1ST ST & ST ANDREWS AVE"},"geometry":{"type":"Point","coordinates":[-123.07254961252309,49.309249162425466]}},{"id":"43","type":"Feature","properties":{"intersection_id":"CNV-INT-0076","crash_count":4,"icbc_locations":"E 3RD ST & ST PATRICKS AVE"},"geometry":{"type":"Point","coordinates":[-123.06798639265475,49.30949480553202]}},{"id":"44","type":"Feature","properties":{"intersection_id":"CNV-INT-0077","crash_count":7,"icbc_locations":"E 2ND ST & ST ANDREWS AVE"},"geometry":{"type":"Point","coordinates":[-123.0717691692142,49.310036723833385]}},{"id":"45","type":"Feature","properties":{"intersection_id":"CNV-INT-0082","crash_count":28,"icbc_locations":"E 3RD ST & ST ANDREWS AVE"},"geometry":{"type":"Point","coordinates":[-123.07100457032145,49.310797284733]}},{"id":"46","type":"Feature","properties":{"intersection_id":"CNV-INT-0083","crash_count":5,"icbc_locations":"E 4TH ST & ST ANDREWS AVE"},"geometry":{"type":"Point","coordinates":[-123.07021246259092,49.31158034500958]}},{"id":"47","type":"Feature","properties":{"intersection_id":"CNV-INT-0084","crash_count":3,"icbc_locations":"E 5TH ST & ST ANDREWS AVE"},"geometry":{"type":"Point","coordinates":[-123.069294895094,49.31243993362946]}},{"id":"48","type":"Feature","properties":{"intersection_id":"CNV-INT-0085","crash_count":1,"icbc_locations":"E 6TH ST & ST ANDREWS AVE"},"geometry":{"type":"Point","coordinates":[-123.06844181946644,49.313321964473886]}},{"id":"49","type":"Feature","properties":{"intersection_id":"CNV-INT-0086","crash_count":8,"icbc_locations":"E 5TH ST & ST GEORGES AVE"},"geometry":{"type":"Point","coordinates":[-123.07232275803621,49.31375136709066]}},{"id":"50","type":"Feature","properties":{"intersection_id":"CNV-INT-0087","crash_count":29,"icbc_locations":"E KEITH RD & ST ANDREWS AVE"},"geometry":{"type":"Point","coordinates":[-123.06756628033182,49.31415003126334]}},{"id":"51","type":"Feature","properties":{"intersection_id":"CNV-INT-0089","crash_count":3,"icbc_locations":"E KEITH RD & ST DAVIDS AVE"},"geometry":{"type":"Point","coordinates":[-123.06591064989868,49.31361127977022]}},{"id":"52","type":"Feature","properties":{"intersection_id":"CNV-INT-0096","crash_count":1,"icbc_locations":"E 8TH ST & RIDGEWAY AVE"},"geometry":{"type":"Point","coordinates":[-123.06319041956526,49.31468771749246]}},{"id":"53","type":"Feature","properties":{"intersection_id":"CNV-INT-0098","crash_count":2,"icbc_locations":"E 9TH ST & RIDGEWAY AVE"},"geometry":{"type":"Point","coordinates":[-123.06315906362417,49.315722172967234]}},{"id":"54","type":"Feature","properties":{"intersection_id":"CNV-INT-0099","crash_count":11,"icbc_locations":"E 6TH ST & ST GEORGES AVE"},"geometry":{"type":"Point","coordinates":[-123.07143271758753,49.31461995025423]}},{"id":"55","type":"Feature","properties":{"intersection_id":"CNV-INT-0101","crash_count":28,"icbc_locations":"E KEITH RD & ST GEORGES AVE"},"geometry":{"type":"Point","coordinates":[-123.07054174094755,49.31545704406621]}},{"id":"56","type":"Feature","properties":{"intersection_id":"CNV-INT-0106","crash_count":1,"icbc_locations":"E 8TH ST & ST GEORGES AVE"},"geometry":{"type":"Point","coordinates":[-123.06947472189886,49.31649212952719]}},{"id":"57","type":"Feature","properties":{"intersection_id":"CNV-INT-0108","crash_count":1,"icbc_locations":"E 10TH ST & RIDGEWAY AVE"},"geometry":{"type":"Point","coordinates":[-123.06314363500394,49.31677011402745]}},{"id":"58","type":"Feature","properties":{"intersection_id":"CNV-INT-0111","crash_count":2,"icbc_locations":"E 10TH ST & MOODY AVE"},"geometry":{"type":"Point","coordinates":[-123.0601040480348,49.31673125578599]}},{"id":"59","type":"Feature","properties":{"intersection_id":"CNV-INT-0117","crash_count":2,"icbc_locations":"E 10TH ST & ST GEORGES AVE"},"geometry":{"type":"Point","coordinates":[-123.06928685177718,49.316820565149264]}},{"id":"60","type":"Feature","properties":{"intersection_id":"CNV-INT-0119","crash_count":7,"icbc_locations":"E 11TH ST & ST GEORGES AVE"},"geometry":{"type":"Point","coordinates":[-123.06932100602141,49.31787297287852]}},{"id":"61","type":"Feature","properties":{"intersection_id":"CNV-INT-0120","crash_count":2,"icbc_locations":"E 11TH ST & ST ANDREWS AVE"},"geometry":{"type":"Point","coordinates":[-123.06619536183614,49.317843322438726]}},{"id":"62","type":"Feature","properties":{"intersection_id":"CNV-INT-0121","crash_count":16,"icbc_locations":"E 11TH ST & LONSDALE AVE & W 8TH ST"},"geometry":{"type":"Point","coordinates":[-123.07253856762037,49.31783052017456]}},{"id":"63","type":"Feature","properties":{"intersection_id":"CNV-INT-0122","crash_count":16,"icbc_locations":"E 12TH ST & ST GEORGES AVE"},"geometry":{"type":"Point","coordinates":[-123.06926696968154,49.31889395127965]}},{"id":"64","type":"Feature","properties":{"intersection_id":"CNV-INT-0123","crash_count":4,"icbc_locations":"E 12TH ST & ST ANDREWS AVE"},"geometry":{"type":"Point","coordinates":[-123.0661967482303,49.31887776032052]}},{"id":"65","type":"Feature","properties":{"intersection_id":"CNV-INT-0124","crash_count":22,"icbc_locations":"E 12TH ST & LONSDALE AVE & W 12TH ST"},"geometry":{"type":"Point","coordinates":[-123.07243441256787,49.3189369851434]}},{"id":"66","type":"Feature","properties":{"intersection_id":"CNV-INT-0125","crash_count":1,"icbc_locations":"E 14TH ST & WILLIAM AVE"},"geometry":{"type":"Point","coordinates":[-123.05072292906665,49.320702601626564]}},{"id":"67","type":"Feature","properties":{"intersection_id":"CNV-INT-0126","crash_count":1,"icbc_locations":"E 14TH ST & RUFUS AVE"},"geometry":{"type":"Point","coordinates":[-123.04626922812672,49.32067298660727]}},{"id":"68","type":"Feature","properties":{"intersection_id":"CNV-INT-0127","crash_count":1,"icbc_locations":"E 14TH ST & SUTHERLAND AVE"},"geometry":{"type":"Point","coordinates":[-123.0546877016509,49.3207277789494]}},{"id":"69","type":"Feature","properties":{"intersection_id":"CNV-INT-0129","crash_count":1,"icbc_locations":"E 15TH ST & WILLIAM AVE"},"geometry":{"type":"Point","coordinates":[-123.05070217039453,49.32184498931265]}},{"id":"70","type":"Feature","properties":{"intersection_id":"CNV-INT-0138","crash_count":2,"icbc_locations":"E 16TH ST & SUTHERLAND AVE"},"geometry":{"type":"Point","coordinates":[-123.05464670294256,49.32292710262244]}},{"id":"71","type":"Feature","properties":{"intersection_id":"CNV-INT-0142","crash_count":1,"icbc_locations":"E 17TH ST & RUFUS AVE"},"geometry":{"type":"Point","coordinates":[-123.04624342891658,49.32388874959047]}},{"id":"72","type":"Feature","properties":{"intersection_id":"CNV-INT-0145","crash_count":1,"icbc_locations":"E 17TH ST & SUTHERLAND AVE"},"geometry":{"type":"Point","coordinates":[-123.05465860442956,49.32396603227809]}},{"id":"73","type":"Feature","properties":{"intersection_id":"CNV-INT-0149","crash_count":3,"icbc_locations":"E 18TH ST & SUTHERLAND AVE"},"geometry":{"type":"Point","coordinates":[-123.05464341601298,49.32500947210969]}},{"id":"74","type":"Feature","properties":{"intersection_id":"CNV-INT-0152","crash_count":3,"icbc_locations":"E 19TH ST & SUTHERLAND AVE"},"geometry":{"type":"Point","coordinates":[-123.05464068590597,49.326039413200924]}},{"id":"75","type":"Feature","properties":{"intersection_id":"CNV-INT-0158","crash_count":2,"icbc_locations":"E 18TH ST & RIDGEWAY AVE"},"geometry":{"type":"Point","coordinates":[-123.06295257824512,49.3250906976577]}},{"id":"76","type":"Feature","properties":{"intersection_id":"CNV-INT-0159","crash_count":22,"icbc_locations":"E 19TH ST & GRAND BLVD"},"geometry":{"type":"Point","coordinates":[-123.05987589574332,49.326090791212664]}},{"id":"77","type":"Feature","properties":{"intersection_id":"CNV-INT-0161","crash_count":3,"icbc_locations":"E 19TH ST & RIDGEWAY AVE"},"geometry":{"type":"Point","coordinates":[-123.06295219538816,49.32613862878793]}},{"id":"78","type":"Feature","properties":{"intersection_id":"CNV-INT-0163","crash_count":1,"icbc_locations":"E 20TH ST & MOODY AVE"},"geometry":{"type":"Point","coordinates":[-123.05984788348782,49.32710725178465]}},{"id":"79","type":"Feature","properties":{"intersection_id":"CNV-INT-0168","crash_count":1,"icbc_locations":"BOULEVARD CRES & SUTHERLAND AVE"},"geometry":{"type":"Point","coordinates":[-123.05461222495134,49.328301696422265]}},{"id":"80","type":"Feature","properties":{"intersection_id":"CNV-INT-0169","crash_count":1,"icbc_locations":"E 20TH ST & RIDGEWAY AVE"},"geometry":{"type":"Point","coordinates":[-123.06289886006589,49.327146109683795]}},{"id":"81","type":"Feature","properties":{"intersection_id":"CNV-INT-0172","crash_count":2,"icbc_locations":"E 23RD ST & GRAND BLVD"},"geometry":{"type":"Point","coordinates":[-123.06207215264884,49.3301374282787]}},{"id":"82","type":"Feature","properties":{"intersection_id":"CNV-INT-0175","crash_count":2,"icbc_locations":"E 22ND ST & RIDGEWAY AVE"},"geometry":{"type":"Point","coordinates":[-123.06286057490296,49.32916553125003]}},{"id":"83","type":"Feature","properties":{"intersection_id":"CNV-INT-0176","crash_count":1,"icbc_locations":"E 23RD ST & RIDGEWAY AVE"},"geometry":{"type":"Point","coordinates":[-123.06281107746,49.33015052263555]}},{"id":"84","type":"Feature","properties":{"intersection_id":"CNV-INT-0179","crash_count":1,"icbc_locations":"TEMPE KNOLL DR & WILDING WAY"},"geometry":{"type":"Point","coordinates":[-123.05375781048721,49.331212012080734]}},{"id":"85","type":"Feature","properties":{"intersection_id":"CNV-INT-0180","crash_count":4,"icbc_locations":"E 12TH ST & RIDGEWAY AVE"},"geometry":{"type":"Point","coordinates":[-123.06309338360381,49.3188345205457]}},{"id":"86","type":"Feature","properties":{"intersection_id":"CNV-INT-0181","crash_count":5,"icbc_locations":"E 13TH ST & RIDGEWAY AVE"},"geometry":{"type":"Point","coordinates":[-123.06307020678804,49.31987796769982]}},{"id":"87","type":"Feature","properties":{"intersection_id":"CNV-INT-0183","crash_count":5,"icbc_locations":"E 13TH ST & MOODY AVE"},"geometry":{"type":"Point","coordinates":[-123.06002699538675,49.31984360786205]}},{"id":"88","type":"Feature","properties":{"intersection_id":"CNV-INT-0184","crash_count":1,"icbc_locations":"E 14TH ST & MOODY AVE"},"geometry":{"type":"Point","coordinates":[-123.06001537812094,49.32090053908034]}},{"id":"89","type":"Feature","properties":{"intersection_id":"CNV-INT-0185","crash_count":1,"icbc_locations":"E 14TH ST & RIDGEWAY AVE"},"geometry":{"type":"Point","coordinates":[-123.0630457426369,49.32092591112041]}},{"id":"90","type":"Feature","properties":{"intersection_id":"CNV-INT-0186","crash_count":1,"icbc_locations":"E 15TH ST & MOODY AVE"},"geometry":{"type":"Point","coordinates":[-123.05997750761058,49.32193949440317]}},{"id":"91","type":"Feature","properties":{"intersection_id":"CNV-INT-0187","crash_count":42,"icbc_locations":"E 13TH ST & ST GEORGES AVE"},"geometry":{"type":"Point","coordinates":[-123.06926243050134,49.31995088028793]}},{"id":"92","type":"Feature","properties":{"intersection_id":"CNV-INT-0188","crash_count":85,"icbc_locations":"E 13TH ST & LONSDALE AVE & W 13TH ST"},"geometry":{"type":"Point","coordinates":[-123.07238950190917,49.31998044779685]}},{"id":"93","type":"Feature","properties":{"intersection_id":"CNV-INT-0190","crash_count":30,"icbc_locations":"E 15TH ST & ST GEORGES AVE"},"geometry":{"type":"Point","coordinates":[-123.0692042885366,49.322033284213006]}},{"id":"94","type":"Feature","properties":{"intersection_id":"CNV-INT-0191","crash_count":14,"icbc_locations":"E 15TH ST & ST ANDREWS AVE"},"geometry":{"type":"Point","coordinates":[-123.06610072908441,49.321994622856415]}},{"id":"95","type":"Feature","properties":{"intersection_id":"CNV-INT-0192","crash_count":14,"icbc_locations":"E 15TH ST & EASTERN AVE"},"geometry":{"type":"Point","coordinates":[-123.07077648632576,49.322045824802714]}},{"id":"96","type":"Feature","properties":{"intersection_id":"CNV-INT-0193","crash_count":6,"icbc_locations":"E 16TH ST & ST GEORGES AVE"},"geometry":{"type":"Point","coordinates":[-123.06917174081259,49.323049751405286]}},{"id":"97","type":"Feature","properties":{"intersection_id":"CNV-INT-0194","crash_count":1,"icbc_locations":"E 16TH ST & ST ANDREWS AVE"},"geometry":{"type":"Point","coordinates":[-123.0660819073545,49.323033569103856]}},{"id":"98","type":"Feature","properties":{"intersection_id":"CNV-INT-0196","crash_count":5,"icbc_locations":"E 15TH ST & RIDGEWAY AVE"},"geometry":{"type":"Point","coordinates":[-123.0630272833726,49.32196035929995]}},{"id":"99","type":"Feature","properties":{"intersection_id":"CNV-INT-0201","crash_count":5,"icbc_locations":"E 17TH ST & EASTERN AVE"},"geometry":{"type":"Point","coordinates":[-123.0707106026138,49.3241327031472]}},{"id":"100","type":"Feature","properties":{"intersection_id":"CNV-INT-0202","crash_count":26,"icbc_locations":"E 17TH ST & ST GEORGES AVE"},"geometry":{"type":"Point","coordinates":[-123.06916291912852,49.324120174873336]}},{"id":"101","type":"Feature","properties":{"intersection_id":"CNV-INT-0203","crash_count":6,"icbc_locations":"E 17TH ST & ST ANDREWS AVE"},"geometry":{"type":"Point","coordinates":[-123.06606051799656,49.32408151263748]}},{"id":"102","type":"Feature","properties":{"intersection_id":"CNV-INT-0204","crash_count":7,"icbc_locations":"E 18TH ST & ST GEORGES AVE"},"geometry":{"type":"Point","coordinates":[-123.06911878088243,49.325154638833446]}},{"id":"103","type":"Feature","properties":{"intersection_id":"CNV-INT-0205","crash_count":4,"icbc_locations":"E 18TH ST & ST ANDREWS AVE"},"geometry":{"type":"Point","coordinates":[-123.0660296378709,49.32510697272803]}},{"id":"104","type":"Feature","properties":{"intersection_id":"CNV-INT-0206","crash_count":46,"icbc_locations":"E 18TH ST & LONSDALE AVE & W 18TH ST"},"geometry":{"type":"Point","coordinates":[-123.07227930044307,49.32518868599667]}},{"id":"105","type":"Feature","properties":{"intersection_id":"CNV-INT-0207","crash_count":22,"icbc_locations":"E 19TH ST & ST GEORGES AVE"},"geometry":{"type":"Point","coordinates":[-123.06908972654857,49.32621158134149]}},{"id":"106","type":"Feature","properties":{"intersection_id":"CNV-INT-0208","crash_count":10,"icbc_locations":"E 19TH ST & ST ANDREWS AVE"},"geometry":{"type":"Point","coordinates":[-123.0659867720806,49.32617741500436]}},{"id":"107","type":"Feature","properties":{"intersection_id":"CNV-INT-0209","crash_count":59,"icbc_locations":"E 19TH ST & LONSDALE AVE & W 19TH ST"},"geometry":{"type":"Point","coordinates":[-123.07224988299068,49.32624562953066]}},{"id":"108","type":"Feature","properties":{"intersection_id":"CNV-INT-0210","crash_count":18,"icbc_locations":"E 20TH ST & ST GEORGES AVE"},"geometry":{"type":"Point","coordinates":[-123.06905330875344,49.32723254762689]}},{"id":"109","type":"Feature","properties":{"intersection_id":"CNV-INT-0211","crash_count":1,"icbc_locations":"E 20TH ST & ST ANDREWS AVE"},"geometry":{"type":"Point","coordinates":[-123.06600313419992,49.32715787130751]}},{"id":"110","type":"Feature","properties":{"intersection_id":"CNV-INT-0212","crash_count":65,"icbc_locations":"E 20TH ST & LONSDALE AVE & W 20TH ST"},"geometry":{"type":"Point","coordinates":[-123.07221353051597,49.32726659677529]}},{"id":"111","type":"Feature","properties":{"intersection_id":"CNV-INT-0213","crash_count":23,"icbc_locations":"E 21ST ST & ST GEORGES AVE"},"geometry":{"type":"Point","coordinates":[-123.06905474919276,49.328262486210356]}},{"id":"112","type":"Feature","properties":{"intersection_id":"CNV-INT-0214","crash_count":1,"icbc_locations":"E 21ST ST & ST ANDREWS AVE"},"geometry":{"type":"Point","coordinates":[-123.06595125173497,49.328241811891886]}},{"id":"113","type":"Feature","properties":{"intersection_id":"CNV-INT-0216","crash_count":4,"icbc_locations":"E 22ND ST & ST GEORGES AVE"},"geometry":{"type":"Point","coordinates":[-123.06903677208119,49.32924746159888]}},{"id":"114","type":"Feature","properties":{"intersection_id":"CNV-INT-0217","crash_count":1,"icbc_locations":"E 22ND ST & EASTERN AVE"},"geometry":{"type":"Point","coordinates":[-123.07046472282039,49.329282579373626]}},{"id":"115","type":"Feature","properties":{"intersection_id":"CNV-INT-0220","crash_count":2,"icbc_locations":"E 23RD ST & ST ANDREWS AVE"},"geometry":{"type":"Point","coordinates":[-123.06588028308873,49.3301713008329]}},{"id":"116","type":"Feature","properties":{"intersection_id":"CNV-INT-0221","crash_count":28,"icbc_locations":"E 23RD ST & ST GEORGES AVE"},"geometry":{"type":"Point","coordinates":[-123.06898133869716,49.33020547207599]}},{"id":"117","type":"Feature","properties":{"intersection_id":"CNV-INT-0222","crash_count":96,"icbc_locations":"E 23RD ST & LONSDALE AVE & W 23RD ST"},"geometry":{"type":"Point","coordinates":[-123.07215465641237,49.33023951503008]}},{"id":"118","type":"Feature","properties":{"intersection_id":"CNV-INT-0223","crash_count":12,"icbc_locations":"E 24TH ST & ST GEORGES AVE"},"geometry":{"type":"Point","coordinates":[-123.06894444869566,49.3311994526023]}},{"id":"119","type":"Feature","properties":{"intersection_id":"CNV-INT-0237","crash_count":1,"icbc_locations":"E 27TH ST & TEMPE CRES"},"geometry":{"type":"Point","coordinates":[-123.06390644390414,49.33406728618584]}},{"id":"120","type":"Feature","properties":{"intersection_id":"CNV-INT-0245","crash_count":2,"icbc_locations":"E 26TH ST & ST ANDREWS AVE"},"geometry":{"type":"Point","coordinates":[-123.06579602780049,49.33310824836804]}},{"id":"121","type":"Feature","properties":{"intersection_id":"CNV-INT-0246","crash_count":1,"icbc_locations":"E 27TH ST & ST ANDREWS AVE"},"geometry":{"type":"Point","coordinates":[-123.06580161796899,49.33407521790714]}},{"id":"122","type":"Feature","properties":{"intersection_id":"CNV-INT-0249","crash_count":2,"icbc_locations":"E 25TH ST & ST GEORGES AVE"},"geometry":{"type":"Point","coordinates":[-123.0689296368636,49.332296863399016]}},{"id":"123","type":"Feature","properties":{"intersection_id":"CNV-INT-0251","crash_count":2,"icbc_locations":"E 26TH ST & ST GEORGES AVE"},"geometry":{"type":"Point","coordinates":[-123.06892263189718,49.333133411554556]}},{"id":"124","type":"Feature","properties":{"intersection_id":"CNV-INT-0253","crash_count":10,"icbc_locations":"E 26TH ST & LONSDALE AVE"},"geometry":{"type":"Point","coordinates":[-123.07205711918098,49.33325293375762]}},{"id":"125","type":"Feature","properties":{"intersection_id":"CNV-INT-0254","crash_count":1,"icbc_locations":"E 27TH ST & ST GEORGES AVE"},"geometry":{"type":"Point","coordinates":[-123.06889430357036,49.33410040116957]}},{"id":"126","type":"Feature","properties":{"intersection_id":"CNV-INT-0259","crash_count":18,"icbc_locations":"E 1ST ST & ST GEORGES AVE"},"geometry":{"type":"Point","coordinates":[-123.07557227489775,49.31056713244447]}},{"id":"127","type":"Feature","properties":{"intersection_id":"CNV-INT-0260","crash_count":12,"icbc_locations":"E 2ND ST & ST GEORGES AVE"},"geometry":{"type":"Point","coordinates":[-123.07478146054656,49.31133910885175]}},{"id":"128","type":"Feature","properties":{"intersection_id":"CNV-INT-0261","crash_count":34,"icbc_locations":"E 3RD ST & ST GEORGES AVE"},"geometry":{"type":"Point","coordinates":[-123.07401127778701,49.31208619949542]}},{"id":"129","type":"Feature","properties":{"intersection_id":"CNV-INT-0263","crash_count":24,"icbc_locations":"E ESPLANADE & ST GEORGES AVE"},"geometry":{"type":"Point","coordinates":[-123.07639196024152,49.30975835933551]}},{"id":"130","type":"Feature","properties":{"intersection_id":"CNV-INT-0264","crash_count":14,"icbc_locations":"VICTORY SHIP WAY & WALLACE MEWS"},"geometry":{"type":"Point","coordinates":[-123.07815993203114,49.309831342943106]}},{"id":"131","type":"Feature","properties":{"intersection_id":"CNV-INT-0266","crash_count":46,"icbc_locations":"E ESPLANADE & LONSDALE AVE & W ESPLANADE"},"geometry":{"type":"Point","coordinates":[-123.07946767975398,49.311049713329]}},{"id":"132","type":"Feature","properties":{"intersection_id":"CNV-INT-0267","crash_count":13,"icbc_locations":"LONSDALE AVE & VICTORY SHIP WAY"},"geometry":{"type":"Point","coordinates":[-123.07989536802604,49.3106433539494]}},{"id":"133","type":"Feature","properties":{"intersection_id":"CNV-INT-0268","crash_count":4,"icbc_locations":"CARRIE CATES CRT & LONSDALE AVE"},"geometry":{"type":"Point","coordinates":[-123.08017042264989,49.3103820123139]}},{"id":"134","type":"Feature","properties":{"intersection_id":"CNV-INT-0270","crash_count":42,"icbc_locations":"E 1ST ST & LONSDALE AVE & W 1ST ST"},"geometry":{"type":"Point","coordinates":[-123.07863280635767,49.31187625950454]}},{"id":"135","type":"Feature","properties":{"intersection_id":"CNV-INT-0271","crash_count":8,"icbc_locations":"ROGERS AVE & W ESPLANADE"},"geometry":{"type":"Point","coordinates":[-123.08084189255544,49.311649857117125]}},{"id":"136","type":"Feature","properties":{"intersection_id":"CNV-INT-0272","crash_count":31,"icbc_locations":"E 2ND ST & LONSDALE AVE & W 2ND ST"},"geometry":{"type":"Point","coordinates":[-123.07784381262645,49.31265936983709]}},{"id":"137","type":"Feature","properties":{"intersection_id":"CNV-INT-0273","crash_count":102,"icbc_locations":"E 3RD ST & LONSDALE AVE & W 3RD ST"},"geometry":{"type":"Point","coordinates":[-123.07705566782387,49.31345146923315]}},{"id":"138","type":"Feature","properties":{"intersection_id":"CNV-INT-0274","crash_count":1,"icbc_locations":"CARRIE CATES CRT & ROGERS AVE"},"geometry":{"type":"Point","coordinates":[-123.08152823947512,49.31097024263193]}},{"id":"139","type":"Feature","properties":{"intersection_id":"CNV-INT-0275","crash_count":4,"icbc_locations":"CHADWICK CRT & CHESTERFIELD PL"},"geometry":{"type":"Point","coordinates":[-123.08397382937298,49.31105394527526]}},{"id":"140","type":"Feature","properties":{"intersection_id":"CNV-INT-0277","crash_count":27,"icbc_locations":"CHESTERFIELD AVE & CHESTERFIELD PL & W ESPLANADE"},"geometry":{"type":"Point","coordinates":[-123.08259943932559,49.312399708544305]}},{"id":"141","type":"Feature","properties":{"intersection_id":"CNV-INT-0278","crash_count":10,"icbc_locations":"SEMISCH AVE & W ESPLANADE"},"geometry":{"type":"Point","coordinates":[-123.08412387524952,49.31307324358598]}},{"id":"142","type":"Feature","properties":{"intersection_id":"CNV-INT-0279","crash_count":30,"icbc_locations":"CHESTERFIELD AVE & W 1ST ST"},"geometry":{"type":"Point","coordinates":[-123.08176887485428,49.313232347616164]}},{"id":"143","type":"Feature","properties":{"intersection_id":"CNV-INT-0280","crash_count":5,"icbc_locations":"E 4TH ST & ST GEORGES AVE"},"geometry":{"type":"Point","coordinates":[-123.07321274995073,49.31286928427565]}},{"id":"144","type":"Feature","properties":{"intersection_id":"CNV-INT-0281","crash_count":25,"icbc_locations":"E 4TH ST & LONSDALE AVE & W 4TH ST"},"geometry":{"type":"Point","coordinates":[-123.07628208858154,49.314225563276715]}},{"id":"145","type":"Feature","properties":{"intersection_id":"CNV-INT-0282","crash_count":15,"icbc_locations":"E 5TH ST & LONSDALE AVE & W 5TH ST"},"geometry":{"type":"Point","coordinates":[-123.07537145027385,49.31508069761855]}},{"id":"146","type":"Feature","properties":{"intersection_id":"CNV-INT-0283","crash_count":12,"icbc_locations":"E 6TH ST & LONSDALE AVE & W 6TH ST"},"geometry":{"type":"Point","coordinates":[-123.07450250078504,49.315944793808605]}},{"id":"147","type":"Feature","properties":{"intersection_id":"CNV-INT-0285","crash_count":10,"icbc_locations":"FORBES AVE & MAHON AVE & W ESPLANADE"},"geometry":{"type":"Point","coordinates":[-123.08561737260818,49.31373328778289]}},{"id":"148","type":"Feature","properties":{"intersection_id":"CNV-INT-0286","crash_count":7,"icbc_locations":"SEMISCH AVE & W 1ST ST"},"geometry":{"type":"Point","coordinates":[-123.08330059098813,49.313878902892064]}},{"id":"149","type":"Feature","properties":{"intersection_id":"CNV-INT-0287","crash_count":19,"icbc_locations":"CHESTERFIELD AVE & W 2ND ST"},"geometry":{"type":"Point","coordinates":[-123.08095285947974,49.314037986824076]}},{"id":"150","type":"Feature","properties":{"intersection_id":"CNV-INT-0289","crash_count":8,"icbc_locations":"MAHON AVE & W 1ST ST"},"geometry":{"type":"Point","coordinates":[-123.08483798870876,49.31455691747048]}},{"id":"151","type":"Feature","properties":{"intersection_id":"CNV-INT-0290","crash_count":67,"icbc_locations":"CHESTERFIELD AVE & W 3RD ST"},"geometry":{"type":"Point","coordinates":[-123.08019780532346,49.31480309800578]}},{"id":"152","type":"Feature","properties":{"intersection_id":"CNV-INT-0291","crash_count":4,"icbc_locations":"MAHON AVE & W 2ND ST"},"geometry":{"type":"Point","coordinates":[-123.0840344393591,49.31534457705711]}},{"id":"153","type":"Feature","properties":{"intersection_id":"CNV-INT-0292","crash_count":7,"icbc_locations":"CHESTERFIELD AVE & W 4TH ST"},"geometry":{"type":"Point","coordinates":[-123.07937265772811,49.315577248331415]}},{"id":"154","type":"Feature","properties":{"intersection_id":"CNV-INT-0293","crash_count":5,"icbc_locations":"CHESTERFIELD AVE & W 5TH ST"},"geometry":{"type":"Point","coordinates":[-123.07848268700936,49.31643239279594]}},{"id":"155","type":"Feature","properties":{"intersection_id":"CNV-INT-0297","crash_count":2,"icbc_locations":"SEMISCH AVE & W 3RD ST"},"geometry":{"type":"Point","coordinates":[-123.08169132024331,49.31547218875027]}},{"id":"156","type":"Feature","properties":{"intersection_id":"CNV-INT-0298","crash_count":8,"icbc_locations":"FORBES AVE & W 2ND ST"},"geometry":{"type":"Point","coordinates":[-123.08588172598628,49.31616627292025]}},{"id":"157","type":"Feature","properties":{"intersection_id":"CNV-INT-0299","crash_count":19,"icbc_locations":"MAHON AVE & W 3RD ST"},"geometry":{"type":"Point","coordinates":[-123.08326609342744,49.31611421624046]}},{"id":"158","type":"Feature","properties":{"intersection_id":"CNV-INT-0301","crash_count":41,"icbc_locations":"E KEITH RD & LONSDALE AVE & W KEITH RD"},"geometry":{"type":"Point","coordinates":[-123.07398084974413,49.31645785088901]}},{"id":"159","type":"Feature","properties":{"intersection_id":"CNV-INT-0303","crash_count":1,"icbc_locations":"W KEITH RD & W VICTORIA PARK AVE"},"geometry":{"type":"Point","coordinates":[-123.07584136054062,49.317293191267886]}},{"id":"160","type":"Feature","properties":{"intersection_id":"CNV-INT-0306","crash_count":5,"icbc_locations":"CHESTERFIELD AVE & W 12TH ST & W 8TH ST"},"geometry":{"type":"Point","coordinates":[-123.07442898448939,49.31895650334461]}},{"id":"161","type":"Feature","properties":{"intersection_id":"CNV-INT-0309","crash_count":20,"icbc_locations":"CHESTERFIELD AVE & W KEITH RD"},"geometry":{"type":"Point","coordinates":[-123.07676504338804,49.31816960476478]}},{"id":"162","type":"Feature","properties":{"intersection_id":"CNV-INT-0310","crash_count":2,"icbc_locations":"MAHON AVE & W 6TH ST"},"geometry":{"type":"Point","coordinates":[-123.08078566701262,49.31854465933421]}},{"id":"163","type":"Feature","properties":{"intersection_id":"CNV-INT-0313","crash_count":7,"icbc_locations":"MAHON AVE & W KEITH RD"},"geometry":{"type":"Point","coordinates":[-123.07982397959633,49.319476322287464]}},{"id":"164","type":"Feature","properties":{"intersection_id":"CNV-INT-0314","crash_count":1,"icbc_locations":"FELL AVE & HARBOURSIDE PL"},"geometry":{"type":"Point","coordinates":[-123.0948551387095,49.3134877028965]}},{"id":"165","type":"Feature","properties":{"intersection_id":"CNV-INT-0316","crash_count":4,"icbc_locations":"HARBOURSIDE DR & HARBOURSIDE PL"},"geometry":{"type":"Point","coordinates":[-123.09688211925543,49.314559316856396]}},{"id":"166","type":"Feature","properties":{"intersection_id":"CNV-INT-0318","crash_count":5,"icbc_locations":"FELL AVE & HARBOURSIDE DR"},"geometry":{"type":"Point","coordinates":[-123.09482327312885,49.31454015841517]}},{"id":"167","type":"Feature","properties":{"intersection_id":"CNV-INT-0323","crash_count":7,"icbc_locations":"BEWICKE AVE & COPPING ST"},"geometry":{"type":"Point","coordinates":[-123.09168610483604,49.316467648156824]}},{"id":"168","type":"Feature","properties":{"intersection_id":"CNV-INT-0325","crash_count":1,"icbc_locations":"COPPING ST & GOSTICK PL"},"geometry":{"type":"Point","coordinates":[-123.09279846629651,49.31647125881345]}},{"id":"169","type":"Feature","properties":{"intersection_id":"CNV-INT-0327","crash_count":11,"icbc_locations":"AUTOMALL DR & FELL AVE"},"geometry":{"type":"Point","coordinates":[-123.09478216897946,49.31589767789499]}},{"id":"170","type":"Feature","properties":{"intersection_id":"CNV-INT-0331","crash_count":69,"icbc_locations":"FELL AVE & W 1ST ST"},"geometry":{"type":"Point","coordinates":[-123.09471745205632,49.31803485321212]}},{"id":"171","type":"Feature","properties":{"intersection_id":"CNV-INT-0332","crash_count":17,"icbc_locations":"DONAGHY AVE & W 1ST ST"},"geometry":{"type":"Point","coordinates":[-123.09693414752223,49.318077989997]}},{"id":"172","type":"Feature","properties":{"intersection_id":"CNV-INT-0333","crash_count":56,"icbc_locations":"FORBES AVE & W 3RD ST"},"geometry":{"type":"Point","coordinates":[-123.0858089324626,49.31733119619464]}},{"id":"173","type":"Feature","properties":{"intersection_id":"CNV-INT-0341","crash_count":15,"icbc_locations":"MISSION RD & W 3RD ST"},"geometry":{"type":"Point","coordinates":[-123.08739667038661,49.31794617132999]}},{"id":"174","type":"Feature","properties":{"intersection_id":"CNV-INT-0342","crash_count":28,"icbc_locations":"BEWICKE AVE & W 2ND ST"},"geometry":{"type":"Point","coordinates":[-123.09154555689445,49.31904935920456]}},{"id":"175","type":"Feature","properties":{"intersection_id":"CNV-INT-0344","crash_count":1,"icbc_locations":"DELBRUCK AVE & W 3RD ST"},"geometry":{"type":"Point","coordinates":[-123.08849056204242,49.318422080314875]}},{"id":"176","type":"Feature","properties":{"intersection_id":"CNV-INT-0347","crash_count":23,"icbc_locations":"HANES AVE & W 1ST ST"},"geometry":{"type":"Point","coordinates":[-123.09892630060614,49.31807630197947]}},{"id":"177","type":"Feature","properties":{"intersection_id":"CNV-INT-0348","crash_count":14,"icbc_locations":"MACKAY RD & W 1ST ST"},"geometry":{"type":"Point","coordinates":[-123.10237232274612,49.31810478389876]}},{"id":"178","type":"Feature","properties":{"intersection_id":"CNV-INT-0349","crash_count":20,"icbc_locations":"FELL AVE & W 3RD ST"},"geometry":{"type":"Point","coordinates":[-123.09467675766679,49.32013524677709]}},{"id":"179","type":"Feature","properties":{"intersection_id":"CNV-INT-0350","crash_count":4,"icbc_locations":"DONAGHY AVE & W 3RD ST"},"geometry":{"type":"Point","coordinates":[-123.09688788734016,49.32014240944392]}},{"id":"180","type":"Feature","properties":{"intersection_id":"CNV-INT-0351","crash_count":11,"icbc_locations":"HANES AVE & W 3RD ST"},"geometry":{"type":"Point","coordinates":[-123.0988629683052,49.32016322374085]}},{"id":"181","type":"Feature","properties":{"intersection_id":"CNV-INT-0352","crash_count":12,"icbc_locations":"MACKAY RD & W 3RD ST"},"geometry":{"type":"Point","coordinates":[-123.10229884509597,49.32020520922722]}},{"id":"182","type":"Feature","properties":{"intersection_id":"CNV-INT-0353","crash_count":21,"icbc_locations":"FORBES AVE & W KEITH RD"},"geometry":{"type":"Point","coordinates":[-123.08484994747893,49.32001694724454]}},{"id":"183","type":"Feature","properties":{"intersection_id":"CNV-INT-0354","crash_count":6,"icbc_locations":"DELBRUCK AVE & W KEITH RD"},"geometry":{"type":"Point","coordinates":[-123.08792928407031,49.320037132422556]}},{"id":"184","type":"Feature","properties":{"intersection_id":"CNV-INT-0355","crash_count":6,"icbc_locations":"BEWICKE AVE & W 14TH ST"},"geometry":{"type":"Point","coordinates":[-123.09131736465751,49.32121736201382]}},{"id":"185","type":"Feature","properties":{"intersection_id":"CNV-INT-0356","crash_count":3,"icbc_locations":"FORBES AVE & W 14TH ST"},"geometry":{"type":"Point","coordinates":[-123.08481619608915,49.32114585817923]}},{"id":"186","type":"Feature","properties":{"intersection_id":"CNV-INT-0357","crash_count":6,"icbc_locations":"BEWICKE AVE & W 15TH ST"},"geometry":{"type":"Point","coordinates":[-123.09127756397183,49.322251832514716]}},{"id":"187","type":"Feature","properties":{"intersection_id":"CNV-INT-0358","crash_count":52,"icbc_locations":"BEWICKE AVE & LARSON RD & W 16TH ST & W 17TH ST"},"geometry":{"type":"Point","coordinates":[-123.0912075108674,49.32320536978467]}},{"id":"188","type":"Feature","properties":{"intersection_id":"CNV-INT-0360","crash_count":189,"icbc_locations":"FELL AVE & MARINE DR & TURNING LANE"},"geometry":{"type":"Point","coordinates":[-123.09465303440322,49.321219176814445]}},{"id":"189","type":"Feature","properties":{"intersection_id":"CNV-INT-0362","crash_count":2,"icbc_locations":"MOSQUITO CREEK LANE & W 14TH ST"},"geometry":{"type":"Point","coordinates":[-123.0934386052906,49.32123609985415]}},{"id":"190","type":"Feature","properties":{"intersection_id":"CNV-INT-0364","crash_count":2,"icbc_locations":"MARINE DR & W 15TH ST"},"geometry":{"type":"Point","coordinates":[-123.09706880842224,49.322053718815056]}},{"id":"191","type":"Feature","properties":{"intersection_id":"CNV-INT-0366","crash_count":38,"icbc_locations":"JONES AVE & W KEITH RD"},"geometry":{"type":"Point","coordinates":[-123.0817297408008,49.319983215356615]}},{"id":"192","type":"Feature","properties":{"intersection_id":"CNV-INT-0367","crash_count":1,"icbc_locations":"JONES AVE & W 14TH ST"},"geometry":{"type":"Point","coordinates":[-123.08170110809577,49.321130111985276]}},{"id":"193","type":"Feature","properties":{"intersection_id":"CNV-INT-0368","crash_count":4,"icbc_locations":"JONES AVE & W 15TH ST"},"geometry":{"type":"Point","coordinates":[-123.08168734449677,49.32216905740902]}},{"id":"194","type":"Feature","properties":{"intersection_id":"CNV-INT-0369","crash_count":1,"icbc_locations":"FORBES AVE & W 15TH ST"},"geometry":{"type":"Point","coordinates":[-123.08477198353212,49.322193822333624]}},{"id":"195","type":"Feature","properties":{"intersection_id":"CNV-INT-0371","crash_count":1,"icbc_locations":"FORBES AVE & W 16TH ST"},"geometry":{"type":"Point","coordinates":[-123.08475868274101,49.3232147764802]}},{"id":"196","type":"Feature","properties":{"intersection_id":"CNV-INT-0375","crash_count":2,"icbc_locations":"W 13TH ST & W KEITH RD"},"geometry":{"type":"Point","coordinates":[-123.08093549142774,49.319970280708105]}},{"id":"197","type":"Feature","properties":{"intersection_id":"CNV-INT-0376","crash_count":52,"icbc_locations":"CHESTERFIELD AVE & W 13TH ST"},"geometry":{"type":"Point","coordinates":[-123.0755341983998,49.320005420723454]}},{"id":"198","type":"Feature","properties":{"intersection_id":"CNV-INT-0377","crash_count":3,"icbc_locations":"W 13TH ST & W 8TH ST"},"geometry":{"type":"Point","coordinates":[-123.0774301365156,49.320022156322544]}},{"id":"199","type":"Feature","properties":{"intersection_id":"CNV-INT-0378","crash_count":7,"icbc_locations":"MAHON AVE & W 13TH ST"},"geometry":{"type":"Point","coordinates":[-123.07992755201212,49.31997098215309]}},{"id":"200","type":"Feature","properties":{"intersection_id":"CNV-INT-0380","crash_count":12,"icbc_locations":"CHESTERFIELD AVE & W 14TH ST"},"geometry":{"type":"Point","coordinates":[-123.07553581490005,49.32106234487291]}},{"id":"201","type":"Feature","properties":{"intersection_id":"CNV-INT-0381","crash_count":3,"icbc_locations":"MAHON AVE & W 14TH ST"},"geometry":{"type":"Point","coordinates":[-123.07861607181962,49.32108277939137]}},{"id":"202","type":"Feature","properties":{"intersection_id":"CNV-INT-0383","crash_count":53,"icbc_locations":"E 14TH ST & LONSDALE AVE"},"geometry":{"type":"Point","coordinates":[-123.07236825945405,49.32103738629911]}},{"id":"203","type":"Feature","properties":{"intersection_id":"CNV-INT-0385","crash_count":104,"icbc_locations":"E 15TH ST & LONSDALE AVE & W 15TH ST"},"geometry":{"type":"Point","coordinates":[-123.07234654065505,49.32206284290425]}},{"id":"204","type":"Feature","properties":{"intersection_id":"CNV-INT-0386","crash_count":18,"icbc_locations":"CHESTERFIELD AVE & W 15TH ST"},"geometry":{"type":"Point","coordinates":[-123.07548838222476,49.322101312446954]}},{"id":"205","type":"Feature","properties":{"intersection_id":"CNV-INT-0387","crash_count":56,"icbc_locations":"LONSDALE AVE & W 16TH ST"},"geometry":{"type":"Point","coordinates":[-123.07234806928288,49.32310627499584]}},{"id":"206","type":"Feature","properties":{"intersection_id":"CNV-INT-0388","crash_count":24,"icbc_locations":"CHESTERFIELD AVE & W 16TH ST"},"geometry":{"type":"Point","coordinates":[-123.0754675809709,49.323122270404845]}},{"id":"207","type":"Feature","properties":{"intersection_id":"CNV-INT-0389","crash_count":74,"icbc_locations":"E 17TH ST & LONSDALE AVE & W 17TH ST"},"geometry":{"type":"Point","coordinates":[-123.07228508461436,49.324145249708934]}},{"id":"208","type":"Feature","properties":{"intersection_id":"CNV-INT-0390","crash_count":17,"icbc_locations":"CHESTERFIELD AVE & W 17TH ST"},"geometry":{"type":"Point","coordinates":[-123.07544511229636,49.324179210605976]}},{"id":"209","type":"Feature","properties":{"intersection_id":"CNV-INT-0391","crash_count":6,"icbc_locations":"MAHON AVE & W 15TH ST"},"geometry":{"type":"Point","coordinates":[-123.07858934387627,49.32212173236123]}},{"id":"210","type":"Feature","properties":{"intersection_id":"CNV-INT-0392","crash_count":2,"icbc_locations":"MAHON AVE & W 16TH ST"},"geometry":{"type":"Point","coordinates":[-123.0785583430877,49.32317867916437]}},{"id":"211","type":"Feature","properties":{"intersection_id":"CNV-INT-0393","crash_count":4,"icbc_locations":"MAHON AVE & W 17TH ST"},"geometry":{"type":"Point","coordinates":[-123.07855997441092,49.32420412070348]}},{"id":"212","type":"Feature","properties":{"intersection_id":"CNV-INT-0394","crash_count":8,"icbc_locations":"CHESTERFIELD AVE & W 18TH ST"},"geometry":{"type":"Point","coordinates":[-123.07540884796711,49.32521367183888]}},{"id":"213","type":"Feature","properties":{"intersection_id":"CNV-INT-0395","crash_count":27,"icbc_locations":"CHESTERFIELD AVE & W 19TH ST"},"geometry":{"type":"Point","coordinates":[-123.07537216649797,49.32625712825294]}},{"id":"214","type":"Feature","properties":{"intersection_id":"CNV-INT-0396","crash_count":6,"icbc_locations":"CHESTERFIELD AVE & W 20TH ST"},"geometry":{"type":"Point","coordinates":[-123.07535482236132,49.32729157675481]}},{"id":"215","type":"Feature","properties":{"intersection_id":"CNV-INT-0397","crash_count":4,"icbc_locations":"JONES AVE & W 17TH ST"},"geometry":{"type":"Point","coordinates":[-123.08162969424085,49.32423347720132]}},{"id":"216","type":"Feature","properties":{"intersection_id":"CNV-INT-0398","crash_count":2,"icbc_locations":"MAHON AVE & W 18TH ST"},"geometry":{"type":"Point","coordinates":[-123.07850058233781,49.32525658884805]}},{"id":"217","type":"Feature","properties":{"intersection_id":"CNV-INT-0399","crash_count":2,"icbc_locations":"JONES AVE & W 18TH ST"},"geometry":{"type":"Point","coordinates":[-123.08160090684453,49.32529042198108]}},{"id":"218","type":"Feature","properties":{"intersection_id":"CNV-INT-0400","crash_count":3,"icbc_locations":"MAHON AVE & W 19TH ST"},"geometry":{"type":"Point","coordinates":[-123.07847167735942,49.32628205075355]}},{"id":"219","type":"Feature","properties":{"intersection_id":"CNV-INT-0401","crash_count":2,"icbc_locations":"JONES AVE & W 19TH ST"},"geometry":{"type":"Point","coordinates":[-123.08158712659825,49.326320371545464]}},{"id":"220","type":"Feature","properties":{"intersection_id":"CNV-INT-0403","crash_count":2,"icbc_locations":"JONES AVE & W 20TH ST"},"geometry":{"type":"Point","coordinates":[-123.08154327039686,49.32736833325656]}},{"id":"221","type":"Feature","properties":{"intersection_id":"CNV-INT-0404","crash_count":3,"icbc_locations":"MAHON AVE & W 21ST ST"},"geometry":{"type":"Point","coordinates":[-123.0784272270512,49.32835095603609]}},{"id":"222","type":"Feature","properties":{"intersection_id":"CNV-INT-0405","crash_count":76,"icbc_locations":"E 21ST ST & LONSDALE AVE & W 21ST ST"},"geometry":{"type":"Point","coordinates":[-123.07219612124851,49.32830104555076]}},{"id":"223","type":"Feature","properties":{"intersection_id":"CNV-INT-0406","crash_count":7,"icbc_locations":"CHESTERFIELD AVE & W 21ST ST"},"geometry":{"type":"Point","coordinates":[-123.07532112755716,49.328321538172524]}},{"id":"224","type":"Feature","properties":{"intersection_id":"CNV-INT-0407","crash_count":14,"icbc_locations":"LONSDALE AVE & W 22ND ST"},"geometry":{"type":"Point","coordinates":[-123.0721784566453,49.329456926372465]}},{"id":"225","type":"Feature","properties":{"intersection_id":"CNV-INT-0408","crash_count":7,"icbc_locations":"CHESTERFIELD AVE & W 22ND ST"},"geometry":{"type":"Point","coordinates":[-123.07529022453109,49.329490921656316]}},{"id":"226","type":"Feature","properties":{"intersection_id":"CNV-INT-0409","crash_count":20,"icbc_locations":"CHESTERFIELD AVE & W 23RD ST"},"geometry":{"type":"Point","coordinates":[-123.0752914179541,49.330273494679815]}},{"id":"227","type":"Feature","properties":{"intersection_id":"CNV-INT-0410","crash_count":3,"icbc_locations":"W 23RD ST & WESTERN AVE"},"geometry":{"type":"Point","coordinates":[-123.07372629494353,49.33027900116917]}},{"id":"228","type":"Feature","properties":{"intersection_id":"CNV-INT-0414","crash_count":5,"icbc_locations":"MAHON AVE & W 23RD ST"},"geometry":{"type":"Point","coordinates":[-123.07839765451918,49.33031190746111]}},{"id":"229","type":"Feature","properties":{"intersection_id":"CNV-INT-0415","crash_count":25,"icbc_locations":"JONES AVE & LARSON CRES & W 23RD ST"},"geometry":{"type":"Point","coordinates":[-123.08148408760323,49.33033675807578]}},{"id":"230","type":"Feature","properties":{"intersection_id":"CNV-INT-0419","crash_count":4,"icbc_locations":"LARSON RD & W 23RD ST"},"geometry":{"type":"Point","coordinates":[-123.08458086423525,49.33037051380479]}},{"id":"231","type":"Feature","properties":{"intersection_id":"CNV-INT-0422","crash_count":9,"icbc_locations":"FELL AVE & W 15TH ST"},"geometry":{"type":"Point","coordinates":[-123.09463011848263,49.32227612153977]}},{"id":"232","type":"Feature","properties":{"intersection_id":"CNV-INT-0423","crash_count":126,"icbc_locations":"HAMILTON AVE & MARINE DR & W 16TH ST & TURNING LANE"},"geometry":{"type":"Point","coordinates":[-123.10017154575114,49.32315747024967]}},{"id":"233","type":"Feature","properties":{"intersection_id":"CNV-INT-0425","crash_count":54,"icbc_locations":"FELL AVE & W 16TH ST"},"geometry":{"type":"Point","coordinates":[-123.0946061433619,49.32322962314331]}},{"id":"234","type":"Feature","properties":{"intersection_id":"CNV-INT-0428","crash_count":69,"icbc_locations":"MACKAY AVE & MARINE DR"},"geometry":{"type":"Point","coordinates":[-123.1012401104986,49.32353883145599]}},{"id":"235","type":"Feature","properties":{"intersection_id":"CNV-INT-0429","crash_count":18,"icbc_locations":"MACKAY RD & MARINE DR"},"geometry":{"type":"Point","coordinates":[-123.10213818868212,49.323821388221255]}},{"id":"236","type":"Feature","properties":{"intersection_id":"CNV-INT-0430","crash_count":3,"icbc_locations":"FELL AVE & TOBRUCK AVE"},"geometry":{"type":"Point","coordinates":[-123.09460205274712,49.32401220120295]}},{"id":"237","type":"Feature","properties":{"intersection_id":"CNV-INT-0431","crash_count":2,"icbc_locations":"HAMILTON AVE & TOBRUCK AVE"},"geometry":{"type":"Point","coordinates":[-123.09924964446203,49.32406227432527]}},{"id":"238","type":"Feature","properties":{"intersection_id":"CNV-INT-0432","crash_count":3,"icbc_locations":"MACKAY AVE & W 17TH ST"},"geometry":{"type":"Point","coordinates":[-123.10091094935258,49.32471298221093]}},{"id":"239","type":"Feature","properties":{"intersection_id":"CNV-INT-0438","crash_count":56,"icbc_locations":"FIR ST & LARSON RD & WESTVIEW DR"},"geometry":{"type":"Point","coordinates":[-123.0895132714342,49.32516313180916]}},{"id":"240","type":"Feature","properties":{"intersection_id":"CNV-INT-0439","crash_count":2,"icbc_locations":"FELL AVE & W 17TH ST"},"geometry":{"type":"Point","coordinates":[-123.09458564216662,49.32442598972566]}},{"id":"241","type":"Feature","properties":{"intersection_id":"CNV-INT-0442","crash_count":1,"icbc_locations":"MACKAY AVE & W KEITH RD"},"geometry":{"type":"Point","coordinates":[-123.10059193701893,49.325599277680396]}},{"id":"242","type":"Feature","properties":{"intersection_id":"CNV-INT-0443","crash_count":1,"icbc_locations":"FELL AVE & W 19TH ST"},"geometry":{"type":"Point","coordinates":[-123.09359520128704,49.32644619793883]}},{"id":"243","type":"Feature","properties":{"intersection_id":"CNV-INT-0446","crash_count":10,"icbc_locations":"W 19TH ST & WESTVIEW DR"},"geometry":{"type":"Point","coordinates":[-123.08949828654409,49.326386478110265]}},{"id":"244","type":"Feature","properties":{"intersection_id":"CNV-INT-0448","crash_count":6,"icbc_locations":"W 20TH ST & WESTVIEW DR"},"geometry":{"type":"Point","coordinates":[-123.08945197563555,49.32741195518049]}},{"id":"245","type":"Feature","properties":{"intersection_id":"CNV-INT-0452","crash_count":1,"icbc_locations":"LARSON RD & W 21ST ST"},"geometry":{"type":"Point","coordinates":[-123.08540884559828,49.32840447509363]}},{"id":"246","type":"Feature","properties":{"intersection_id":"CNV-INT-0455","crash_count":1,"icbc_locations":"NEILSON AVE & W 19TH ST"},"geometry":{"type":"Point","coordinates":[-123.09539980655536,49.32647170782468]}},{"id":"247","type":"Feature","properties":{"intersection_id":"CNV-INT-0456","crash_count":1,"icbc_locations":"FELL AVE & W 20TH ST"},"geometry":{"type":"Point","coordinates":[-123.09310515596118,49.327481030961685]}},{"id":"248","type":"Feature","properties":{"intersection_id":"CNV-INT-0459","crash_count":3,"icbc_locations":"EDGEMONT BLVD & FELL AVE & W 21ST ST"},"geometry":{"type":"Point","coordinates":[-123.092582295972,49.32845801620582]}},{"id":"249","type":"Feature","properties":{"intersection_id":"CNV-INT-0465","crash_count":4,"icbc_locations":"W 21ST ST & WESTVIEW DR"},"geometry":{"type":"Point","coordinates":[-123.08940266246583,49.32844193372216]}},{"id":"250","type":"Feature","properties":{"intersection_id":"CNV-INT-0466","crash_count":7,"icbc_locations":"W 22ND ST & WESTVIEW DR"},"geometry":{"type":"Point","coordinates":[-123.08823976060536,49.32942779027018]}},{"id":"251","type":"Feature","properties":{"intersection_id":"CNV-INT-0478","crash_count":1,"icbc_locations":"JONES AVE & W 26TH ST"},"geometry":{"type":"Point","coordinates":[-123.08140891118157,49.33326021801627]}},{"id":"252","type":"Feature","properties":{"intersection_id":"CNV-INT-0480","crash_count":1,"icbc_locations":"W 26TH ST & WESTERN AVE"},"geometry":{"type":"Point","coordinates":[-123.07363266105503,49.33324744325238]}},{"id":"253","type":"Feature","properties":{"intersection_id":"CNV-INT-0481","crash_count":35,"icbc_locations":"E 27TH ST & LONSDALE AVE & W 27TH ST"},"geometry":{"type":"Point","coordinates":[-123.07203346620803,49.3341389653678]}},{"id":"254","type":"Feature","properties":{"intersection_id":"CNV-INT-0482","crash_count":1,"icbc_locations":"CHESTERFIELD AVE & W 27TH ST"},"geometry":{"type":"Point","coordinates":[-123.07518641159889,49.33418643043982]}},{"id":"255","type":"Feature","properties":{"intersection_id":"CNV-INT-0485","crash_count":1,"icbc_locations":"JONES AVE & W 27TH ST"},"geometry":{"type":"Point","coordinates":[-123.08138988777362,49.33424519434886]}},{"id":"256","type":"Feature","properties":{"intersection_id":"CNV-INT-0487","crash_count":3,"icbc_locations":"JONES AVE & W 28TH ST"},"geometry":{"type":"Point","coordinates":[-123.08136342725815,49.335153717453956]}},{"id":"257","type":"Feature","properties":{"intersection_id":"CNV-INT-0494","crash_count":1,"icbc_locations":"LARSON RD & W 26TH ST"},"geometry":{"type":"Point","coordinates":[-123.08451147749243,49.3333029666395]}},{"id":"258","type":"Feature","properties":{"intersection_id":"CNV-INT-0495","crash_count":1,"icbc_locations":"LARSON RD & W 27TH ST"},"geometry":{"type":"Point","coordinates":[-123.08448604926662,49.33427895307411]}},{"id":"259","type":"Feature","properties":{"intersection_id":"CNV-INT-0496","crash_count":30,"icbc_locations":"W 28TH ST & WESTVIEW CRES & WESTVIEW DR"},"geometry":{"type":"Point","coordinates":[-123.08812467818724,49.333866959343]}},{"id":"260","type":"Feature","properties":{"intersection_id":"CNV-INT-0498","crash_count":2,"icbc_locations":"WESTVIEW DR & WESTVIEW PL"},"geometry":{"type":"Point","coordinates":[-123.08811758083704,49.33446963611127]}},{"id":"261","type":"Feature","properties":{"intersection_id":"CNV-INT-0499","crash_count":5,"icbc_locations":"LARSON RD & W 28TH ST"},"geometry":{"type":"Point","coordinates":[-123.08447423066826,49.3351649793599]}}]}