{"type":"FeatureCollection","features":[{"id":"0","type":"Feature","properties":{"neighbourhood":"Moodyville","population_2021":3851.253854082882,"adult_population_18plus_proxy":3144.6056938881243,"senior_population_65plus":455.4220152381837,"population_density":1741.5777616962748,"adult_population_density":1422.0239831692954,"housing_density":693.8577615777274,"apartment_share":0.2806236391669029,"occupied_private_dwellings":1534.3686840941475,"building_count":1669,"methodology_note":"Areally interpolated from 2021 dissemination areas into CNV neighbourhood boundaries, assuming uniform distribution within each DA. Estimate, not a count."},"geometry":{"type":"Polygon","coordinates":[[[-123.05320813109869,49.303185848157696],[-123.0661951941562,49.30314933896719],[-123.06594710915515,49.31358282312853],[-123.05481027037264,49.313523339924785],[-123.0547862818229,49.31345967490137],[-123.03820477262424,49.313203516190505],[-123.03822185626638,49.31072516449666],[-123.03853702036247,49.30137011300998],[-123.03853753847882,49.296807910887686],[-123.05320813109869,49.303185848157696]]]}},{"id":"1","type":"Feature","properties":{"neighbourhood":"Lower Lonsdale","population_2021":18645.27198000501,"adult_population_18plus_proxy":16644.64857039797,"senior_population_65plus":3452.647005808763,"population_density":11134.055645176744,"adult_population_density":9939.379998101413,"housing_density":6167.757465700017,"apartment_share":0.9000007761848646,"occupied_private_dwellings":10328.627691428941,"building_count":1264,"methodology_note":"Areally interpolated from 2021 dissemination areas into CNV neighbourhood boundaries, assuming uniform distribution within each DA. Estimate, not a count."},"geometry":{"type":"Polygon","coordinates":[[[-123.08607221710463,49.31345859945868],[-123.08591879142345,49.31367654006673],[-123.08576033509642,49.31841491488526],[-123.0824434263546,49.316917413339254],[-123.08153905737248,49.31777114589924],[-123.08430455080442,49.31897352591686],[-123.08485183212714,49.319012681898606],[-123.08482297770969,49.32005205744193],[-123.08054000812754,49.320037838655104],[-123.07669524584561,49.31827797392978],[-123.07574011231681,49.31921660398067],[-123.0694471298261,49.31655196816841],[-123.07038412677248,49.31558193355678],[-123.06736234790635,49.314249462788844],[-123.06739625550212,49.31421867204577],[-123.06594710915515,49.31358282312853],[-123.0661951941562,49.30314933896719],[-123.07108140175364,49.30310257476216],[-123.08242070943771,49.30802360000614],[-123.08958113974894,49.31008547570574],[-123.08607221710463,49.31345859945868]]]}},{"id":"2","type":"Feature","properties":{"neighbourhood":"Squamish Nation (Mission IR 1)","population_2021":31.322341189664794,"adult_population_18plus_proxy":27.214878909113313,"senior_population_65plus":4.445835424340617,"population_density":5757.3184120928645,"adult_population_density":5002.331162844748,"housing_density":2846.200185921511,"apartment_share":0.8863693084124218,"occupied_private_dwellings":15.484579267019178,"building_count":281,"methodology_note":"Areally interpolated from 2021 dissemination areas into CNV neighbourhood boundaries, assuming uniform distribution within each DA. Estimate, not a count."},"geometry":{"type":"Polygon","coordinates":[[[-123.0857013623925,49.319012055077074],[-123.08485183212714,49.319012681898606],[-123.08430455080442,49.31897352591686],[-123.08153905737248,49.31777114589924],[-123.0824434263546,49.316917413339254],[-123.08576033509642,49.31841491488526],[-123.08591879142345,49.31367654006673],[-123.08607221710463,49.31345859945868],[-123.08958113974894,49.31008547570574],[-123.09165772336601,49.31068332127401],[-123.09152909747586,49.31905177303784],[-123.09007126959038,49.31905399687593],[-123.08960642079705,49.31911196879765],[-123.08569831756895,49.31908675594671],[-123.0857013623925,49.319012055077074]]]}},{"id":"3","type":"Feature","properties":{"neighbourhood":"Marine-Hamilton","population_2021":4883.414532734198,"adult_population_18plus_proxy":3956.3190292447916,"senior_population_65plus":498.2196057902664,"population_density":3038.8673340295463,"adult_population_density":2461.9512802735635,"housing_density":1178.9359392174574,"apartment_share":0.5828295751696067,"occupied_private_dwellings":1894.5324905326042,"building_count":872,"methodology_note":"Areally interpolated from 2021 dissemination areas into CNV neighbourhood boundaries, assuming uniform distribution within each DA. Estimate, not a count."},"geometry":{"type":"Polygon","coordinates":[[[-123.10208992256497,49.33103128499993],[-123.09113231328499,49.33102263274281],[-123.09112694852143,49.32811614719932],[-123.09260622229887,49.326493663885074],[-123.09360058423191,49.3244365689013],[-123.09453826757911,49.324416034918116],[-123.0945663970666,49.323308776227684],[-123.0880327482641,49.323313937415335],[-123.08793626593965,49.320091165275606],[-123.08482350511589,49.32003305352121],[-123.08485183212714,49.319012681898606],[-123.0857013623925,49.319012055077074],[-123.08569831756895,49.31908675594671],[-123.08960642079705,49.31911196879765],[-123.09007126959038,49.31905399687593],[-123.09152909747586,49.31905177303784],[-123.09165772336601,49.31068332127401],[-123.10259895028831,49.30894021980052],[-123.10259651495915,49.31631500134904],[-123.10226354864102,49.32392161608359],[-123.10208992256497,49.33103128499993]]]}},{"id":"4","type":"Feature","properties":{"neighbourhood":"Grand Boulevard","population_2021":4847.724172464689,"adult_population_18plus_proxy":3806.6212416248954,"senior_population_65plus":831.1799783814354,"population_density":2504.5744929832226,"adult_population_density":1966.689136394194,"housing_density":901.1069582782443,"apartment_share":0.03669720459752934,"occupied_private_dwellings":1744.1357786960568,"building_count":2501,"methodology_note":"Areally interpolated from 2021 dissemination areas into CNV neighbourhood boundaries, assuming uniform distribution within each DA. Estimate, not a count."},"geometry":{"type":"Polygon","coordinates":[[[-123.05481027037264,49.313523339924785],[-123.06316809366766,49.31356808034504],[-123.0629678038739,49.324073816566525],[-123.06603498296013,49.324126286446834],[-123.06583298175401,49.33212603383779],[-123.060392946377,49.33206958853696],[-123.05934850943898,49.33198481464116],[-123.05823860084737,49.331729436756405],[-123.05738978624713,49.33147391661038],[-123.0565082197789,49.33111176484559],[-123.05559391406837,49.330642978888164],[-123.05474486960674,49.33015282648796],[-123.05409143916236,49.32947061872476],[-123.0536665276805,49.328852286170005],[-123.05327349060012,49.32808344738739],[-123.0533015960414,49.32734882954898],[-123.05142478693664,49.32730878730968],[-123.04884308828272,49.326425774489095],[-123.04687987725003,49.32579913335889],[-123.0453646155448,49.325088623068],[-123.04421170054837,49.32400148248008],[-123.04318658319015,49.32263541381358],[-123.04163018650728,49.3206777806796],[-123.05467796080237,49.32073170272968],[-123.05481027037264,49.313523339924785]]]}},{"id":"5","type":"Feature","properties":{"neighbourhood":"Cedar Village","population_2021":813.495209159576,"adult_population_18plus_proxy":580.1770828116385,"senior_population_65plus":64.23664547294428,"population_density":3886.069710435286,"adult_population_density":2771.5081328287783,"housing_density":1293.6558215647572,"apartment_share":0.0,"occupied_private_dwellings":270.8090414122926,"building_count":135,"methodology_note":"Areally interpolated from 2021 dissemination areas into CNV neighbourhood boundaries, assuming uniform distribution within each DA. Estimate, not a count."},"geometry":{"type":"Polygon","coordinates":[[[-123.04163018650728,49.3206777806796],[-123.04318658319015,49.32263541381358],[-123.04421170054837,49.32400148248008],[-123.0453646155448,49.325088623068],[-123.04687987725003,49.32579913335889],[-123.04884308828272,49.326425774489095],[-123.05142478693664,49.32730878730968],[-123.04071288469771,49.327218171434616],[-123.04099632427643,49.320675123095846],[-123.04163018650728,49.3206777806796]]]}},{"id":"6","type":"Feature","properties":{"neighbourhood":"Central Lonsdale","population_2021":16874.355506881784,"adult_population_18plus_proxy":14529.138504466888,"senior_population_65plus":3535.5510125563046,"population_density":9190.549185001091,"adult_population_density":7913.236270655727,"housing_density":4604.385969047362,"apartment_share":0.7752526248606441,"occupied_private_dwellings":8453.906743614729,"building_count":1963,"methodology_note":"Areally interpolated from 2021 dissemination areas into CNV neighbourhood boundaries, assuming uniform distribution within each DA. Estimate, not a count."},"geometry":{"type":"Polygon","coordinates":[[[-123.0712318777213,49.334139462145465],[-123.07135692580474,49.33413938501394],[-123.0713779832153,49.33218330520121],[-123.06583298175401,49.33212603383779],[-123.06603498296013,49.324126286446834],[-123.0629678038739,49.324073816566525],[-123.06316809366766,49.31356808034504],[-123.06594710915515,49.31358282312853],[-123.06739625550212,49.31421867204577],[-123.06736234790635,49.314249462788844],[-123.07038412677248,49.31558193355678],[-123.0694471298261,49.31655196816841],[-123.07574011231681,49.31921660398067],[-123.07669524584561,49.31827797392978],[-123.08054000812754,49.320037838655104],[-123.08170853804104,49.320041733688456],[-123.0816698443268,49.322166308276586],[-123.07933974745146,49.32212928558942],[-123.07931691636259,49.32426669857377],[-123.0785207275901,49.324256624395886],[-123.0784011685039,49.32837802154197],[-123.07600070648563,49.3283548735232],[-123.07596598179882,49.33027610578146],[-123.07532759656316,49.33027217491308],[-123.07525395515574,49.33180566514346],[-123.07365597823292,49.331784556222125],[-123.07362713339721,49.33415595138222],[-123.0751864122864,49.33418642998961],[-123.07513755770536,49.335632276703414],[-123.0712091077248,49.33560438579622],[-123.0712318777213,49.334139462145465]]]}},{"id":"7","type":"Feature","properties":{"neighbourhood":"Mahon","population_2021":3460.6039146501353,"adult_population_18plus_proxy":2778.939596312635,"senior_population_65plus":548.0377293950772,"population_density":2869.760908857728,"adult_population_density":2304.479916876338,"housing_density":1074.7515643273555,"apartment_share":0.21600786021160687,"occupied_private_dwellings":1296.027644431194,"building_count":1465,"methodology_note":"Areally interpolated from 2021 dissemination areas into CNV neighbourhood boundaries, assuming uniform distribution within each DA. Estimate, not a count."},"geometry":{"type":"Polygon","coordinates":[[[-123.09111839514358,49.332028101769694],[-123.07525395515574,49.33180566514346],[-123.07532759656316,49.33027217491308],[-123.07596598179882,49.33027610578146],[-123.07600070648563,49.3283548735232],[-123.0784011685039,49.32837802154197],[-123.0785207275901,49.324256624395886],[-123.07931691636259,49.32426669857377],[-123.07933974745146,49.32212928558942],[-123.0816698443268,49.322166308276586],[-123.08170853804104,49.320041733688456],[-123.08482297770969,49.32005205744193],[-123.08482350511589,49.32003305352121],[-123.08793626593965,49.320091165275606],[-123.0880327482641,49.323313937415335],[-123.0945663970666,49.323308776227684],[-123.09453826757911,49.324416034918116],[-123.09360058423191,49.3244365689013],[-123.09260622229887,49.326493663885074],[-123.09112694852143,49.32811614719932],[-123.09113231328499,49.33102263274281],[-123.09132149479882,49.33102248342604],[-123.09131916111647,49.33105427902455],[-123.09112851501132,49.331054067550184],[-123.09111839514358,49.332028101769694]]]}},{"id":"8","type":"Feature","properties":{"neighbourhood":"Tempe","population_2021":2217.239483250821,"adult_population_18plus_proxy":1775.8500114852473,"senior_population_65plus":392.6986491062646,"population_density":3892.140967031434,"adult_population_density":3117.326131533209,"housing_density":1367.752274716444,"apartment_share":0.10480396145762197,"occupied_private_dwellings":779.1686818374508,"building_count":893,"methodology_note":"Areally interpolated from 2021 dissemination areas into CNV neighbourhood boundaries, assuming uniform distribution within each DA. Estimate, not a count."},"geometry":{"type":"Polygon","coordinates":[[[-123.0536665276805,49.328852286170005],[-123.05409143916236,49.32947061872476],[-123.05474486960674,49.33015282648796],[-123.05559391406837,49.330642978888164],[-123.0565082197789,49.33111176484559],[-123.05738978624713,49.33147391661038],[-123.05823860084737,49.331729436756405],[-123.05934850943898,49.33198481464116],[-123.060392946377,49.33206958853696],[-123.0713779832153,49.33218330520121],[-123.07135692580474,49.33413938501394],[-123.0712318777213,49.334139462145465],[-123.0712091077248,49.33560438579622],[-123.05300761934872,49.33554349406477],[-123.05327349060012,49.32808344738739],[-123.0536665276805,49.328852286170005]]]}},{"id":"9","type":"Feature","properties":{"neighbourhood":"Westview","population_2021":2373.6226626076004,"adult_population_18plus_proxy":1913.1976261239786,"senior_population_65plus":393.02233623731547,"population_density":4766.674754919666,"adult_population_density":3842.0558453881863,"housing_density":1886.96295259834,"apartment_share":0.3759617658170759,"occupied_private_dwellings":939.6357540790207,"building_count":791,"methodology_note":"Areally interpolated from 2021 dissemination areas into CNV neighbourhood boundaries, assuming uniform distribution within each DA. Estimate, not a count."},"geometry":{"type":"Polygon","coordinates":[[[-123.0748514218906,49.33563024972777],[-123.0749003242401,49.33418329699207],[-123.07334104562231,49.3341528145251],[-123.073369904199,49.33178141942866],[-123.09096147035243,49.33202688483736],[-123.090943547146,49.335641858776484],[-123.0748514218906,49.33563024972777]]]}}]}