{"type":"FeatureCollection","features":[{"id":"0","type":"Feature","properties":{"LOT_NAME":"Advanced Parking Parkade","ADDRESS":"1111 & 1113 Lonsdale Ave","Operator":"Advanced Parking","SPACES_WEEKDAY":75,"ACCESSIBLE_PARKING_SPACES":3,"PAY_PARKING":"Yes"},"geometry":{"type":"Point","coordinates":[-123.07319693135149,49.31833964892623]}},{"id":"1","type":"Feature","properties":{"LOT_NAME":"Canwest Lot","ADDRESS":"60 St. George's Ave","Operator":"Canwest","SPACES_WEEKDAY":52,"ACCESSIBLE_PARKING_SPACES":0,"PAY_PARKING":"Yes"},"geometry":{"type":"Point","coordinates":[-123.07609655619875,49.30990583872275]}},{"id":"2","type":"Feature","properties":{"LOT_NAME":"Centreview","ADDRESS":"138 E 13th St","Operator":"Centreview","SPACES_WEEKDAY":392,"ACCESSIBLE_PARKING_SPACES":10,"PAY_PARKING":"Yes"},"geometry":{"type":"Point","coordinates":[-123.07053202136467,49.320100326419855]}},{"id":"3","type":"Feature","properties":{"LOT_NAME":"Chadwick Court","ADDRESS":"168 Chadwick Court","Operator":"Impark","SPACES_WEEKDAY":122,"ACCESSIBLE_PARKING_SPACES":4,"PAY_PARKING":"Yes"},"geometry":{"type":"Point","coordinates":[-123.08295204487848,49.31148180077292]}},{"id":"4","type":"Feature","properties":{"LOT_NAME":"CNV Lot","ADDRESS":"114 E 1st St","Operator":"Passport","SPACES_WEEKDAY":46,"ACCESSIBLE_PARKING_SPACES":0,"PAY_PARKING":"Yes"},"geometry":{"type":"Point","coordinates":[-123.0778974534679,49.31169006807296]}},{"id":"5","type":"Feature","properties":{"LOT_NAME":"EasyPark Lot","ADDRESS":"137 E 15th St","Operator":"EasyPark","SPACES_WEEKDAY":18,"ACCESSIBLE_PARKING_SPACES":1,"PAY_PARKING":"Yes"},"geometry":{"type":"Point","coordinates":[-123.07056971167357,49.3215549907415]}},{"id":"6","type":"Feature","properties":{"LOT_NAME":"Esplanade Centre","ADDRESS":"150 W Esplanade","Operator":"Impark","SPACES_WEEKDAY":19,"ACCESSIBLE_PARKING_SPACES":1,"PAY_PARKING":"Yes"},"geometry":{"type":"Point","coordinates":[-123.08093250085967,49.31183438005929]}},{"id":"7","type":"Feature","properties":{"LOT_NAME":"Hope Centre","ADDRESS":"1337 St. Andrews Ave","Operator":"Impark","SPACES_WEEKDAY":55,"ACCESSIBLE_PARKING_SPACES":2,"PAY_PARKING":"Yes"},"geometry":{"type":"Point","coordinates":[-123.06632525950833,49.32062259806927]}},{"id":"8","type":"Feature","properties":{"LOT_NAME":"ICBC","ADDRESS":"151 W Esplanade","Operator":"Impark","SPACES_WEEKDAY":43,"ACCESSIBLE_PARKING_SPACES":6,"PAY_PARKING":"Yes"},"geometry":{"type":"Point","coordinates":[-123.0812354580888,49.31139418421806]}},{"id":"9","type":"Feature","properties":{"LOT_NAME":"Impark Lot","ADDRESS":"119 E 2nd St","Operator":"Impark","SPACES_WEEKDAY":12,"ACCESSIBLE_PARKING_SPACES":0,"PAY_PARKING":"Yes"},"geometry":{"type":"Point","coordinates":[-123.07748461506651,49.311999993934734]}},{"id":"10","type":"Feature","properties":{"LOT_NAME":"Indigo Parkade","ADDRESS":"1333 Lonsdale Ave","Operator":"Indigo","SPACES_WEEKDAY":14,"ACCESSIBLE_PARKING_SPACES":3,"PAY_PARKING":"Yes"},"geometry":{"type":"Point","coordinates":[-123.07299713395565,49.32059990197622]}},{"id":"11","type":"Feature","properties":{"LOT_NAME":"Lion's Gate Hospital","ADDRESS":"231 E 15th St","Operator":"Vancouver Coastal Health","SPACES_WEEKDAY":415,"ACCESSIBLE_PARKING_SPACES":25,"PAY_PARKING":"Yes"},"geometry":{"type":"Point","coordinates":[-123.0685929676095,49.32191764046011]}},{"id":"12","type":"Feature","properties":{"LOT_NAME":"Loblaws City Market","ADDRESS":"1650 Lonsdale Ave","Operator":"Impark","SPACES_WEEKDAY":121,"ACCESSIBLE_PARKING_SPACES":5,"PAY_PARKING":"Yes (45 mins free)"},"geometry":{"type":"Point","coordinates":[-123.07132050688325,49.323956809513916]}},{"id":"13","type":"Feature","properties":{"LOT_NAME":"Lonsdale Place","ADDRESS":"1200 Lonsdale Ave","Operator":"Impark","SPACES_WEEKDAY":23,"ACCESSIBLE_PARKING_SPACES":1,"PAY_PARKING":"Yes"},"geometry":{"type":"Point","coordinates":[-123.07190896941107,49.31904240862157]}},{"id":"14","type":"Feature","properties":{"LOT_NAME":"Lonsdale Quay Market","ADDRESS":"123 Carrie Cates Crt","Operator":"Westpark","SPACES_WEEKDAY":81,"ACCESSIBLE_PARKING_SPACES":4,"PAY_PARKING":"Yes"},"geometry":{"type":"Point","coordinates":[-123.081627876829,49.31091236059359]}},{"id":"15","type":"Feature","properties":{"LOT_NAME":"MONOVA","ADDRESS":"115 W Esplanade","Operator":"Impark","SPACES_WEEKDAY":54,"ACCESSIBLE_PARKING_SPACES":3,"PAY_PARKING":"Yes"},"geometry":{"type":"Point","coordinates":[-123.08100430268233,49.31125375527876]}},{"id":"16","type":"Feature","properties":{"LOT_NAME":"North Vancouver Library","ADDRESS":"120 W 14th St","Operator":"City of North Vancouver","SPACES_WEEKDAY":73,"ACCESSIBLE_PARKING_SPACES":2,"PAY_PARKING":"Yes"},"geometry":{"type":"Point","coordinates":[-123.07414691463772,49.32109906729759]}},{"id":"17","type":"Feature","properties":{"LOT_NAME":"Pinnacle Hotel","ADDRESS":"138 Victory Ship Way","Operator":"Pinnacle Parking","SPACES_WEEKDAY":230,"ACCESSIBLE_PARKING_SPACES":8,"PAY_PARKING":"Yes"},"geometry":{"type":"Point","coordinates":[-123.07865156885298,49.31031941629901]}},{"id":"18","type":"Feature","properties":{"LOT_NAME":"Sailor Hagar's","ADDRESS":"86 Semisch Ave","Operator":"Diamond","SPACES_WEEKDAY":21,"ACCESSIBLE_PARKING_SPACES":2,"PAY_PARKING":"Yes"},"geometry":{"type":"Point","coordinates":[-123.08353014758565,49.31353623696275]}},{"id":"19","type":"Feature","properties":{"LOT_NAME":"Shipyards","ADDRESS":"125 Victory Ship Way","Operator":"EasyPark","SPACES_WEEKDAY":112,"ACCESSIBLE_PARKING_SPACES":3,"PAY_PARKING":"Yes"},"geometry":{"type":"Point","coordinates":[-123.07858830683578,49.31018251654627]}},{"id":"20","type":"Feature","properties":{"LOT_NAME":"Time Market","ADDRESS":"150 W Esplanade","Operator":"Impark","SPACES_WEEKDAY":113,"ACCESSIBLE_PARKING_SPACES":8,"PAY_PARKING":"Yes"},"geometry":{"type":"Point","coordinates":[-123.08093250085967,49.31183438005929]}},{"id":"21","type":"Feature","properties":{"LOT_NAME":"Lonsdale Square","ADDRESS":"126 E 21st St","Operator":"Diamond","SPACES_WEEKDAY":9,"ACCESSIBLE_PARKING_SPACES":1,"PAY_PARKING":"Yes"},"geometry":{"type":"Point","coordinates":[-123.07082847839274,49.32838667823405]}},{"id":"22","type":"Feature","properties":{"LOT_NAME":"North Shore Hospice","ADDRESS":"319 E 14th St","Operator":"Impark","SPACES_WEEKDAY":19,"ACCESSIBLE_PARKING_SPACES":1,"PAY_PARKING":"Yes"},"geometry":{"type":"Point","coordinates":[-123.06538701383828,49.31998830778345]}},{"id":"23","type":"Feature","properties":{"LOT_NAME":"Millenium Central Lonsdale","ADDRESS":"135 E 13th St","Operator":"EasyPark","SPACES_WEEKDAY":76,"ACCESSIBLE_PARKING_SPACES":2,"PAY_PARKING":"Yes"},"geometry":{"type":"Point","coordinates":[-123.0701874178697,49.319475322517064]}},{"id":"24","type":"Feature","properties":{"LOT_NAME":"St. George","ADDRESS":"1215 St. Georges Ave","Operator":"EasyPark","SPACES_WEEKDAY":8,"ACCESSIBLE_PARKING_SPACES":0,"PAY_PARKING":"Yes"},"geometry":{"type":"Point","coordinates":[-123.06949052997506,49.319404612487276]}},{"id":"25","type":"Feature","properties":{"LOT_NAME":"Wallace & McDowell","ADDRESS":"149 Lonsdale Ave","Operator":"Impark","SPACES_WEEKDAY":11,"ACCESSIBLE_PARKING_SPACES":2,"PAY_PARKING":"Yes"},"geometry":{"type":"Point","coordinates":[-123.0788239585454,49.312580293614495]}},{"id":"26","type":"Feature","properties":{"LOT_NAME":"Impark Lot","ADDRESS":"123 W 1st St","Operator":"Impark","SPACES_WEEKDAY":7,"ACCESSIBLE_PARKING_SPACES":2,"PAY_PARKING":"Yes"},"geometry":{"type":"Point","coordinates":[-123.07962334475891,49.311919652047806]}},{"id":"27","type":"Feature","properties":{"LOT_NAME":"Urgent and Primary Care Centre","ADDRESS":"221 W Esplanade","Operator":"Impark","SPACES_WEEKDAY":26,"ACCESSIBLE_PARKING_SPACES":1,"PAY_PARKING":"Yes"},"geometry":{"type":"Point","coordinates":[-123.08318093968963,49.31207334353434]}}]}