{"type":"FeatureCollection","features":[{"id":"0","type":"Feature","properties":{"recommendation_rank":1,"street_names":"E 15TH ST / LONSDALE AVE / W 15TH ST","neighbourhood":"Central Lonsdale","public_space_composite":90.32,"headline":"transit hub, high footfall, signalised, easy parking","reason_text":"Very high transit activity: 1,033 scheduled weekday bus departures within 250 m across 7 stops \u2014 a steady stream of people on foot. Dense residential catchment: about 7,876 residents live within a 5-minute walk (400 m). Commercial frontage nearby (11.6 ha of commercial/mixed land use within 250 m), so there is footfall beyond residents. Full traffic signal: pedestrians and drivers actually stop here, which creates dwell time rather than passing traffic. Prominent junction with 4 approaches \u2014 visible from several directions at once. 682 on-street parking spaces within 250 m for loading in and out. CAUTION: 104 recorded collisions here \u2014 one of the higher-collision junctions in the city. Stand well back from the kerb.","transit_departures_250m":1033.0,"population_2021_400m":7875.7,"onstreet_supply_250m":682.0,"full_signal":true,"collision_count":104.0},"geometry":{"type":"Point","coordinates":[-123.07234654065505,49.32206284290425]}},{"id":"1","type":"Feature","properties":{"recommendation_rank":2,"street_names":"E 3RD ST / LONSDALE AVE / W 3RD ST","neighbourhood":"Lower Lonsdale","public_space_composite":88.31,"headline":"transit hub, high footfall, signalised","reason_text":"Very high transit activity: 1,109 scheduled weekday bus departures within 250 m across 10 stops \u2014 a steady stream of people on foot. Dense residential catchment: about 8,413 residents live within a 5-minute walk (400 m). Commercial frontage nearby (8.4 ha of commercial/mixed land use within 250 m), so there is footfall beyond residents. Full traffic signal: pedestrians and drivers actually stop here, which creates dwell time rather than passing traffic. Prominent junction with 4 approaches \u2014 visible from several directions at once. 609 on-street parking spaces within 250 m for loading in and out. CAUTION: 102 recorded collisions here \u2014 one of the higher-collision junctions in the city. Stand well back from the kerb.","transit_departures_250m":1109.0,"population_2021_400m":8413.4,"onstreet_supply_250m":609.0,"full_signal":true,"collision_count":102.0},"geometry":{"type":"Point","coordinates":[-123.07705566782387,49.31345146923315]}},{"id":"2","type":"Feature","properties":{"recommendation_rank":3,"street_names":"E 13TH ST / LONSDALE AVE / W 13TH ST","neighbourhood":"Central Lonsdale","public_space_composite":87.91,"headline":"transit hub, high footfall, signalised, easy parking","reason_text":"Very high transit activity: 807 scheduled weekday bus departures within 250 m across 5 stops \u2014 a steady stream of people on foot. Dense residential catchment: about 7,706 residents live within a 5-minute walk (400 m). Commercial frontage nearby (9.2 ha of commercial/mixed land use within 250 m), so there is footfall beyond residents. Full traffic signal: pedestrians and drivers actually stop here, which creates dwell time rather than passing traffic. Prominent junction with 4 approaches \u2014 visible from several directions at once. 674 on-street parking spaces within 250 m for loading in and out. CAUTION: 85 recorded collisions here \u2014 one of the higher-collision junctions in the city. Stand well back from the kerb.","transit_departures_250m":807.0,"population_2021_400m":7705.5,"onstreet_supply_250m":674.0,"full_signal":true,"collision_count":85.0},"geometry":{"type":"Point","coordinates":[-123.07238950190917,49.31998044779685]}},{"id":"3","type":"Feature","properties":{"recommendation_rank":4,"street_names":"E 12TH ST / LONSDALE AVE / W 12TH ST","neighbourhood":"Central Lonsdale","public_space_composite":86.37,"headline":"high footfall, signalised, easy parking","reason_text":"Good transit activity: 715 weekday departures within 250 m. Dense residential catchment: about 7,443 residents live within a 5-minute walk (400 m). Commercial frontage nearby (5.6 ha of commercial/mixed land use within 250 m), so there is footfall beyond residents. Full traffic signal: pedestrians and drivers actually stop here, which creates dwell time rather than passing traffic. Prominent junction with 4 approaches \u2014 visible from several directions at once. 629 on-street parking spaces within 250 m for loading in and out.","transit_departures_250m":715.0,"population_2021_400m":7442.7,"onstreet_supply_250m":629.0,"full_signal":true,"collision_count":22.0},"geometry":{"type":"Point","coordinates":[-123.07243441256787,49.3189369851434]}},{"id":"4","type":"Feature","properties":{"recommendation_rank":5,"street_names":"E 4TH ST / LONSDALE AVE / W 4TH ST","neighbourhood":"Lower Lonsdale","public_space_composite":85.9,"headline":"transit hub, high footfall, signalised","reason_text":"Very high transit activity: 952 scheduled weekday bus departures within 250 m across 9 stops \u2014 a steady stream of people on foot. Dense residential catchment: about 8,388 residents live within a 5-minute walk (400 m). Commercial frontage nearby (4.8 ha of commercial/mixed land use within 250 m), so there is footfall beyond residents. Full traffic signal: pedestrians and drivers actually stop here, which creates dwell time rather than passing traffic. Prominent junction with 4 approaches \u2014 visible from several directions at once. 593 on-street parking spaces within 250 m for loading in and out.","transit_departures_250m":952.0,"population_2021_400m":8387.8,"onstreet_supply_250m":593.0,"full_signal":true,"collision_count":25.0},"geometry":{"type":"Point","coordinates":[-123.07628208858154,49.314225563276715]}},{"id":"5","type":"Feature","properties":{"recommendation_rank":6,"street_names":"E 17TH ST / LONSDALE AVE / W 17TH ST","neighbourhood":"Central Lonsdale","public_space_composite":85.75,"headline":"transit hub, high footfall, signalised","reason_text":"Very high transit activity: 854 scheduled weekday bus departures within 250 m across 6 stops \u2014 a steady stream of people on foot. Dense residential catchment: about 6,652 residents live within a 5-minute walk (400 m). Commercial frontage nearby (6.3 ha of commercial/mixed land use within 250 m), so there is footfall beyond residents. Full traffic signal: pedestrians and drivers actually stop here, which creates dwell time rather than passing traffic. Prominent junction with 4 approaches \u2014 visible from several directions at once. 727 on-street spaces within 250 m, but they hit 88% occupancy at peak \u2014 arrive early or use a lot. CAUTION: 74 recorded collisions here \u2014 one of the higher-collision junctions in the city. Stand well back from the kerb.","transit_departures_250m":854.0,"population_2021_400m":6651.7,"onstreet_supply_250m":727.0,"full_signal":true,"collision_count":74.0},"geometry":{"type":"Point","coordinates":[-123.07228508461436,49.324145249708934]}},{"id":"6","type":"Feature","properties":{"recommendation_rank":7,"street_names":"E 2ND ST / LONSDALE AVE / W 2ND ST","neighbourhood":"Lower Lonsdale","public_space_composite":84.84,"headline":"transit hub, high footfall, signalised","reason_text":"Very high transit activity: 957 scheduled weekday bus departures within 250 m across 9 stops \u2014 a steady stream of people on foot. Dense residential catchment: about 7,986 residents live within a 5-minute walk (400 m). Commercial frontage nearby (11.9 ha of commercial/mixed land use within 250 m), so there is footfall beyond residents. Full traffic signal: pedestrians and drivers actually stop here, which creates dwell time rather than passing traffic. Prominent junction with 4 approaches \u2014 visible from several directions at once. 522 on-street spaces within 250 m, but they hit 86% occupancy at peak \u2014 arrive early or use a lot.","transit_departures_250m":957.0,"population_2021_400m":7986.4,"onstreet_supply_250m":522.0,"full_signal":true,"collision_count":31.0},"geometry":{"type":"Point","coordinates":[-123.07784381262645,49.31265936983709]}},{"id":"7","type":"Feature","properties":{"recommendation_rank":8,"street_names":"E 11TH ST / LONSDALE AVE / W 8TH ST","neighbourhood":"Lower Lonsdale","public_space_composite":84.64,"headline":"high footfall, signalised, easy parking","reason_text":"Good transit activity: 597 weekday departures within 250 m. Dense residential catchment: about 7,261 residents live within a 5-minute walk (400 m). Full traffic signal: pedestrians and drivers actually stop here, which creates dwell time rather than passing traffic. Prominent junction with 4 approaches \u2014 visible from several directions at once. 564 on-street parking spaces within 250 m for loading in and out.","transit_departures_250m":597.0,"population_2021_400m":7260.9,"onstreet_supply_250m":564.0,"full_signal":true,"collision_count":16.0},"geometry":{"type":"Point","coordinates":[-123.07253856762037,49.31783052017456]}},{"id":"8","type":"Feature","properties":{"recommendation_rank":9,"street_names":"CHESTERFIELD AVE / W ESPLANADE","neighbourhood":"Lower Lonsdale","public_space_composite":83.77,"headline":"transit hub, high footfall, signalised","reason_text":"Very high transit activity: 1,080 scheduled weekday bus departures within 250 m across 16 stops \u2014 a steady stream of people on foot. Dense residential catchment: about 6,033 residents live within a 5-minute walk (400 m). Commercial frontage nearby (11.1 ha of commercial/mixed land use within 250 m), so there is footfall beyond residents. Full traffic signal: pedestrians and drivers actually stop here, which creates dwell time rather than passing traffic. Prominent junction with 4 approaches \u2014 visible from several directions at once. 197 on-street parking spaces within 250 m for loading in and out.","transit_departures_250m":1080.0,"population_2021_400m":6033.2,"onstreet_supply_250m":197.0,"full_signal":true,"collision_count":27.0},"geometry":{"type":"Point","coordinates":[-123.08259943932559,49.312399708544305]}},{"id":"9","type":"Feature","properties":{"recommendation_rank":10,"street_names":"E 21ST ST / LONSDALE AVE / W 21ST ST","neighbourhood":"Central Lonsdale","public_space_composite":83.47,"headline":"transit hub, signalised","reason_text":"Very high transit activity: 759 scheduled weekday bus departures within 250 m across 5 stops \u2014 a steady stream of people on foot. Solid residential catchment: about 3,518 residents within 400 m. Commercial frontage nearby (5.4 ha of commercial/mixed land use within 250 m), so there is footfall beyond residents. Full traffic signal: pedestrians and drivers actually stop here, which creates dwell time rather than passing traffic. Prominent junction with 4 approaches \u2014 visible from several directions at once. 671 on-street parking spaces within 250 m for loading in and out. CAUTION: 76 recorded collisions here \u2014 one of the higher-collision junctions in the city. Stand well back from the kerb.","transit_departures_250m":759.0,"population_2021_400m":3517.7,"onstreet_supply_250m":671.0,"full_signal":true,"collision_count":76.0},"geometry":{"type":"Point","coordinates":[-123.07219612124851,49.32830104555076]}},{"id":"10","type":"Feature","properties":{"recommendation_rank":11,"street_names":"E ESPLANADE / LONSDALE AVE / W ESPLANADE","neighbourhood":"Lower Lonsdale","public_space_composite":83.43,"headline":"transit hub, high footfall, signalised","reason_text":"Very high transit activity: 1,103 scheduled weekday bus departures within 250 m across 11 stops \u2014 a steady stream of people on foot. Solid residential catchment: about 5,777 residents within 400 m. Commercial frontage nearby (15.4 ha of commercial/mixed land use within 250 m), so there is footfall beyond residents. Full traffic signal: pedestrians and drivers actually stop here, which creates dwell time rather than passing traffic. Prominent junction with 4 approaches \u2014 visible from several directions at once. 214 on-street spaces within 250 m, but they hit 93% occupancy at peak \u2014 arrive early or use a lot. CAUTION: 46 recorded collisions here \u2014 one of the higher-collision junctions in the city. Stand well back from the kerb.","transit_departures_250m":1103.0,"population_2021_400m":5776.7,"onstreet_supply_250m":214.0,"full_signal":true,"collision_count":46.0},"geometry":{"type":"Point","coordinates":[-123.07946767975398,49.311049713329]}},{"id":"11","type":"Feature","properties":{"recommendation_rank":12,"street_names":"E 14TH ST / LONSDALE AVE","neighbourhood":"Central Lonsdale","public_space_composite":83.2,"headline":"transit hub, high footfall, signalised, easy parking","reason_text":"Very high transit activity: 1,072 scheduled weekday bus departures within 250 m across 7 stops \u2014 a steady stream of people on foot. Dense residential catchment: about 7,971 residents live within a 5-minute walk (400 m). Commercial frontage nearby (11.5 ha of commercial/mixed land use within 250 m), so there is footfall beyond residents. Full traffic signal: pedestrians and drivers actually stop here, which creates dwell time rather than passing traffic. 703 on-street parking spaces within 250 m for loading in and out. CAUTION: 53 recorded collisions here \u2014 one of the higher-collision junctions in the city. Stand well back from the kerb.","transit_departures_250m":1072.0,"population_2021_400m":7971.2,"onstreet_supply_250m":703.0,"full_signal":true,"collision_count":53.0},"geometry":{"type":"Point","coordinates":[-123.07236825945405,49.32103738629911]}},{"id":"12","type":"Feature","properties":{"recommendation_rank":13,"street_names":"CHESTERFIELD AVE / W 13TH ST","neighbourhood":"Central Lonsdale","public_space_composite":83.1,"headline":"high footfall, signalised, easy parking","reason_text":"Good transit activity: 586 weekday departures within 250 m. Dense residential catchment: about 6,822 residents live within a 5-minute walk (400 m). Commercial frontage nearby (3.8 ha of commercial/mixed land use within 250 m), so there is footfall beyond residents. Full traffic signal: pedestrians and drivers actually stop here, which creates dwell time rather than passing traffic. Prominent junction with 4 approaches \u2014 visible from several directions at once. 699 on-street parking spaces within 250 m for loading in and out. CAUTION: 52 recorded collisions here \u2014 one of the higher-collision junctions in the city. Stand well back from the kerb.","transit_departures_250m":586.0,"population_2021_400m":6822.5,"onstreet_supply_250m":699.0,"full_signal":true,"collision_count":52.0},"geometry":{"type":"Point","coordinates":[-123.0755341983998,49.320005420723454]}},{"id":"13","type":"Feature","properties":{"recommendation_rank":14,"street_names":"E 1ST ST / LONSDALE AVE / W 1ST ST","neighbourhood":"Lower Lonsdale","public_space_composite":82.93,"headline":"transit hub, high footfall, signalised","reason_text":"Very high transit activity: 954 scheduled weekday bus departures within 250 m across 8 stops \u2014 a steady stream of people on foot. Dense residential catchment: about 7,049 residents live within a 5-minute walk (400 m). Commercial frontage nearby (14.0 ha of commercial/mixed land use within 250 m), so there is footfall beyond residents. Full traffic signal: pedestrians and drivers actually stop here, which creates dwell time rather than passing traffic. Prominent junction with 4 approaches \u2014 visible from several directions at once. 369 on-street spaces within 250 m, but they hit 88% occupancy at peak \u2014 arrive early or use a lot. CAUTION: 42 recorded collisions here \u2014 one of the higher-collision junctions in the city. Stand well back from the kerb.","transit_departures_250m":954.0,"population_2021_400m":7049.3,"onstreet_supply_250m":369.0,"full_signal":true,"collision_count":42.0},"geometry":{"type":"Point","coordinates":[-123.07863280635767,49.31187625950454]}},{"id":"14","type":"Feature","properties":{"recommendation_rank":15,"street_names":"LONSDALE AVE / W 16TH ST","neighbourhood":"Central Lonsdale","public_space_composite":81.87,"headline":"transit hub, high footfall, signalised","reason_text":"Very high transit activity: 1,001 scheduled weekday bus departures within 250 m across 7 stops \u2014 a steady stream of people on foot. Dense residential catchment: about 7,453 residents live within a 5-minute walk (400 m). Commercial frontage nearby (8.9 ha of commercial/mixed land use within 250 m), so there is footfall beyond residents. Full traffic signal: pedestrians and drivers actually stop here, which creates dwell time rather than passing traffic. 730 on-street parking spaces within 250 m for loading in and out. CAUTION: 56 recorded collisions here \u2014 one of the higher-collision junctions in the city. Stand well back from the kerb.","transit_departures_250m":1001.0,"population_2021_400m":7452.8,"onstreet_supply_250m":730.0,"full_signal":true,"collision_count":56.0},"geometry":{"type":"Point","coordinates":[-123.07234806928288,49.32310627499584]}},{"id":"15","type":"Feature","properties":{"recommendation_rank":16,"street_names":"E 19TH ST / LONSDALE AVE / W 19TH ST","neighbourhood":"Central Lonsdale","public_space_composite":81.36,"headline":"signalised","reason_text":"Good transit activity: 602 weekday departures within 250 m. Solid residential catchment: about 4,901 residents within 400 m. Commercial frontage nearby (3.4 ha of commercial/mixed land use within 250 m), so there is footfall beyond residents. Full traffic signal: pedestrians and drivers actually stop here, which creates dwell time rather than passing traffic. Prominent junction with 4 approaches \u2014 visible from several directions at once. 737 on-street spaces within 250 m, but they hit 87% occupancy at peak \u2014 arrive early or use a lot. CAUTION: 59 recorded collisions here \u2014 one of the higher-collision junctions in the city. Stand well back from the kerb.","transit_departures_250m":602.0,"population_2021_400m":4901.2,"onstreet_supply_250m":737.0,"full_signal":true,"collision_count":59.0},"geometry":{"type":"Point","coordinates":[-123.07224988299068,49.32624562953066]}},{"id":"16","type":"Feature","properties":{"recommendation_rank":17,"street_names":"E KEITH RD / LONSDALE AVE / W KEITH RD","neighbourhood":"Lower Lonsdale","public_space_composite":81.27,"headline":"signalised","reason_text":"Good transit activity: 560 weekday departures within 250 m. Dense residential catchment: about 7,362 residents live within a 5-minute walk (400 m). Full traffic signal: pedestrians and drivers actually stop here, which creates dwell time rather than passing traffic. Prominent junction with 4 approaches \u2014 visible from several directions at once. 559 on-street parking spaces within 250 m for loading in and out. CAUTION: 41 recorded collisions here \u2014 one of the higher-collision junctions in the city. Stand well back from the kerb.","transit_departures_250m":560.0,"population_2021_400m":7361.6,"onstreet_supply_250m":559.0,"full_signal":true,"collision_count":41.0},"geometry":{"type":"Point","coordinates":[-123.07398084974413,49.31645785088901]}},{"id":"17","type":"Feature","properties":{"recommendation_rank":18,"street_names":"E 18TH ST / LONSDALE AVE / W 18TH ST","neighbourhood":"Central Lonsdale","public_space_composite":81.06,"headline":"signalised","reason_text":"Good transit activity: 602 weekday departures within 250 m. Solid residential catchment: about 5,783 residents within 400 m. Commercial frontage nearby (4.6 ha of commercial/mixed land use within 250 m), so there is footfall beyond residents. Full traffic signal: pedestrians and drivers actually stop here, which creates dwell time rather than passing traffic. Prominent junction with 4 approaches \u2014 visible from several directions at once. 708 on-street spaces within 250 m, but they hit 90% occupancy at peak \u2014 arrive early or use a lot. CAUTION: 46 recorded collisions here \u2014 one of the higher-collision junctions in the city. Stand well back from the kerb.","transit_departures_250m":602.0,"population_2021_400m":5783.1,"onstreet_supply_250m":708.0,"full_signal":true,"collision_count":46.0},"geometry":{"type":"Point","coordinates":[-123.07227930044307,49.32518868599667]}},{"id":"18","type":"Feature","properties":{"recommendation_rank":19,"street_names":"E 5TH ST / LONSDALE AVE / W 5TH ST","neighbourhood":"Lower Lonsdale","public_space_composite":80.86,"headline":"transit hub, signalised","reason_text":"Good transit activity: 682 weekday departures within 250 m. Dense residential catchment: about 8,008 residents live within a 5-minute walk (400 m). Full traffic signal: pedestrians and drivers actually stop here, which creates dwell time rather than passing traffic. Prominent junction with 4 approaches \u2014 visible from several directions at once. 597 on-street parking spaces within 250 m for loading in and out.","transit_departures_250m":682.0,"population_2021_400m":8007.5,"onstreet_supply_250m":597.0,"full_signal":true,"collision_count":15.0},"geometry":{"type":"Point","coordinates":[-123.07537145027385,49.31508069761855]}},{"id":"19","type":"Feature","properties":{"recommendation_rank":20,"street_names":"E 20TH ST / LONSDALE AVE / W 20TH ST","neighbourhood":"Central Lonsdale","public_space_composite":80.48,"headline":"signalised","reason_text":"Good transit activity: 602 weekday departures within 250 m. Solid residential catchment: about 4,145 residents within 400 m. Commercial frontage nearby (4.2 ha of commercial/mixed land use within 250 m), so there is footfall beyond residents. Full traffic signal: pedestrians and drivers actually stop here, which creates dwell time rather than passing traffic. Prominent junction with 4 approaches \u2014 visible from several directions at once. 690 on-street spaces within 250 m, but they hit 85% occupancy at peak \u2014 arrive early or use a lot. CAUTION: 65 recorded collisions here \u2014 one of the higher-collision junctions in the city. Stand well back from the kerb.","transit_departures_250m":602.0,"population_2021_400m":4145.4,"onstreet_supply_250m":690.0,"full_signal":true,"collision_count":65.0},"geometry":{"type":"Point","coordinates":[-123.07221353051597,49.32726659677529]}}]}