{"type":"FeatureCollection","features":[{"id":"0","type":"Feature","properties":{"ADMIN_AREA_NAME":"City of North Vancouver"},"geometry":{"type":"Polygon","coordinates":[[[-123.10259927949565,49.30790412533475],[-123.03853763152905,49.295988707465504],[-123.03853702036247,49.30137011300998],[-123.0383985537155,49.30549313535998],[-123.03839165509076,49.305787191817515],[-123.03831247532533,49.30816904081287],[-123.03828939421946,49.30881134250245],[-123.03827282417082,49.30916669647121],[-123.03813837928416,49.31327746540988],[-123.05197114226719,49.313429032484706],[-123.0547862818229,49.31345967490137],[-123.05467662565052,49.3207188947183],[-123.04100291374318,49.32051689694641],[-123.04098680439799,49.320903712448654],[-123.04090679820075,49.32273838233151],[-123.04089570653231,49.32291999272506],[-123.04086822899538,49.323590053292776],[-123.04086308766442,49.32372889916305],[-123.04085820178936,49.323890233408726],[-123.04076796561735,49.326040195157326],[-123.04072064538552,49.32705013988509],[-123.04071288469771,49.327218171434616],[-123.04228558774282,49.32722329374188],[-123.04316121279845,49.327230321877714],[-123.04942562427583,49.3272772454223],[-123.05027163920397,49.32728416943753],[-123.0533015960414,49.32734882954898],[-123.05321884762083,49.32951163913257],[-123.0531901037574,49.33033538538042],[-123.0531902314716,49.33033943292578],[-123.05318927514426,49.33035943802112],[-123.05316433181116,49.33108753546232],[-123.05315780736571,49.331254956296945],[-123.05315348057322,49.331405351098844],[-123.05309155022643,49.33320841717804],[-123.05307458650833,49.33368607058171],[-123.05306625994102,49.33391380504649],[-123.05306244190751,49.334035868820216],[-123.05305828587804,49.334143566563284],[-123.05305040479413,49.334362783612214],[-123.05304527357522,49.33447456180042],[-123.0530350469131,49.334795725390016],[-123.05302767923047,49.33499982126854],[-123.0530152503513,49.33534717745739],[-123.05300761934872,49.33554349406477],[-123.05757448919448,49.33555641483818],[-123.06884321701096,49.335587524192846],[-123.07729768573215,49.335647556107084],[-123.0784605564856,49.33564935948755],[-123.07949911197365,49.335647199738524],[-123.0799435369255,49.335647139994535],[-123.08824917554293,49.33564568803149],[-123.08947178351761,49.33564568042225],[-123.09095190580082,49.335641837018514],[-123.09108080638627,49.33564569250405],[-123.09112851501132,49.331054067550184],[-123.09660760716808,49.3310600198907],[-123.09949789337522,49.331033123694525],[-123.10047470619438,49.331027837453625],[-123.10059899472853,49.33102786912247],[-123.10208992256497,49.33103128499993],[-123.10226058405605,49.324160771190485],[-123.10226354864102,49.32392161608359],[-123.10227610927497,49.323702845389455],[-123.1022772510057,49.32365791749354],[-123.10243168153218,49.320115472407586],[-123.10252577286006,49.318008379862164],[-123.10255331356451,49.317380826750686],[-123.10255397942272,49.3172179847659],[-123.10256329779955,49.31699067935377],[-123.10259651495915,49.31631500134904],[-123.10259661866779,49.31628015430639],[-123.10259927949565,49.30790412533475]]]}}]}