{"type":"FeatureCollection","features":[{"id":"0","type":"Feature","properties":{"ah_name":"Manor House","BUILDING_NAME":" ","ah_address":"145 W 5th St","ah_total_units":50.0,"ah_eligibility":"Families, 55+, People with disabilities","classification_basis":"affordable-housing eligibility 'Families, 55+, People with disabilities'"},"geometry":{"type":"Polygon","coordinates":[[[-123.07729619159132,49.315742465935216],[-123.0774680636975,49.315817064352196],[-123.07770568747385,49.31558306760165],[-123.07765740144954,49.315562114433305],[-123.07767032870821,49.31554937764637],[-123.07714473378728,49.3153212535298],[-123.0771337434929,49.31533208199943],[-123.07708511374305,49.31531097590347],[-123.07684505668895,49.31554735671454],[-123.07701632161539,49.315621686355584],[-123.07710710212791,49.31553229525265],[-123.07738647725284,49.31565356068232],[-123.07729619159132,49.315742465935216]]]}},{"id":"1","type":"Feature","properties":{"ah_name":"Margaret Heights","BUILDING_NAME":" ","ah_address":"1800 Rufus Dr","ah_total_units":19.0,"ah_eligibility":"Families, 55+ ","classification_basis":"affordable-housing eligibility 'Families, 55+'"},"geometry":{"type":"Polygon","coordinates":[[[-123.04332626401647,49.324440029828885],[-123.04339381907025,49.32440829672625],[-123.04341497370432,49.32442753831497],[-123.04346435721315,49.32440433935867],[-123.0434596883024,49.32440007743272],[-123.04348649843783,49.32438748319106],[-123.04349531287272,49.3243954945164],[-123.04356681567764,49.32436190683421],[-123.04352401055326,49.32432297413926],[-123.04349941514633,49.32433452412361],[-123.04346736644395,49.324305374037415],[-123.04341252197067,49.324331138652795],[-123.04340527762162,49.32432454795865],[-123.04334296366386,49.32435381444326],[-123.043350690041,49.324360836725695],[-123.04327716497396,49.32439536951784],[-123.04332626401647,49.324440029828885]]]}},{"id":"2","type":"Feature","properties":{"ah_name":"Kiwanis St Andrews Place","BUILDING_NAME":" ","ah_address":"1480 St. Andrews Ave","ah_total_units":27.0,"ah_eligibility":"55+","classification_basis":"affordable-housing eligibility '55+'"},"geometry":{"type":"Polygon","coordinates":[[[-123.06556818330672,49.32186166359852],[-123.06565871769565,49.321863105390705],[-123.06565800039542,49.3218824992627],[-123.06578085970155,49.321884453302985],[-123.06578157761255,49.321865554161086],[-123.06587402481621,49.32186703067637],[-123.06588165134536,49.32166299916296],[-123.06578464960423,49.321661444290214],[-123.06578524719862,49.321645198774625],[-123.06566691585944,49.32164330513228],[-123.06566621168038,49.32166221326148],[-123.0655756914203,49.321660771467165],[-123.06556818330672,49.32186166359852]]]}},{"id":"3","type":"Feature","properties":{"ah_name":"Kiwanis Towers","BUILDING_NAME":" ","ah_address":"170 W 2nd St","ah_total_units":99.0,"ah_eligibility":"55+","classification_basis":"affordable-housing eligibility '55+'"},"geometry":{"type":"Polygon","coordinates":[[[-123.08029556942384,49.31414234715701],[-123.08042260853516,49.314018809714995],[-123.08039149174607,49.31400513178677],[-123.0804000360961,49.313996823341576],[-123.0803859509428,49.31399063549741],[-123.08039279191647,49.31398398334074],[-123.08022655152892,49.31391091451207],[-123.08021862532277,49.313918619842035],[-123.0802039481713,49.313912171527846],[-123.08019560987522,49.31392029091803],[-123.080162606926,49.31390577769001],[-123.08003713346055,49.31402778459288],[-123.08007287637618,49.314043501304994],[-123.08006396104847,49.31405216079282],[-123.08007490696431,49.31405696560185],[-123.08006791482599,49.31406376176636],[-123.08023502291752,49.31413721700934],[-123.08024305905005,49.3141294036607],[-123.08025746090807,49.314135735224234],[-123.08026464534476,49.314128750017154],[-123.08029556942384,49.31414234715701]]]}},{"id":"4","type":"Feature","properties":{"ah_name":"St Andrews Place","BUILDING_NAME":" ","ah_address":"95 St. Andrews Ave","ah_total_units":15.0,"ah_eligibility":"Families, 55+, People with disabilities","classification_basis":"affordable-housing eligibility 'Families, 55+, People with disabilities'"},"geometry":{"type":"Polygon","coordinates":[[[-123.07309002798642,49.30908410302645],[-123.0730563010208,49.30906945328871],[-123.07304759159832,49.309078031156375],[-123.07301145558904,49.30906233949268],[-123.07295220664382,49.3091206653742],[-123.07295563440746,49.30912215640256],[-123.07293945184094,49.309138079008285],[-123.07293211450283,49.3091348903665],[-123.07289778491197,49.30916867975696],[-123.07295105977614,49.30919180860908],[-123.07293854504313,49.309204112855525],[-123.07297326322856,49.309219193767845],[-123.07296407295077,49.30922823967951],[-123.0730017371101,49.309244596032165],[-123.07299855005508,49.309247737346844],[-123.07308739683066,49.30928632428601],[-123.0730896360254,49.30928412805737],[-123.07312808494169,49.309300825687465],[-123.07315542217401,49.3092739129376],[-123.07317859064315,49.30928397281893],[-123.07329236263223,49.309171965282175],[-123.07309002798642,49.30908410302645]]]}},{"id":"5","type":"Feature","properties":{"ah_name":"ANAVETS","BUILDING_NAME":" ","ah_address":"245 E 3rd St","ah_total_units":76.0,"ah_eligibility":"55+","classification_basis":"affordable-housing eligibility '55+'"},"geometry":{"type":"Polygon","coordinates":[[[-123.07270819330951,49.31137326311649],[-123.07283187267143,49.311426409424826],[-123.07285655942789,49.311401846155036],[-123.07287043620043,49.31140781017249],[-123.07300977787533,49.31126919722614],[-123.0727237495606,49.31114627920794],[-123.07271817203818,49.311151823717836],[-123.07268469179508,49.31113743458024],[-123.07270255082528,49.311119657964355],[-123.07271769401403,49.31112616091158],[-123.07276197062771,49.31108210188033],[-123.07255121912743,49.31099154546903],[-123.07252524107972,49.31101739578939],[-123.07251373229047,49.31101244669411],[-123.07244721404335,49.31107862061112],[-123.07243061165399,49.3110714888838],[-123.07231331818039,49.31118817520542],[-123.07234792720436,49.31120304948086],[-123.07234158031355,49.31120935904024],[-123.07243963932187,49.31125149377436],[-123.0724461235599,49.31124503120633],[-123.07248797386464,49.311263013215296],[-123.07248025321685,49.31127069989876],[-123.07271142167447,49.31137004082885],[-123.07270819330951,49.31137326311649]]]}},{"id":"6","type":"Feature","properties":{"ah_name":"Twin Towers","BUILDING_NAME":" ","ah_address":"172 2nd St E","ah_total_units":210.0,"ah_eligibility":"55+, People with disabilities under 55","classification_basis":"affordable-housing eligibility '55+, People with disabilities under 55'"},"geometry":{"type":"Polygon","coordinates":[[[-123.07504678939335,49.311898549968376],[-123.0751170503247,49.31192475210974],[-123.07514465927927,49.311913427284104],[-123.07513775884298,49.31189030529321],[-123.07519504463296,49.31183428234991],[-123.07522611798528,49.31183031326635],[-123.07523245872947,49.311811122527864],[-123.07521024239645,49.311803976864745],[-123.07523102929565,49.31178493863656],[-123.0752175327314,49.31173979187128],[-123.07518741178905,49.31172768603651],[-123.0752033496687,49.311713625274244],[-123.07518436442929,49.311696070138524],[-123.07514816042965,49.31170069919169],[-123.07506266646497,49.311663308026645],[-123.07506376497416,49.31164379687691],[-123.07502988451444,49.31163832285325],[-123.07502230145558,49.311645793733646],[-123.0749830947748,49.31168439928896],[-123.07487722001734,49.31169792464666],[-123.07487181392929,49.31171661103321],[-123.07490047117659,49.31172524577888],[-123.07491429928966,49.31177148077698],[-123.07489383469336,49.31178539151559],[-123.07490365937169,49.31179542371292],[-123.07490677349611,49.31179859697524],[-123.07491227143944,49.31180419737726],[-123.0749057522358,49.31182373002874],[-123.07493436841354,49.311832454743765],[-123.07494782329299,49.31187748463169],[-123.07492676944054,49.3118929609105],[-123.07494506833146,49.311911550972866],[-123.07504678939335,49.311898549968376]]]}},{"id":"7","type":"Feature","properties":{"ah_name":null,"BUILDING_NAME":" ","ah_address":null,"ah_total_units":null,"ah_eligibility":null,"classification_basis":"occupancy 'INDEPENDENT LIVING'"},"geometry":{"type":"Polygon","coordinates":[[[-123.07391583763128,49.32193077314198],[-123.07414356935467,49.32193310093096],[-123.07414417784118,49.321907608388734],[-123.07420947402632,49.32190827709592],[-123.07421427852725,49.32170813272986],[-123.07414907893208,49.32170746396344],[-123.07414964846731,49.32168352759988],[-123.07392253711535,49.321681190431065],[-123.07392102096401,49.32174389633977],[-123.07387049055895,49.32174337994514],[-123.07386716151692,49.321882095721804],[-123.0739170040095,49.321882603562734],[-123.07391583763128,49.32193077314198]]]}},{"id":"8","type":"Feature","properties":{"ah_name":"Chelsea North","BUILDING_NAME":" ","ah_address":"121 W 15th St","ah_total_units":33.0,"ah_eligibility":"55+","classification_basis":"affordable-housing eligibility '55+'"},"geometry":{"type":"Polygon","coordinates":[[[-123.07367814158096,49.321955112773274],[-123.07371646598739,49.32195540316485],[-123.0737190412161,49.32180921293565],[-123.07370276199033,49.321809088391255],[-123.0737054647243,49.321656106766284],[-123.07372101016445,49.32166249237767],[-123.0737227316194,49.32158965784135],[-123.07334303644801,49.321583899671765],[-123.0733434794087,49.32159492740053],[-123.07334283222394,49.32161316990251],[-123.0732975999515,49.32161272185614],[-123.07329736006811,49.32161798414996],[-123.07324413167818,49.32161678556383],[-123.07324014629965,49.32183373224542],[-123.07323682993223,49.321833725351816],[-123.07323337714469,49.32193659565889],[-123.0735034818609,49.32194117361614],[-123.0735099244322,49.321933604628214],[-123.07352071300024,49.321924404759855],[-123.07353661725713,49.32191296185243],[-123.07355398887563,49.32190737382791],[-123.0735732525977,49.3219063990896],[-123.07359309838884,49.3219081854773],[-123.07360759467896,49.32191229600798],[-123.07361657269168,49.32191628412024],[-123.07362300660182,49.32192138025138],[-123.07362410923832,49.32192256690397],[-123.0736281890555,49.321926998896004],[-123.07363364746467,49.32193311209581],[-123.07363850510632,49.32194238296297],[-123.07364122037814,49.32195455162154],[-123.07364951797616,49.32195442040277],[-123.07367814158096,49.321955112773274]],[[-123.07344453663663,49.321778822301695],[-123.07344016127327,49.32186248863462],[-123.07329956223786,49.321859339647865],[-123.07329956243811,49.32185947457446],[-123.07323992103595,49.32185813613155],[-123.07324437965173,49.32161697430408],[-123.07329755298555,49.3216181639299],[-123.07329783411109,49.32161287462457],[-123.07344810656922,49.32161623334921],[-123.07344513602804,49.32167294943064],[-123.07350385585474,49.32166545515184],[-123.07351551174793,49.32168429250212],[-123.07352203295488,49.32170183782121],[-123.0735262801971,49.32171707284227],[-123.0735281976654,49.32172948487956],[-123.07352997883937,49.321742778524666],[-123.0735280059989,49.321757873580765],[-123.07352601137455,49.3217675805775],[-123.07344453663663,49.321778822301695]]]}},{"id":"9","type":"Feature","properties":{"ah_name":"The Eleanor","BUILDING_NAME":null,"ah_address":"125 E 20th St","ah_total_units":10.0,"ah_eligibility":"Individuals, Families, 55+, People with disabilities","classification_basis":"affordable-housing eligibility 'Individuals, Families, 55+, People with disabilities'"},"geometry":{"type":"Polygon","coordinates":[[[-123.07106620699635,49.32707832570285],[-123.07106479329467,49.32713452259341],[-123.07128075320907,49.32713684437253],[-123.07128958945971,49.3267857095782],[-123.07107749969447,49.32678342951176],[-123.07107521898914,49.32687404131362],[-123.0706572662381,49.326869546360186],[-123.07065212252925,49.32707387242815],[-123.07106620699635,49.32707832570285]]]}}]}