{"type":"FeatureCollection","features":[{"id":"0","type":"Feature","properties":{"BUILDING_NAME":"Wellington Manor","review_status":"UNVERIFIED_NAME_MATCH","review_note":"The building name contains a seniors-suggestive keyword, but no municipal eligibility or occupancy attribute supports it. NOT classified as seniors housing. Verify against Vancouver Coastal Health or BC Housing before use."},"geometry":{"type":"Polygon","coordinates":[[[-123.07302417981137,49.313882884527345],[-123.0732714256285,49.31363493929589],[-123.07304958077755,49.313540379037725],[-123.0730420385359,49.3135479397111],[-123.07295727401157,49.31351179686193],[-123.0729681683485,49.313500860905194],[-123.07283992734925,49.31344619745967],[-123.07259027610719,49.313696553980684],[-123.07274316077638,49.313761717494984],[-123.07281284125038,49.31369184444987],[-123.07295038949718,49.31375046889946],[-123.07287973372307,49.313821323110574],[-123.07302417981137,49.313882884527345]]]}}]}