{"type":"FeatureCollection","features":[{"id":"0","type":"Feature","properties":{"icbc_location":"E 25TH ST & E 25TH ST OFFRAMP & E 25TH ST ONRAMP & LONSDALE AVE & LONSDALE AVE OFFRAMP & LONSDALE AVE ONRAMP & TRANS-CANADA HWY & W 25TH ST & TURNING LANE","crash_count":638,"non_cnv_streets_in_record":"TRANS-CANADA HWY","exclusion_reason":"record names non-CNV streets (typically Highway 1 ramps), so the crash total cannot be attributed to a CNV municipal intersection"},"geometry":{"type":"Point","coordinates":[-123.07206734784256,49.33230394469631]}},{"id":"1","type":"Feature","properties":{"icbc_location":"BOULEVARD CRES & E 21ST ST & GRAND BLVD OFFRAMP & GRAND BLVD ONRAMP & LYNN VALLEY RD & LYNN VALLEY RD ONRAMP & TRANS-CANADA HWY & WILLIAM AVE OFFRAMP & TURNING LANE","crash_count":303,"non_cnv_streets_in_record":"TRANS-CANADA HWY","exclusion_reason":"record names non-CNV streets (typically Highway 1 ramps), so the crash total cannot be attributed to a CNV municipal intersection"},"geometry":{"type":"Point","coordinates":[-123.05503293694714,49.328000160008635]}},{"id":"2","type":"Feature","properties":{"icbc_location":"BROOKSBANK AVE & E KEITH RD & HEYWOOD ST & MOUNTAIN HWY","crash_count":201,"non_cnv_streets_in_record":"MOUNTAIN HWY","exclusion_reason":"record names non-CNV streets (typically Highway 1 ramps), so the crash total cannot be attributed to a CNV municipal intersection"},"geometry":{"type":"Point","coordinates":[-123.04111236888671,49.31330343566723]}},{"id":"3","type":"Feature","properties":{"icbc_location":"BEWICKE AVE & MARINE DR & W 2ND LANE & W 3RD ST & W KEITH RD","crash_count":144,"non_cnv_streets_in_record":"W 2ND LANE","exclusion_reason":"record names non-CNV streets (typically Highway 1 ramps), so the crash total cannot be attributed to a CNV municipal intersection"},"geometry":{"type":"Point","coordinates":[-123.09141286529828,49.32007490856621]}},{"id":"4","type":"Feature","properties":{"icbc_location":"W 23RD ST & W 24TH CLOSE & WESTVIEW DR","crash_count":62,"non_cnv_streets_in_record":"W 24TH CLOSE","exclusion_reason":"record names non-CNV streets (typically Highway 1 ramps), so the crash total cannot be attributed to a CNV municipal intersection"},"geometry":{"type":"Point","coordinates":[-123.08819378730243,49.33041728652702]}},{"id":"5","type":"Feature","properties":{"icbc_location":"FELL LANE & HANES AVE & MARINE DR","crash_count":52,"non_cnv_streets_in_record":"FELL LANE","exclusion_reason":"record names non-CNV streets (typically Highway 1 ramps), so the crash total cannot be attributed to a CNV municipal intersection"},"geometry":{"type":"Point","coordinates":[-123.09793374203697,49.322345330358274]}},{"id":"6","type":"Feature","properties":{"icbc_location":"E 14TH LANE & E 14TH ST & LIONS GATE HOSPITAL & ST GEORGES AVE & SERVICE ROAD","crash_count":22,"non_cnv_streets_in_record":"E 14TH LANE; LIONS GATE HOSPITAL; SERVICE RD","exclusion_reason":"record names non-CNV streets (typically Highway 1 ramps), so the crash total cannot be attributed to a CNV municipal intersection"},"geometry":{"type":"Point","coordinates":[-123.06923680479215,49.32099432906337]}},{"id":"7","type":"Feature","properties":{"icbc_location":"E ESPLANADE & ESPLANADE AVE & LOW LEVEL RD & ST ANDREWS AVE & TURNING LANE","crash_count":22,"non_cnv_streets_in_record":"ESPLANADE AVE","exclusion_reason":"record names non-CNV streets (typically Highway 1 ramps), so the crash total cannot be attributed to a CNV municipal intersection"},"geometry":{"type":"Point","coordinates":[-123.07497665209809,49.30916523411239]}},{"id":"8","type":"Feature","properties":{"icbc_location":"4TH ST & W 2ND ST & W 3RD ST","crash_count":19,"non_cnv_streets_in_record":"4TH ST","exclusion_reason":"record names non-CNV streets (typically Highway 1 ramps), so the crash total cannot be attributed to a CNV municipal intersection"},"geometry":{"type":"Point","coordinates":[-123.08982380939291,49.31903721747439]}},{"id":"9","type":"Feature","properties":{"icbc_location":"BOULEVARD CRES & E 19TH ST & GRAND BLVD E","crash_count":19,"non_cnv_streets_in_record":"GRAND BLVD E","exclusion_reason":"record names non-CNV streets (typically Highway 1 ramps), so the crash total cannot be attributed to a CNV municipal intersection"},"geometry":{"type":"Point","coordinates":[-123.05625216453886,49.32607012300817]}},{"id":"10","type":"Feature","properties":{"icbc_location":"FORBES AVE & W 1ST ST & W ESPLANDE LANE","crash_count":10,"non_cnv_streets_in_record":"W ESPLANDE LANE","exclusion_reason":"record names non-CNV streets (typically Highway 1 ramps), so the crash total cannot be attributed to a CNV municipal intersection"},"geometry":{"type":"Point","coordinates":[-123.0859201018477,49.31499238073029]}},{"id":"11","type":"Feature","properties":{"icbc_location":"E 13TH ST & LIONS GATE HOSPITAL & ST ANDREWS AVE","crash_count":6,"non_cnv_streets_in_record":"LIONS GATE HOSPITAL","exclusion_reason":"record names non-CNV streets (typically Highway 1 ramps), so the crash total cannot be attributed to a CNV municipal intersection"},"geometry":{"type":"Point","coordinates":[-123.06614524899418,49.319916725853545]}},{"id":"12","type":"Feature","properties":{"icbc_location":"SPIRIT TRAIL & ST GEORGES AVE & VICTORY SHIP WAY & INSTITUTIONAL ACCESS","crash_count":6,"non_cnv_streets_in_record":"SPIRIT TRAIL; INSTITUTIONAL ACCESS","exclusion_reason":"record names non-CNV streets (typically Highway 1 ramps), so the crash total cannot be attributed to a CNV municipal intersection"},"geometry":{"type":"Point","coordinates":[-123.07687585408108,49.30928453286305]}},{"id":"13","type":"Feature","properties":{"icbc_location":"CARSON GRAHAM SECONDARY SCHOOL ACCESS & JONES AVE & W 22ND ST","crash_count":4,"non_cnv_streets_in_record":"CARSON GRAHAM SECONDARY SCHOOL ACCESS","exclusion_reason":"record names non-CNV streets (typically Highway 1 ramps), so the crash total cannot be attributed to a CNV municipal intersection"},"geometry":{"type":"Point","coordinates":[-123.08150698664906,49.329356275875746]}},{"id":"14","type":"Feature","properties":{"icbc_location":"CLOVERLEY ST & E 5TH LANE & HENDRY AVE","crash_count":4,"non_cnv_streets_in_record":"E 5TH LANE","exclusion_reason":"record names non-CNV streets (typically Highway 1 ramps), so the crash total cannot be attributed to a CNV municipal intersection"},"geometry":{"type":"Point","coordinates":[-123.05203996560238,49.31081187785962]}},{"id":"15","type":"Feature","properties":{"icbc_location":"E 19TH ST & GRAND BLVD W & QUEENSBURY AVE","crash_count":3,"non_cnv_streets_in_record":"GRAND BLVD W","exclusion_reason":"record names non-CNV streets (typically Highway 1 ramps), so the crash total cannot be attributed to a CNV municipal intersection"},"geometry":{"type":"Point","coordinates":[-123.05747763096781,49.326074018534925]}},{"id":"16","type":"Feature","properties":{"icbc_location":"CARSON GRAHAM SECONDARY SCHOOL ACCESS & JONES AVE & W 21ST ST","crash_count":2,"non_cnv_streets_in_record":"CARSON GRAHAM SECONDARY SCHOOL ACCESS","exclusion_reason":"record names non-CNV streets (typically Highway 1 ramps), so the crash total cannot be attributed to a CNV municipal intersection"},"geometry":{"type":"Point","coordinates":[-123.08152946614135,49.32838478980298]}},{"id":"17","type":"Feature","properties":{"icbc_location":"CARSON GRAHAM SECONDARY SCHOOL ACCESS & LARSON CRES & LARSON RD","crash_count":2,"non_cnv_streets_in_record":"CARSON GRAHAM SECONDARY SCHOOL ACCESS","exclusion_reason":"record names non-CNV streets (typically Highway 1 ramps), so the crash total cannot be attributed to a CNV municipal intersection"},"geometry":{"type":"Point","coordinates":[-123.0844635662694,49.329183247066666]}},{"id":"18","type":"Feature","properties":{"icbc_location":"CLOVERLEY LANE & E 6TH ST & HENDRY AVE","crash_count":2,"non_cnv_streets_in_record":"CLOVERLEY LANE","exclusion_reason":"record names non-CNV streets (typically Highway 1 ramps), so the crash total cannot be attributed to a CNV municipal intersection"},"geometry":{"type":"Point","coordinates":[-123.05202987170517,49.311432546367676]}},{"id":"19","type":"Feature","properties":{"icbc_location":"E ESPLANADE & PARK ST & SPIRIT TRAIL & ST PATRICKS AVE","crash_count":2,"non_cnv_streets_in_record":"PARK ST; SPIRIT TRAIL","exclusion_reason":"record names non-CNV streets (typically Highway 1 ramps), so the crash total cannot be attributed to a CNV municipal intersection"},"geometry":{"type":"Point","coordinates":[-123.0703386332565,49.30719064334694]}},{"id":"20","type":"Feature","properties":{"icbc_location":"E 21ST ST & EASTERN AVE & LONSDALE LANE","crash_count":1,"non_cnv_streets_in_record":"LONSDALE LANE","exclusion_reason":"record names non-CNV streets (typically Highway 1 ramps), so the crash total cannot be attributed to a CNV municipal intersection"},"geometry":{"type":"Point","coordinates":[-123.0705015808231,49.328288598045226]}},{"id":"21","type":"Feature","properties":{"icbc_location":"E 2ND ST & MOODY AVE & SPIRIT TRAIL","crash_count":1,"non_cnv_streets_in_record":"SPIRIT TRAIL","exclusion_reason":"record names non-CNV streets (typically Highway 1 ramps), so the crash total cannot be attributed to a CNV municipal intersection"},"geometry":{"type":"Point","coordinates":[-123.06033750082726,49.30755610307793]}},{"id":"22","type":"Feature","properties":{"icbc_location":"E 6TH LANE & E 7TH LANE & E 7TH ST & ST DAVIDS AVE","crash_count":1,"non_cnv_streets_in_record":"E 6TH LANE; E 7TH LANE","exclusion_reason":"record names non-CNV streets (typically Highway 1 ramps), so the crash total cannot be attributed to a CNV municipal intersection"},"geometry":{"type":"Point","coordinates":[-123.0659363389458,49.31256333370192]}},{"id":"23","type":"Feature","properties":{"icbc_location":"E 8TH LANE & E 8TH ST & ST ANDREWS AVE","crash_count":1,"non_cnv_streets_in_record":"E 8TH LANE","exclusion_reason":"record names non-CNV streets (typically Highway 1 ramps), so the crash total cannot be attributed to a CNV municipal intersection"},"geometry":{"type":"Point","coordinates":[-123.06637492960017,49.31515817558398]}},{"id":"24","type":"Feature","properties":{"icbc_location":"HOLY TRINITY ELEMENTARY SCHOOL ACCESS & W 27TH ST & WESTERN AVE","crash_count":1,"non_cnv_streets_in_record":"HOLY TRINITY ELEMENTARY SCHOOL ACCESS","exclusion_reason":"record names non-CNV streets (typically Highway 1 ramps), so the crash total cannot be attributed to a CNV municipal intersection"},"geometry":{"type":"Point","coordinates":[-123.07362713270899,49.334155951382655]}},{"id":"25","type":"Feature","properties":{"icbc_location":"JONES AVE & W 6TH LANE & W 6TH ST","crash_count":1,"non_cnv_streets_in_record":"W 6TH LANE","exclusion_reason":"record names non-CNV streets (typically Highway 1 ramps), so the crash total cannot be attributed to a CNV municipal intersection"},"geometry":{"type":"Point","coordinates":[-123.08176457088575,49.31894425373139]}}]}