{"type":"FeatureCollection","features":[{"id":"317","type":"Feature","properties":{"intersection_id":"CNV-INT-0318","street_names":"FELL AVE / HARBOURSIDE DR","nearest_traffic_volume":365.0},"geometry":{"type":"Point","coordinates":[-123.09482327312885,49.31454015841517]}},{"id":"322","type":"Feature","properties":{"intersection_id":"CNV-INT-0323","street_names":"BEWICKE AVE / COPPING ST","nearest_traffic_volume":306.0},"geometry":{"type":"Point","coordinates":[-123.09168610483604,49.316467648156824]}},{"id":"324","type":"Feature","properties":{"intersection_id":"CNV-INT-0325","street_names":"COPPING ST / GOSTICK PL","nearest_traffic_volume":83.0},"geometry":{"type":"Point","coordinates":[-123.09279846629651,49.31647125881345]}},{"id":"326","type":"Feature","properties":{"intersection_id":"CNV-INT-0327","street_names":"AUTOMALL DR / FELL AVE","nearest_traffic_volume":791.0},"geometry":{"type":"Point","coordinates":[-123.09478216897946,49.31589767789499]}},{"id":"327","type":"Feature","properties":{"intersection_id":"CNV-INT-0328","street_names":"AUTOMALL DR","nearest_traffic_volume":365.0},"geometry":{"type":"Point","coordinates":[-123.09638378192729,49.315916352165935]}},{"id":"329","type":"Feature","properties":{"intersection_id":"CNV-INT-0330","street_names":"AUTOMALL DR","nearest_traffic_volume":365.0},"geometry":{"type":"Point","coordinates":[-123.09676176007238,49.31625979846516]}},{"id":"330","type":"Feature","properties":{"intersection_id":"CNV-INT-0331","street_names":"FELL AVE / W 1ST ST / W 2ND ST","nearest_traffic_volume":503.0},"geometry":{"type":"Point","coordinates":[-123.09471745205632,49.31803485321212]}},{"id":"331","type":"Feature","properties":{"intersection_id":"CNV-INT-0332","street_names":"DONAGHY AVE / W 1ST ST","nearest_traffic_volume":1125.0},"geometry":{"type":"Point","coordinates":[-123.09693414752223,49.318077989997]}},{"id":"337","type":"Feature","properties":{"intersection_id":"CNV-INT-0338","street_names":"DELBRUCK AVE / W ESPLANADE","nearest_traffic_volume":306.0},"geometry":{"type":"Point","coordinates":[-123.0895520276434,49.31760270678428]}},{"id":"339","type":"Feature","properties":{"intersection_id":"CNV-INT-0340","street_names":"DELBRUCK AVE / W 1ST ST","nearest_traffic_volume":956.0},"geometry":{"type":"Point","coordinates":[-123.0890585882573,49.317944902650574]}},{"id":"341","type":"Feature","properties":{"intersection_id":"CNV-INT-0342","street_names":"BEWICKE AVE / W 2ND ST","nearest_traffic_volume":956.0},"geometry":{"type":"Point","coordinates":[-123.09154555689445,49.31904935920456]}},{"id":"343","type":"Feature","properties":{"intersection_id":"CNV-INT-0344","street_names":"DELBRUCK AVE / W 3RD ST","nearest_traffic_volume":552.0},"geometry":{"type":"Point","coordinates":[-123.08849056204242,49.318422080314875]}},{"id":"344","type":"Feature","properties":{"intersection_id":"CNV-INT-0345","street_names":"W 2ND ST / W 3RD ST / W 6TH ST","nearest_traffic_volume":552.0},"geometry":{"type":"Point","coordinates":[-123.08982380939291,49.31903721747439]}},{"id":"345","type":"Feature","properties":{"intersection_id":"CNV-INT-0346","street_names":"BEWICKE AVE / MARINE DR / W 3RD ST / W KEITH RD","nearest_traffic_volume":1084.0},"geometry":{"type":"Point","coordinates":[-123.09141286529828,49.32007490856621]}},{"id":"346","type":"Feature","properties":{"intersection_id":"CNV-INT-0347","street_names":"HANES AVE / W 1ST ST","nearest_traffic_volume":1125.0},"geometry":{"type":"Point","coordinates":[-123.09892630060614,49.31807630197947]}},{"id":"348","type":"Feature","properties":{"intersection_id":"CNV-INT-0349","street_names":"FELL AVE / W 3RD ST","nearest_traffic_volume":602.0},"geometry":{"type":"Point","coordinates":[-123.09467675766679,49.32013524677709]}},{"id":"353","type":"Feature","properties":{"intersection_id":"CNV-INT-0354","street_names":"DELBRUCK AVE / W KEITH RD","nearest_traffic_volume":1084.0},"geometry":{"type":"Point","coordinates":[-123.08792928407031,49.320037132422556]}},{"id":"354","type":"Feature","properties":{"intersection_id":"CNV-INT-0355","street_names":"BEWICKE AVE / W 14TH ST","nearest_traffic_volume":214.0},"geometry":{"type":"Point","coordinates":[-123.09131736465751,49.32121736201382]}},{"id":"356","type":"Feature","properties":{"intersection_id":"CNV-INT-0357","street_names":"BEWICKE AVE / W 15TH ST","nearest_traffic_volume":272.0},"geometry":{"type":"Point","coordinates":[-123.09127756397183,49.322251832514716]}},{"id":"358","type":"Feature","properties":{"intersection_id":"CNV-INT-0359","street_names":"MARINE DR / W 14TH ST","nearest_traffic_volume":941.0},"geometry":{"type":"Point","coordinates":[-123.09382205070807,49.320896030210804]}},{"id":"359","type":"Feature","properties":{"intersection_id":"CNV-INT-0360","street_names":"FELL AVE / MARINE DR","nearest_traffic_volume":613.0},"geometry":{"type":"Point","coordinates":[-123.09465303440322,49.321219176814445]}},{"id":"361","type":"Feature","properties":{"intersection_id":"CNV-INT-0362","street_names":"MOSQUITO CREEK LANE / W 14TH ST","nearest_traffic_volume":941.0},"geometry":{"type":"Point","coordinates":[-123.0934386052906,49.32123609985415]}},{"id":"362","type":"Feature","properties":{"intersection_id":"CNV-INT-0363","street_names":"HANES AVE / MARINE DR","nearest_traffic_volume":806.0},"geometry":{"type":"Point","coordinates":[-123.09793374203697,49.322345330358274]}},{"id":"363","type":"Feature","properties":{"intersection_id":"CNV-INT-0364","street_names":"MARINE DR / W 15TH ST","nearest_traffic_volume":806.0},"geometry":{"type":"Point","coordinates":[-123.09706880842224,49.322053718815056]}},{"id":"364","type":"Feature","properties":{"intersection_id":"CNV-INT-0365","street_names":"MOSQUITO CREEK LANE / W 15TH ST","nearest_traffic_volume":613.0},"geometry":{"type":"Point","coordinates":[-123.09343283718098,49.322242572378784]}},{"id":"417","type":"Feature","properties":{"intersection_id":"CNV-INT-0418","street_names":"LARSON CRES / LARSON RD","nearest_traffic_volume":207.0},"geometry":{"type":"Point","coordinates":[-123.0844635662694,49.329183247066666]}},{"id":"421","type":"Feature","properties":{"intersection_id":"CNV-INT-0422","street_names":"FELL AVE / W 15TH ST","nearest_traffic_volume":613.0},"geometry":{"type":"Point","coordinates":[-123.09463011848263,49.32227612153977]}},{"id":"424","type":"Feature","properties":{"intersection_id":"CNV-INT-0425","street_names":"FELL AVE / W 16TH ST","nearest_traffic_volume":613.0},"geometry":{"type":"Point","coordinates":[-123.0946061433619,49.32322962314331]}},{"id":"444","type":"Feature","properties":{"intersection_id":"CNV-INT-0445","street_names":"LARSON RD / W 19TH ST","nearest_traffic_volume":196.0},"geometry":{"type":"Point","coordinates":[-123.08740598148148,49.326365590663734]}},{"id":"445","type":"Feature","properties":{"intersection_id":"CNV-INT-0446","street_names":"W 19TH ST / WESTVIEW DR","nearest_traffic_volume":725.0},"geometry":{"type":"Point","coordinates":[-123.08949828654409,49.326386478110265]}},{"id":"446","type":"Feature","properties":{"intersection_id":"CNV-INT-0447","street_names":"LARSON RD / W 20TH ST","nearest_traffic_volume":196.0},"geometry":{"type":"Point","coordinates":[-123.08659500222893,49.327171263135845]}},{"id":"447","type":"Feature","properties":{"intersection_id":"CNV-INT-0448","street_names":"W 20TH ST / WESTVIEW DR","nearest_traffic_volume":725.0},"geometry":{"type":"Point","coordinates":[-123.08945197563555,49.32741195518049]}},{"id":"448","type":"Feature","properties":{"intersection_id":"CNV-INT-0449","street_names":"W 20TH ST / WOLFE ST","nearest_traffic_volume":257.0},"geometry":{"type":"Point","coordinates":[-123.08575683234469,49.32694701042155]}},{"id":"449","type":"Feature","properties":{"intersection_id":"CNV-INT-0450","street_names":"CARSON CRT / W 20TH ST","nearest_traffic_volume":257.0},"geometry":{"type":"Point","coordinates":[-123.08614233679114,49.32702702800563]}},{"id":"450","type":"Feature","properties":{"intersection_id":"CNV-INT-0451","street_names":"LARSON RD / W 20TH ST","nearest_traffic_volume":207.0},"geometry":{"type":"Point","coordinates":[-123.08641128582131,49.32737379140939]}},{"id":"451","type":"Feature","properties":{"intersection_id":"CNV-INT-0452","street_names":"LARSON RD / W 21ST ST","nearest_traffic_volume":207.0},"geometry":{"type":"Point","coordinates":[-123.08540884559828,49.32840447509363]}},{"id":"464","type":"Feature","properties":{"intersection_id":"CNV-INT-0465","street_names":"W 21ST ST / WESTVIEW DR","nearest_traffic_volume":801.0},"geometry":{"type":"Point","coordinates":[-123.08940266246583,49.32844193372216]}},{"id":"465","type":"Feature","properties":{"intersection_id":"CNV-INT-0466","street_names":"W 22ND ST / WESTVIEW DR","nearest_traffic_volume":720.0},"geometry":{"type":"Point","coordinates":[-123.08823976060536,49.32942779027018]}},{"id":"467","type":"Feature","properties":{"intersection_id":"CNV-INT-0468","street_names":"W 23RD ST / WESTVIEW DR","nearest_traffic_volume":801.0},"geometry":{"type":"Point","coordinates":[-123.08819378730243,49.33041728652702]}},{"id":"487","type":"Feature","properties":{"intersection_id":"CNV-INT-0488","street_names":"W 23RD ST / W 24TH CL","nearest_traffic_volume":801.0},"geometry":{"type":"Point","coordinates":[-123.08846948056289,49.330417075833715]}}]}