{"type":"FeatureCollection","features":[{"id":"1","type":"Feature","properties":{"intersection_id":"CNV-INT-0002","street_names":"LOW LEVEL RD","neighbourhood":"Moodyville","public_space_composite":37.96},"geometry":{"type":"Point","coordinates":[-123.05254953204732,49.30800000990299]}},{"id":"4","type":"Feature","properties":{"intersection_id":"CNV-INT-0005","street_names":"COTTON RD","neighbourhood":"Moodyville","public_space_composite":45.75},"geometry":{"type":"Point","coordinates":[-123.0440624119963,49.30816612826473]}},{"id":"5","type":"Feature","properties":{"intersection_id":"CNV-INT-0006","street_names":"LOW LEVEL RD","neighbourhood":"Moodyville","public_space_composite":38.44},"geometry":{"type":"Point","coordinates":[-123.04836145034122,49.30824709789747]}},{"id":"7","type":"Feature","properties":{"intersection_id":"CNV-INT-0008","street_names":"COTTON RD / E 3RD ST / LOW LEVEL RD","neighbourhood":"Moodyville","public_space_composite":48.06},"geometry":{"type":"Point","coordinates":[-123.04693439498797,49.30830087673772]}},{"id":"8","type":"Feature","properties":{"intersection_id":"CNV-INT-0009","street_names":"COTTON RD / E 3RD ST","neighbourhood":"Moodyville","public_space_composite":40.63},"geometry":{"type":"Point","coordinates":[-123.04530653976727,49.30838010201787]}},{"id":"9","type":"Feature","properties":{"intersection_id":"CNV-INT-0010","street_names":"E 3RD ST","neighbourhood":"Moodyville","public_space_composite":38.63},"geometry":{"type":"Point","coordinates":[-123.04822734088212,49.30842427352901]}},{"id":"12","type":"Feature","properties":{"intersection_id":"CNV-INT-0013","street_names":"E 3RD ST / HEYWOOD ST","neighbourhood":"Moodyville","public_space_composite":38.8},"geometry":{"type":"Point","coordinates":[-123.04885171464976,49.308423223164695]}},{"id":"13","type":"Feature","properties":{"intersection_id":"CNV-INT-0014","street_names":"HEYWOOD ST","neighbourhood":"Moodyville","public_space_composite":23.88},"geometry":{"type":"Point","coordinates":[-123.04969894295282,49.30868218504285]}},{"id":"16","type":"Feature","properties":{"intersection_id":"CNV-INT-0017","street_names":"E 4TH ST / KENNARD AVE","neighbourhood":"Moodyville","public_space_composite":23.66},"geometry":{"type":"Point","coordinates":[-123.04683341236586,49.309338904376816]}},{"id":"19","type":"Feature","properties":{"intersection_id":"CNV-INT-0020","street_names":"E 4TH ST / SUTHERLAND AVE","neighbourhood":"Moodyville","public_space_composite":36.12},"geometry":{"type":"Point","coordinates":[-123.05445338256992,49.309452501967485]}},{"id":"20","type":"Feature","properties":{"intersection_id":"CNV-INT-0021","street_names":"HENDRY AVE / SHAVINGTON ST","neighbourhood":"Moodyville","public_space_composite":24.77},"geometry":{"type":"Point","coordinates":[-123.05205498690623,49.309561548734166]}},{"id":"21","type":"Feature","properties":{"intersection_id":"CNV-INT-0022","street_names":"E 1ST ST / E 2ND ST","neighbourhood":"Moodyville","public_space_composite":47.03},"geometry":{"type":"Point","coordinates":[-123.0614629592578,49.3075375197305]}},{"id":"22","type":"Feature","properties":{"intersection_id":"CNV-INT-0023","street_names":"E 2ND ST / MOODY AVE","neighbourhood":"Moodyville","public_space_composite":41.56},"geometry":{"type":"Point","coordinates":[-123.06033750082726,49.30755610307793]}},{"id":"30","type":"Feature","properties":{"intersection_id":"CNV-INT-0031","street_names":"E 5TH ST / MOODY AVE","neighbourhood":"Moodyville","public_space_composite":48.19},"geometry":{"type":"Point","coordinates":[-123.06021386217436,49.31052006490156]}},{"id":"39","type":"Feature","properties":{"intersection_id":"CNV-INT-0040","street_names":"CLOVERLEY ST / HENDRY AVE","neighbourhood":"Moodyville","public_space_composite":25.27},"geometry":{"type":"Point","coordinates":[-123.05203996560238,49.31081187785962]}},{"id":"40","type":"Feature","properties":{"intersection_id":"CNV-INT-0041","street_names":"E 6TH ST / HENDRY AVE","neighbourhood":"Moodyville","public_space_composite":32.63},"geometry":{"type":"Point","coordinates":[-123.05202987170517,49.311432546367676]}},{"id":"41","type":"Feature","properties":{"intersection_id":"CNV-INT-0042","street_names":"E KEITH RD / HEYWOOD ST","neighbourhood":null,"public_space_composite":51.73},"geometry":{"type":"Point","coordinates":[-123.04111236888671,49.31330343566723]}},{"id":"47","type":"Feature","properties":{"intersection_id":"CNV-INT-0048","street_names":"E 6TH ST / MOODY AVE","neighbourhood":"Moodyville","public_space_composite":44.25},"geometry":{"type":"Point","coordinates":[-123.06017895357292,49.311509546513065]}},{"id":"49","type":"Feature","properties":{"intersection_id":"CNV-INT-0050","street_names":"E 7TH ST / MOODY AVE","neighbourhood":"Moodyville","public_space_composite":46.27},"geometry":{"type":"Point","coordinates":[-123.06015566372169,49.31250801792393]}},{"id":"53","type":"Feature","properties":{"intersection_id":"CNV-INT-0054","street_names":"E KEITH RD / W GRAND BLVD","neighbourhood":"Moodyville","public_space_composite":62.44},"geometry":{"type":"Point","coordinates":[-123.05773366558317,49.31350771231892]}},{"id":"56","type":"Feature","properties":{"intersection_id":"CNV-INT-0057","street_names":"E GRAND BLVD / E KEITH RD","neighbourhood":"Moodyville","public_space_composite":64.11},"geometry":{"type":"Point","coordinates":[-123.0565491331968,49.31349930285294]}},{"id":"58","type":"Feature","properties":{"intersection_id":"CNV-INT-0059","street_names":"E 8TH ST / E GRAND BLVD","neighbourhood":"Grand Boulevard","public_space_composite":59.07},"geometry":{"type":"Point","coordinates":[-123.05651944899115,49.31461021626177]}},{"id":"60","type":"Feature","properties":{"intersection_id":"CNV-INT-0061","street_names":"E 9TH ST / E GRAND BLVD","neighbourhood":"Grand Boulevard","public_space_composite":59.33},"geometry":{"type":"Point","coordinates":[-123.0565111835168,49.31565365375668]}},{"id":"61","type":"Feature","properties":{"intersection_id":"CNV-INT-0062","street_names":"E 9TH ST / W GRAND BLVD","neighbourhood":"Grand Boulevard","public_space_composite":53.77},"geometry":{"type":"Point","coordinates":[-123.05768244162826,49.31566656780249]}},{"id":"62","type":"Feature","properties":{"intersection_id":"CNV-INT-0063","street_names":"E 10TH ST / E GRAND BLVD","neighbourhood":"Grand Boulevard","public_space_composite":50.75},"geometry":{"type":"Point","coordinates":[-123.05645904941149,49.316688118278435]}},{"id":"63","type":"Feature","properties":{"intersection_id":"CNV-INT-0064","street_names":"E 11TH ST / E GRAND BLVD","neighbourhood":"Grand Boulevard","public_space_composite":56.76},"geometry":{"type":"Point","coordinates":[-123.05646024212275,49.31773155167113]}},{"id":"64","type":"Feature","properties":{"intersection_id":"CNV-INT-0065","street_names":"ALDER ST / E ST. DAVIDS AVE","neighbourhood":"Lower Lonsdale","public_space_composite":27.13},"geometry":{"type":"Point","coordinates":[-123.06629020211508,49.305848263405004]}},{"id":"65","type":"Feature","properties":{"intersection_id":"CNV-INT-0066","street_names":"E 1ST ST / E ST. DAVIDS AVE","neighbourhood":"Lower Lonsdale","public_space_composite":33.31},"geometry":{"type":"Point","coordinates":[-123.06612794074994,49.30657792276828]}},{"id":"66","type":"Feature","properties":{"intersection_id":"CNV-INT-0067","street_names":"E 1ST ST / E ST. DAVIDS AVE / ST. DAVIDS AVE","neighbourhood":"Lower Lonsdale","public_space_composite":37.08},"geometry":{"type":"Point","coordinates":[-123.0661190207368,49.30674787524823]}},{"id":"68","type":"Feature","properties":{"intersection_id":"CNV-INT-0069","street_names":"E ESPLANADE / LOW LEVEL RD","neighbourhood":"Lower Lonsdale","public_space_composite":51.91},"geometry":{"type":"Point","coordinates":[-123.07497665209809,49.30916523411239]}},{"id":"70","type":"Feature","properties":{"intersection_id":"CNV-INT-0071","street_names":"ALDER ST / ST. PATRICKS AVE","neighbourhood":"Lower Lonsdale","public_space_composite":32.72},"geometry":{"type":"Point","coordinates":[-123.07005185052694,49.30746516919384]}},{"id":"72","type":"Feature","properties":{"intersection_id":"CNV-INT-0073","street_names":"E ESPLANADE / ST. PATRICKS AVE","neighbourhood":"Lower Lonsdale","public_space_composite":30.07},"geometry":{"type":"Point","coordinates":[-123.0703386332565,49.30719064334694]}},{"id":"77","type":"Feature","properties":{"intersection_id":"CNV-INT-0078","street_names":"E 4TH ST / ST. DAVIDS AVE","neighbourhood":"Moodyville","public_space_composite":52.64},"geometry":{"type":"Point","coordinates":[-123.06599834045885,49.30973432806567]}},{"id":"78","type":"Feature","properties":{"intersection_id":"CNV-INT-0079","street_names":"E 4TH ST / ST. PATRICKS AVE","neighbourhood":"Lower Lonsdale","public_space_composite":44.25},"geometry":{"type":"Point","coordinates":[-123.0671994061637,49.310268847186144]}},{"id":"79","type":"Feature","properties":{"intersection_id":"CNV-INT-0080","street_names":"E 5TH ST / ST. DAVIDS AVE","neighbourhood":"Moodyville","public_space_composite":46.71},"geometry":{"type":"Point","coordinates":[-123.06599058229384,49.31100714449057]}},{"id":"80","type":"Feature","properties":{"intersection_id":"CNV-INT-0081","street_names":"E 6TH ST / ST. DAVIDS AVE","neighbourhood":"Moodyville","public_space_composite":42.77},"geometry":{"type":"Point","coordinates":[-123.06595481216536,49.312230503415975]}},{"id":"87","type":"Feature","properties":{"intersection_id":"CNV-INT-0088","street_names":"E 7TH ST / ST. DAVIDS AVE","neighbourhood":"Moodyville","public_space_composite":39.74},"geometry":{"type":"Point","coordinates":[-123.0659363389458,49.31256333370192]}},{"id":"89","type":"Feature","properties":{"intersection_id":"CNV-INT-0090","street_names":"E KEITH RD / RIDGEWAY AVE","neighbourhood":"Central Lonsdale","public_space_composite":46.55},"geometry":{"type":"Point","coordinates":[-123.06320621254888,49.313590301752974]}},{"id":"90","type":"Feature","properties":{"intersection_id":"CNV-INT-0091","street_names":"E KEITH RD","neighbourhood":"Central Lonsdale","public_space_composite":48.56},"geometry":{"type":"Point","coordinates":[-123.0655490535978,49.313606988759254]}},{"id":"91","type":"Feature","properties":{"intersection_id":"CNV-INT-0092","street_names":"LYON PL / RIDGEWAY AVE","neighbourhood":"Central Lonsdale","public_space_composite":38.83},"geometry":{"type":"Point","coordinates":[-123.063201331604,49.31414350556288]}},{"id":"92","type":"Feature","properties":{"intersection_id":"CNV-INT-0093","street_names":"LYON PL / MOODY AVE","neighbourhood":"Grand Boulevard","public_space_composite":40.78},"geometry":{"type":"Point","coordinates":[-123.06017222520876,49.31410464428672]}},{"id":"93","type":"Feature","properties":{"intersection_id":"CNV-INT-0094","street_names":"E 8TH ST / W GRAND BLVD","neighbourhood":"Grand Boulevard","public_space_composite":56.12},"geometry":{"type":"Point","coordinates":[-123.05771045926274,49.31462311946205]}},{"id":"94","type":"Feature","properties":{"intersection_id":"CNV-INT-0095","street_names":"E 8TH ST / MOODY AVE","neighbourhood":"Grand Boulevard","public_space_composite":41.16},"geometry":{"type":"Point","coordinates":[-123.0601690246129,49.3146533485777]}},{"id":"96","type":"Feature","properties":{"intersection_id":"CNV-INT-0097","street_names":"E 9TH ST / MOODY AVE","neighbourhood":"Grand Boulevard","public_space_composite":37.56},"geometry":{"type":"Point","coordinates":[-123.06014147585324,49.31568780214859]}},{"id":"99","type":"Feature","properties":{"intersection_id":"CNV-INT-0100","street_names":"E KEITH RD / ST. ANDREWS AVE","neighbourhood":"Central Lonsdale","public_space_composite":56.6},"geometry":{"type":"Point","coordinates":[-123.06726037046015,49.314312121958054]}},{"id":"101","type":"Feature","properties":{"intersection_id":"CNV-INT-0102","street_names":"E KEITH RD / ST. GEORGES AVE","neighbourhood":"Lower Lonsdale","public_space_composite":56.99},"geometry":{"type":"Point","coordinates":[-123.07033477734078,49.315655062919554]}},{"id":"102","type":"Feature","properties":{"intersection_id":"CNV-INT-0103","street_names":"E 8TH ST / E 9TH ST","neighbourhood":"Central Lonsdale","public_space_composite":45.0},"geometry":{"type":"Point","coordinates":[-123.06775853049822,49.31576004595748]}},{"id":"103","type":"Feature","properties":{"intersection_id":"CNV-INT-0104","street_names":"E 8TH ST / ST. ANDREWS AVE","neighbourhood":"Central Lonsdale","public_space_composite":47.39},"geometry":{"type":"Point","coordinates":[-123.06637492960017,49.31515817558398]}},{"id":"104","type":"Feature","properties":{"intersection_id":"CNV-INT-0105","street_names":"E KEITH RD / E VICTORIA PARK AVE","neighbourhood":"Lower Lonsdale","public_space_composite":58.69},"geometry":{"type":"Point","coordinates":[-123.07118965121867,49.31571750536692]}},{"id":"106","type":"Feature","properties":{"intersection_id":"CNV-INT-0107","street_names":"E 9TH ST / ST. ANDREWS AVE","neighbourhood":"Central Lonsdale","public_space_composite":46.21},"geometry":{"type":"Point","coordinates":[-123.06624372654126,49.315751929009885]}},{"id":"108","type":"Feature","properties":{"intersection_id":"CNV-INT-0109","street_names":"E 10TH ST / ST. ANDREWS AVE","neighbourhood":"Central Lonsdale","public_space_composite":43.58},"geometry":{"type":"Point","coordinates":[-123.0662156479928,49.31679452383791]}},{"id":"109","type":"Feature","properties":{"intersection_id":"CNV-INT-0110","street_names":"E 10TH ST / W GRAND BLVD","neighbourhood":"Grand Boulevard","public_space_composite":47.85},"geometry":{"type":"Point","coordinates":[-123.05765527616481,49.31670551796086]}},{"id":"111","type":"Feature","properties":{"intersection_id":"CNV-INT-0112","street_names":"E 11TH ST / W GRAND BLVD","neighbourhood":"Grand Boulevard","public_space_composite":51.93},"geometry":{"type":"Point","coordinates":[-123.05764057859166,49.317744462607024]}},{"id":"112","type":"Feature","properties":{"intersection_id":"CNV-INT-0113","street_names":"E 11TH ST / MOODY AVE","neighbourhood":"Grand Boulevard","public_space_composite":31.72},"geometry":{"type":"Point","coordinates":[-123.06008597436148,49.31777919672112]}},{"id":"113","type":"Feature","properties":{"intersection_id":"CNV-INT-0114","street_names":"E 11TH ST / RIDGEWAY AVE","neighbourhood":"Central Lonsdale","public_space_composite":39.1},"geometry":{"type":"Point","coordinates":[-123.06316173211184,49.31780903965877]}},{"id":"114","type":"Feature","properties":{"intersection_id":"CNV-INT-0115","street_names":"E 12TH ST / W GRAND BLVD","neighbourhood":"Grand Boulevard","public_space_composite":47.77},"geometry":{"type":"Point","coordinates":[-123.0575932071332,49.31878791911012]}},{"id":"115","type":"Feature","properties":{"intersection_id":"CNV-INT-0116","street_names":"E 12TH ST / MOODY AVE","neighbourhood":"Grand Boulevard","public_space_composite":31.89},"geometry":{"type":"Point","coordinates":[-123.06004810357837,49.318813655072724]}},{"id":"117","type":"Feature","properties":{"intersection_id":"CNV-INT-0118","street_names":"E 10TH ST / E 8TH ST","neighbourhood":"Lower Lonsdale","public_space_composite":53.69},"geometry":{"type":"Point","coordinates":[-123.07021045715965,49.316824504416154]}},{"id":"127","type":"Feature","properties":{"intersection_id":"CNV-INT-0128","street_names":"E 15TH ST / RUFUS AVE","neighbourhood":"Grand Boulevard","public_space_composite":23.34},"geometry":{"type":"Point","coordinates":[-123.04627933247498,49.321819860489654]}},{"id":"129","type":"Feature","properties":{"intersection_id":"CNV-INT-0130","street_names":"E 12TH ST / E GRAND BLVD","neighbourhood":"Grand Boulevard","public_space_composite":50.7},"geometry":{"type":"Point","coordinates":[-123.0564373395595,49.31876150396603]}},{"id":"130","type":"Feature","properties":{"intersection_id":"CNV-INT-0131","street_names":"E 13TH ST / E GRAND BLVD","neighbourhood":"Grand Boulevard","public_space_composite":60.18},"geometry":{"type":"Point","coordinates":[-123.0564191962817,49.31981843999737]}},{"id":"131","type":"Feature","properties":{"intersection_id":"CNV-INT-0132","street_names":"E 13TH ST / W GRAND BLVD","neighbourhood":"Grand Boulevard","public_space_composite":57.14},"geometry":{"type":"Point","coordinates":[-123.0575806636422,49.31983135895739]}},{"id":"132","type":"Feature","properties":{"intersection_id":"CNV-INT-0133","street_names":"E 14TH ST / E GRAND BLVD","neighbourhood":"Grand Boulevard","public_space_composite":55.49},"geometry":{"type":"Point","coordinates":[-123.056371781665,49.3208484029688]}},{"id":"133","type":"Feature","properties":{"intersection_id":"CNV-INT-0134","street_names":"E 14TH ST / SUTHERLAND AVE","neighbourhood":"Grand Boulevard","public_space_composite":42.32},"geometry":{"type":"Point","coordinates":[-123.05467751073729,49.320844720263956]}},{"id":"134","type":"Feature","properties":{"intersection_id":"CNV-INT-0135","street_names":"E 15TH ST / SUTHERLAND AVE","neighbourhood":"Grand Boulevard","public_space_composite":48.34},"geometry":{"type":"Point","coordinates":[-123.05467005550776,49.32187916099435]}},{"id":"135","type":"Feature","properties":{"intersection_id":"CNV-INT-0136","street_names":"E 15TH ST / E GRAND BLVD","neighbourhood":"Grand Boulevard","public_space_composite":63.05},"geometry":{"type":"Point","coordinates":[-123.05635896463912,49.32189465071392]}},{"id":"136","type":"Feature","properties":{"intersection_id":"CNV-INT-0137","street_names":"E 15TH ST / W GRAND BLVD","neighbourhood":"Grand Boulevard","public_space_composite":60.08},"geometry":{"type":"Point","coordinates":[-123.05752503735283,49.32191375662656]}},{"id":"138","type":"Feature","properties":{"intersection_id":"CNV-INT-0139","street_names":"E 16TH ST / E GRAND BLVD","neighbourhood":"Grand Boulevard","public_space_composite":57.72},"geometry":{"type":"Point","coordinates":[-123.05633205152184,49.3229372391807]}},{"id":"139","type":"Feature","properties":{"intersection_id":"CNV-INT-0140","street_names":"E 16TH ST / RUFUS AVE","neighbourhood":"Grand Boulevard","public_space_composite":23.85},"geometry":{"type":"Point","coordinates":[-123.04623902701651,49.3228633087414]}},{"id":"140","type":"Feature","properties":{"intersection_id":"CNV-INT-0141","street_names":"E 16TH ST / WILLIAM AVE","neighbourhood":"Grand Boulevard","public_space_composite":29.33},"geometry":{"type":"Point","coordinates":[-123.0507006660954,49.32289292055317]}},{"id":"142","type":"Feature","properties":{"intersection_id":"CNV-INT-0143","street_names":"E 17TH ST / WILLIAM AVE","neighbourhood":"Grand Boulevard","public_space_composite":28.88},"geometry":{"type":"Point","coordinates":[-123.05066087009202,49.32392287817353]}},{"id":"143","type":"Feature","properties":{"intersection_id":"CNV-INT-0144","street_names":"UPPER LEVELS HWY / UPPER LEVELS RAMP","neighbourhood":"Grand Boulevard","public_space_composite":37.82},"geometry":{"type":"Point","coordinates":[-123.05075378557805,49.32687773023545]}},{"id":"145","type":"Feature","properties":{"intersection_id":"CNV-INT-0146","street_names":"E 17TH ST / E GRAND BLVD","neighbourhood":"Grand Boulevard","public_space_composite":64.29},"geometry":{"type":"Point","coordinates":[-123.05630783227654,49.323974235678875]}},{"id":"146","type":"Feature","properties":{"intersection_id":"CNV-INT-0147","street_names":"E 16TH ST / W GRAND BLVD","neighbourhood":"Grand Boulevard","public_space_composite":55.82},"geometry":{"type":"Point","coordinates":[-123.05750688620323,49.32294370512236]}},{"id":"147","type":"Feature","properties":{"intersection_id":"CNV-INT-0148","street_names":"E 17TH ST / W GRAND BLVD","neighbourhood":"Grand Boulevard","public_space_composite":58.58},"geometry":{"type":"Point","coordinates":[-123.05748617361921,49.323991645824094]}},{"id":"149","type":"Feature","properties":{"intersection_id":"CNV-INT-0150","street_names":"E 18TH ST / E GRAND BLVD","neighbourhood":"Grand Boulevard","public_space_composite":54.02},"geometry":{"type":"Point","coordinates":[-123.05626041654534,49.325008696313574]}},{"id":"150","type":"Feature","properties":{"intersection_id":"CNV-INT-0151","street_names":"E 18TH ST / W GRAND BLVD","neighbourhood":"Grand Boulevard","public_space_composite":50.27},"geometry":{"type":"Point","coordinates":[-123.05745126910818,49.32503959428581]}},{"id":"152","type":"Feature","properties":{"intersection_id":"CNV-INT-0153","street_names":"CEDAR VILLAGE CRES / RUFUS DR","neighbourhood":"Cedar Village","public_space_composite":23.58},"geometry":{"type":"Point","coordinates":[-123.04500329064302,49.325895148255476]}},{"id":"153","type":"Feature","properties":{"intersection_id":"CNV-INT-0154","street_names":"E 18TH ST / WILLIAM AVE","neighbourhood":"Grand Boulevard","public_space_composite":21.43},"geometry":{"type":"Point","coordinates":[-123.05066323005812,49.324966309786774]}},{"id":"154","type":"Feature","properties":{"intersection_id":"CNV-INT-0155","street_names":"CEDAR VILLAGE CL / CEDAR VILLAGE CRES","neighbourhood":"Cedar Village","public_space_composite":23.23},"geometry":{"type":"Point","coordinates":[-123.04211933797937,49.32644043912464]}},{"id":"155","type":"Feature","properties":{"intersection_id":"CNV-INT-0156","street_names":"CASANO DR / RUFUS DR","neighbourhood":"Cedar Village","public_space_composite":23.2},"geometry":{"type":"Point","coordinates":[-123.04608506080316,49.326533374521986]}},{"id":"156","type":"Feature","properties":{"intersection_id":"CNV-INT-0157","street_names":"E 18TH ST / MOODY AVE","neighbourhood":"Grand Boulevard","public_space_composite":30.81},"geometry":{"type":"Point","coordinates":[-123.05989141280364,49.32505634581351]}},{"id":"159","type":"Feature","properties":{"intersection_id":"CNV-INT-0160","street_names":"E 19TH ST / QUEENSBURY AVE / W GRAND BLVD","neighbourhood":"Grand Boulevard","public_space_composite":57.81},"geometry":{"type":"Point","coordinates":[-123.05747763096781,49.326074018534925]}},{"id":"161","type":"Feature","properties":{"intersection_id":"CNV-INT-0162","street_names":"E 20TH ST / QUEENSBURY AVE","neighbourhood":"Grand Boulevard","public_space_composite":34.5},"geometry":{"type":"Point","coordinates":[-123.05753107340446,49.32709493555859]}},{"id":"163","type":"Feature","properties":{"intersection_id":"CNV-INT-0164","street_names":"BOULEVARD CRES / E 19TH ST / E GRAND BLVD","neighbourhood":"Grand Boulevard","public_space_composite":59.45},"geometry":{"type":"Point","coordinates":[-123.05625216453886,49.32607012300817]}},{"id":"164","type":"Feature","properties":{"intersection_id":"CNV-INT-0165","street_names":"BOULEVARD CRES / E 21ST ST / UPPER LEVELS RAMP","neighbourhood":"Grand Boulevard","public_space_composite":55.24},"geometry":{"type":"Point","coordinates":[-123.05503293694714,49.328000160008635]}},{"id":"165","type":"Feature","properties":{"intersection_id":"CNV-INT-0166","street_names":"UPPER LEVELS RAMP","neighbourhood":"Grand Boulevard","public_space_composite":44.69},"geometry":{"type":"Point","coordinates":[-123.05456197462343,49.32758660851572]}},{"id":"166","type":"Feature","properties":{"intersection_id":"CNV-INT-0167","street_names":"UPPER LEVELS RAMP","neighbourhood":"Grand Boulevard","public_space_composite":40.05},"geometry":{"type":"Point","coordinates":[-123.05389931479087,49.32727209078175]}},{"id":"169","type":"Feature","properties":{"intersection_id":"CNV-INT-0170","street_names":"E 21ST ST / QUEENSBURY AVE","neighbourhood":"Grand Boulevard","public_space_composite":37.57},"geometry":{"type":"Point","coordinates":[-123.05752930450497,49.3281608562872]}},{"id":"170","type":"Feature","properties":{"intersection_id":"CNV-INT-0171","street_names":"E 21ST ST / MOODY AVE","neighbourhood":"Grand Boulevard","public_space_composite":28.2},"geometry":{"type":"Point","coordinates":[-123.05981260163688,49.32815969724553]}},{"id":"172","type":"Feature","properties":{"intersection_id":"CNV-INT-0173","street_names":"E 22ND ST / MOODY AVE","neighbourhood":"Grand Boulevard","public_space_composite":21.83},"geometry":{"type":"Point","coordinates":[-123.05977718354481,49.32909970469945]}},{"id":"173","type":"Feature","properties":{"intersection_id":"CNV-INT-0174","street_names":"E 22ND ST / QUEENSBURY AVE","neighbourhood":"Grand Boulevard","public_space_composite":33.99},"geometry":{"type":"Point","coordinates":[-123.05749210652877,49.3290873703685]}},{"id":"176","type":"Feature","properties":{"intersection_id":"CNV-INT-0177","street_names":"BOULEVARD CRES / LYNN VALLEY RD / UPPER LEVELS HWY","neighbourhood":"Tempe","public_space_composite":53.96},"geometry":{"type":"Point","coordinates":[-123.05355652495034,49.32883739812813]}},{"id":"177","type":"Feature","properties":{"intersection_id":"CNV-INT-0178","street_names":"E 22ND ST / SUTHERLAND AVE","neighbourhood":"Grand Boulevard","public_space_composite":33.19},"geometry":{"type":"Point","coordinates":[-123.05459585581661,49.329057292764816]}},{"id":"181","type":"Feature","properties":{"intersection_id":"CNV-INT-0182","street_names":"E 13TH ST / ST. ANDREWS AVE","neighbourhood":"Central Lonsdale","public_space_composite":63.25},"geometry":{"type":"Point","coordinates":[-123.06614524899418,49.319916725853545]}},{"id":"188","type":"Feature","properties":{"intersection_id":"CNV-INT-0189","street_names":"E 14TH ST / ST. GEORGES AVE","neighbourhood":"Central Lonsdale","public_space_composite":72.31},"geometry":{"type":"Point","coordinates":[-123.06923680479215,49.32099432906337]}},{"id":"194","type":"Feature","properties":{"intersection_id":"CNV-INT-0195","street_names":"E 14TH ST / ST. ANDREWS AVE","neighbourhood":"Central Lonsdale","public_space_composite":56.34},"geometry":{"type":"Point","coordinates":[-123.06611053102914,49.320964677592166]}},{"id":"196","type":"Feature","properties":{"intersection_id":"CNV-INT-0197","street_names":"E 16TH ST / RIDGEWAY AVE","neighbourhood":"Grand Boulevard","public_space_composite":52.95},"geometry":{"type":"Point","coordinates":[-123.06298346641323,49.323008313778985]}},{"id":"197","type":"Feature","properties":{"intersection_id":"CNV-INT-0198","street_names":"E 16TH ST / MOODY AVE","neighbourhood":"Grand Boulevard","public_space_composite":46.95},"geometry":{"type":"Point","coordinates":[-123.05995640896529,49.32297844082638]}},{"id":"198","type":"Feature","properties":{"intersection_id":"CNV-INT-0199","street_names":"E 17TH ST / MOODY AVE","neighbourhood":"Grand Boulevard","public_space_composite":49.68},"geometry":{"type":"Point","coordinates":[-123.05992885126612,49.324012893751714]}},{"id":"199","type":"Feature","properties":{"intersection_id":"CNV-INT-0200","street_names":"E 17TH ST / RIDGEWAY AVE","neighbourhood":"Grand Boulevard","public_space_composite":54.55},"geometry":{"type":"Point","coordinates":[-123.06296759546795,49.32405175527348]}},{"id":"214","type":"Feature","properties":{"intersection_id":"CNV-INT-0215","street_names":"E 21ST ST / EASTERN AVE","neighbourhood":"Central Lonsdale","public_space_composite":60.11},"geometry":{"type":"Point","coordinates":[-123.0705015808231,49.328288598045226]}},{"id":"217","type":"Feature","properties":{"intersection_id":"CNV-INT-0218","street_names":"E 22ND ST / ST. ANDREWS AVE","neighbourhood":"Grand Boulevard","public_space_composite":40.87},"geometry":{"type":"Point","coordinates":[-123.06589534819604,49.32921331486829]}},{"id":"218","type":"Feature","properties":{"intersection_id":"CNV-INT-0219","street_names":"E 21ST ST / RIDGEWAY AVE","neighbourhood":"Grand Boulevard","public_space_composite":29.63},"geometry":{"type":"Point","coordinates":[-123.06288169378008,49.32818955201958]}},{"id":"223","type":"Feature","properties":{"intersection_id":"CNV-INT-0224","street_names":"E 24TH ST / ST. ANDREWS AVE","neighbourhood":"Central Lonsdale","public_space_composite":37.88},"geometry":{"type":"Point","coordinates":[-123.06587902882762,49.33116526006006]}},{"id":"224","type":"Feature","properties":{"intersection_id":"CNV-INT-0225","street_names":"E UPPER LEVELS HWY / ST. GEORGES AVE / UPPER LEVELS RAMP","neighbourhood":"Central Lonsdale","public_space_composite":49.04},"geometry":{"type":"Point","coordinates":[-123.0689614698852,49.33168517776879]}},{"id":"225","type":"Feature","properties":{"intersection_id":"CNV-INT-0226","street_names":"E UPPER LEVELS HWY / LONSDALE AVE / UPPER LEVELS RAMP","neighbourhood":"Central Lonsdale","public_space_composite":74.57},"geometry":{"type":"Point","coordinates":[-123.07209960700938,49.331714746575734]}},{"id":"226","type":"Feature","properties":{"intersection_id":"CNV-INT-0227","street_names":"UPPER LEVELS HWY / UPPER LEVELS RAMP","neighbourhood":"Grand Boulevard","public_space_composite":51.37},"geometry":{"type":"Point","coordinates":[-123.06527228068742,49.33191669590262]}},{"id":"227","type":"Feature","properties":{"intersection_id":"CNV-INT-0228","street_names":"LONSDALE AVE / UPPER LEVELS HWY","neighbourhood":"Central Lonsdale","public_space_composite":72.44},"geometry":{"type":"Point","coordinates":[-123.07208623091691,49.33198010941]}},{"id":"228","type":"Feature","properties":{"intersection_id":"CNV-INT-0229","street_names":"VINEDALE RD / WILDING PL / WILDING WAY","neighbourhood":"Tempe","public_space_composite":29.17},"geometry":{"type":"Point","coordinates":[-123.05370870073331,49.332327427018356]}},{"id":"229","type":"Feature","properties":{"intersection_id":"CNV-INT-0230","street_names":"26TH CRES / E 26TH ST / WILDING WAY","neighbourhood":"Tempe","public_space_composite":25.41},"geometry":{"type":"Point","coordinates":[-123.05367601092094,49.333119010664596]}},{"id":"230","type":"Feature","properties":{"intersection_id":"CNV-INT-0231","street_names":"E 24TH ST / RIDGEWAY AVE","neighbourhood":"Grand Boulevard","public_space_composite":25.0},"geometry":{"type":"Point","coordinates":[-123.06277190495098,49.331140003974355]}},{"id":"231","type":"Feature","properties":{"intersection_id":"CNV-INT-0232","street_names":"E 25TH ST / RIDGEWAY AVE","neighbourhood":"Tempe","public_space_composite":25.11},"geometry":{"type":"Point","coordinates":[-123.06274704679683,49.33222392767921]}},{"id":"232","type":"Feature","properties":{"intersection_id":"CNV-INT-0233","street_names":"TEMPE GLEN DR / TEMPE KNOLL DR","neighbourhood":"Tempe","public_space_composite":38.06},"geometry":{"type":"Point","coordinates":[-123.05746516578327,49.33254599941379]}},{"id":"233","type":"Feature","properties":{"intersection_id":"CNV-INT-0234","street_names":"E 26TH ST / RIDGEWAY AVE","neighbourhood":"Tempe","public_space_composite":22.68},"geometry":{"type":"Point","coordinates":[-123.06273392677791,49.333069473870125]}},{"id":"234","type":"Feature","properties":{"intersection_id":"CNV-INT-0235","street_names":"MAITLAND AVE / TEMPE CRES","neighbourhood":"Tempe","public_space_composite":28.38},"geometry":{"type":"Point","coordinates":[-123.0615579669346,49.333411919776665]}},{"id":"235","type":"Feature","properties":{"intersection_id":"CNV-INT-0236","street_names":"BRAND ST / MAITLAND AVE","neighbourhood":"Tempe","public_space_composite":33.63},"geometry":{"type":"Point","coordinates":[-123.06153492738409,49.333906661362924]}},{"id":"237","type":"Feature","properties":{"intersection_id":"CNV-INT-0238","street_names":"MAITLAND AVE / SOMERSET ST","neighbourhood":"Tempe","public_space_composite":31.65},"geometry":{"type":"Point","coordinates":[-123.06154288467543,49.334770186131514]}},{"id":"238","type":"Feature","properties":{"intersection_id":"CNV-INT-0239","street_names":"WEYMOUTH DR / WILDING WAY","neighbourhood":"Tempe","public_space_composite":29.94},"geometry":{"type":"Point","coordinates":[-123.05370779552726,49.33149538002852]}},{"id":"239","type":"Feature","properties":{"intersection_id":"CNV-INT-0240","street_names":"26TH CRES / TEMPE KNOLL DR","neighbourhood":"Tempe","public_space_composite":24.74},"geometry":{"type":"Point","coordinates":[-123.05639164411625,49.332218208023264]}},{"id":"240","type":"Feature","properties":{"intersection_id":"CNV-INT-0241","street_names":"MUNDAY PL / TEMPE GLEN DR","neighbourhood":"Tempe","public_space_composite":39.13},"geometry":{"type":"Point","coordinates":[-123.05553965554023,49.334193043104506]}},{"id":"241","type":"Feature","properties":{"intersection_id":"CNV-INT-0242","street_names":"TEMPE GLEN DR / TEMPE KNOLL DR","neighbourhood":"Tempe","public_space_composite":38.74},"geometry":{"type":"Point","coordinates":[-123.05518683382905,49.33447655755056]}},{"id":"242","type":"Feature","properties":{"intersection_id":"CNV-INT-0243","street_names":"MUNDAY PL / TEMPE GLEN DR","neighbourhood":"Tempe","public_space_composite":38.57},"geometry":{"type":"Point","coordinates":[-123.05478453291012,49.33475109927469]}},{"id":"243","type":"Feature","properties":{"intersection_id":"CNV-INT-0244","street_names":"E 25TH ST / ST. ANDREWS AVE","neighbourhood":"Tempe","public_space_composite":33.54},"geometry":{"type":"Point","coordinates":[-123.06583269572302,49.33222221138006]}},{"id":"246","type":"Feature","properties":{"intersection_id":"CNV-INT-0247","street_names":"E 28TH ST / ST. ANDREWS AVE","neighbourhood":"Tempe","public_space_composite":33.28},"geometry":{"type":"Point","coordinates":[-123.0657855801055,49.33495224866621]}},{"id":"247","type":"Feature","properties":{"intersection_id":"CNV-INT-0248","street_names":"E 25TH ST","neighbourhood":"Tempe","public_space_composite":42.76},"geometry":{"type":"Point","coordinates":[-123.06952780241127,49.33229822004344]}},{"id":"249","type":"Feature","properties":{"intersection_id":"CNV-INT-0250","street_names":"E 25TH ST / LONSDALE AVE / W 25TH ST","neighbourhood":"Central Lonsdale","public_space_composite":68.82},"geometry":{"type":"Point","coordinates":[-123.07206734784256,49.33230394469631]}},{"id":"251","type":"Feature","properties":{"intersection_id":"CNV-INT-0252","street_names":"E 26TH ST / ST. GEORGES AVE","neighbourhood":"Tempe","public_space_composite":36.91},"geometry":{"type":"Point","coordinates":[-123.06891935554006,49.33325034975352]}},{"id":"254","type":"Feature","properties":{"intersection_id":"CNV-INT-0255","street_names":"E 28TH ST / ST. ANDREWS AVE","neighbourhood":"Tempe","public_space_composite":35.04},"geometry":{"type":"Point","coordinates":[-123.0660712543116,49.33499706118579]}},{"id":"255","type":"Feature","properties":{"intersection_id":"CNV-INT-0256","street_names":"E 27TH ST / EASTERN AVE","neighbourhood":"Tempe","public_space_composite":44.26},"geometry":{"type":"Point","coordinates":[-123.07046692410402,49.33413993103519]}},{"id":"256","type":"Feature","properties":{"intersection_id":"CNV-INT-0257","street_names":"E 28TH ST / ST. GEORGES AVE","neighbourhood":"Tempe","public_space_composite":41.49},"geometry":{"type":"Point","coordinates":[-123.0688805236183,49.3350134113886]}},{"id":"257","type":"Feature","properties":{"intersection_id":"CNV-INT-0258","street_names":"E ESPLANADE / ST. ANDREWS AVE","neighbourhood":"Lower Lonsdale","public_space_composite":40.04},"geometry":{"type":"Point","coordinates":[-123.0733726059745,49.30847056466284]}},{"id":"261","type":"Feature","properties":{"intersection_id":"CNV-INT-0262","street_names":"ST. GEORGES AVE / VICTORY SHIP WAY","neighbourhood":"Lower Lonsdale","public_space_composite":37.32},"geometry":{"type":"Point","coordinates":[-123.07687585408108,49.30928453286305]}},{"id":"264","type":"Feature","properties":{"intersection_id":"CNV-INT-0265","street_names":"VICTORY SHIP WAY / WALLACE MEWS","neighbourhood":"Lower Lonsdale","public_space_composite":49.09},"geometry":{"type":"Point","coordinates":[-123.07905062257204,49.31033431522164]}},{"id":"268","type":"Feature","properties":{"intersection_id":"CNV-INT-0269","street_names":"CARRIE CATES CRT / MUSEUM MUSE","neighbourhood":"Lower Lonsdale","public_space_composite":71.09},"geometry":{"type":"Point","coordinates":[-123.08074546187335,49.31063113288448]}},{"id":"275","type":"Feature","properties":{"intersection_id":"CNV-INT-0276","street_names":"CARRIE CATES CRT / CHESTERFIELD AVE / CHESTERFIELD PL","neighbourhood":"Lower Lonsdale","public_space_composite":72.68},"geometry":{"type":"Point","coordinates":[-123.0832574496717,49.311751586179575]}},{"id":"283","type":"Feature","properties":{"intersection_id":"CNV-INT-0284","street_names":"E KEITH RD / E VICTORIA PARK AVE","neighbourhood":"Lower Lonsdale","public_space_composite":57.58},"geometry":{"type":"Point","coordinates":[-123.07199527302367,49.31561805996375]}},{"id":"287","type":"Feature","properties":{"intersection_id":"CNV-INT-0288","street_names":"FORBES AVE / W ESPLANADE","neighbourhood":"Squamish Nation (Mission IR 1)","public_space_composite":61.43},"geometry":{"type":"Point","coordinates":[-123.08598396784814,49.31389043033876]}},{"id":"293","type":"Feature","properties":{"intersection_id":"CNV-INT-0294","street_names":"CHESTERFIELD AVE / W 6TH ST","neighbourhood":"Lower Lonsdale","public_space_composite":45.43},"geometry":{"type":"Point","coordinates":[-123.07761810341798,49.3173189970505]}},{"id":"294","type":"Feature","properties":{"intersection_id":"CNV-INT-0295","street_names":"CHESTERFIELD AVE / W 6TH ST","neighbourhood":"Lower Lonsdale","public_space_composite":45.51},"geometry":{"type":"Point","coordinates":[-123.0777301393005,49.3171974867216]}},{"id":"295","type":"Feature","properties":{"intersection_id":"CNV-INT-0296","street_names":"FORBES AVE / W 1ST ST","neighbourhood":"Squamish Nation (Mission IR 1)","public_space_composite":69.78},"geometry":{"type":"Point","coordinates":[-123.0859201018477,49.31499238073029]}},{"id":"299","type":"Feature","properties":{"intersection_id":"CNV-INT-0300","street_names":"MAHON AVE / W 4TH ST","neighbourhood":"Lower Lonsdale","public_space_composite":58.32},"geometry":{"type":"Point","coordinates":[-123.08244273566359,49.31691537238909]}},{"id":"301","type":"Feature","properties":{"intersection_id":"CNV-INT-0302","street_names":"E KEITH RD / LONSDALE AVE / W KEITH RD","neighbourhood":"Lower Lonsdale","public_space_composite":78.77},"geometry":{"type":"Point","coordinates":[-123.07307402626493,49.31733095458266]}},{"id":"303","type":"Feature","properties":{"intersection_id":"CNV-INT-0304","street_names":"W KEITH RD / W VICTORIA PARK AVE","neighbourhood":"Lower Lonsdale","public_space_composite":62.39},"geometry":{"type":"Point","coordinates":[-123.07489836019235,49.318116858828965]}},{"id":"304","type":"Feature","properties":{"intersection_id":"CNV-INT-0305","street_names":"W KEITH RD / W VICTORIA PARK AVE","neighbourhood":"Lower Lonsdale","public_space_composite":59.65},"geometry":{"type":"Point","coordinates":[-123.07593164935446,49.31784633099142]}},{"id":"306","type":"Feature","properties":{"intersection_id":"CNV-INT-0307","street_names":"MAHON AVE / W 5TH ST","neighbourhood":"Squamish Nation (Mission IR 1)","public_space_composite":49.66},"geometry":{"type":"Point","coordinates":[-123.0815609705869,49.31777503207058]}},{"id":"307","type":"Feature","properties":{"intersection_id":"CNV-INT-0308","street_names":"CHESTERFIELD AVE / W 6TH ST","neighbourhood":"Lower Lonsdale","public_space_composite":45.7},"geometry":{"type":"Point","coordinates":[-123.07751379400496,49.317431505166674]}},{"id":"310","type":"Feature","properties":{"intersection_id":"CNV-INT-0311","street_names":"MAHON AVE / W 6TH ST","neighbourhood":"Lower Lonsdale","public_space_composite":46.41},"geometry":{"type":"Point","coordinates":[-123.08054693371442,49.31875621215327]}},{"id":"311","type":"Feature","properties":{"intersection_id":"CNV-INT-0312","street_names":"CHESTERFIELD AVE / W 8TH ST","neighbourhood":"Central Lonsdale","public_space_composite":62.28},"geometry":{"type":"Point","coordinates":[-123.07566798924013,49.31920026931399]}},{"id":"314","type":"Feature","properties":{"intersection_id":"CNV-INT-0315","street_names":"FELL AVE / HARBOUR WAY","neighbourhood":"Marine-Hamilton","public_space_composite":31.28},"geometry":{"type":"Point","coordinates":[-123.09483983854658,49.313993040554344]}},{"id":"316","type":"Feature","properties":{"intersection_id":"CNV-INT-0317","street_names":"HARBOUR WAY / HARBOURSIDE DR","neighbourhood":"Marine-Hamilton","public_space_composite":31.53},"geometry":{"type":"Point","coordinates":[-123.09406288610417,49.314530367028]}},{"id":"318","type":"Feature","properties":{"intersection_id":"CNV-INT-0319","street_names":"GOSTICK PL / HARBOURSIDE DR","neighbourhood":"Marine-Hamilton","public_space_composite":30.25},"geometry":{"type":"Point","coordinates":[-123.09285304686665,49.31451477724576]}},{"id":"319","type":"Feature","properties":{"intersection_id":"CNV-INT-0320","street_names":"FORBES AVE / W ESPLANADE","neighbourhood":"Lower Lonsdale","public_space_composite":44.87},"geometry":{"type":"Point","coordinates":[-123.08605667614869,49.31342263052285]}},{"id":"320","type":"Feature","properties":{"intersection_id":"CNV-INT-0321","street_names":"FORBES AVE / W 1ST ST","neighbourhood":"Squamish Nation (Mission IR 1)","public_space_composite":67.21},"geometry":{"type":"Point","coordinates":[-123.08593345388749,49.31475849755362]}},{"id":"321","type":"Feature","properties":{"intersection_id":"CNV-INT-0322","street_names":"MISSION RD / W ESPLANADE","neighbourhood":"Squamish Nation (Mission IR 1)","public_space_composite":34.97},"geometry":{"type":"Point","coordinates":[-123.08896658073402,49.31675761751135]}},{"id":"323","type":"Feature","properties":{"intersection_id":"CNV-INT-0324","street_names":"W 1ST ST / W 2ND ST","neighbourhood":"Squamish Nation (Mission IR 1)","public_space_composite":41.69},"geometry":{"type":"Point","coordinates":[-123.0878284756354,49.31654710352592]}},{"id":"325","type":"Feature","properties":{"intersection_id":"CNV-INT-0326","street_names":"MISSION RD / W 1ST ST","neighbourhood":"Squamish Nation (Mission IR 1)","public_space_composite":39.95},"geometry":{"type":"Point","coordinates":[-123.08824850799348,49.31699653967047]}},{"id":"327","type":"Feature","properties":{"intersection_id":"CNV-INT-0328","street_names":"AUTOMALL DR","neighbourhood":"Marine-Hamilton","public_space_composite":28.41},"geometry":{"type":"Point","coordinates":[-123.09638378192729,49.315916352165935]}},{"id":"328","type":"Feature","properties":{"intersection_id":"CNV-INT-0329","street_names":"AUTOMALL DR","neighbourhood":"Marine-Hamilton","public_space_composite":31.06},"geometry":{"type":"Point","coordinates":[-123.09731904643183,49.31592333479598]}},{"id":"329","type":"Feature","properties":{"intersection_id":"CNV-INT-0330","street_names":"AUTOMALL DR","neighbourhood":"Marine-Hamilton","public_space_composite":30.33},"geometry":{"type":"Point","coordinates":[-123.09676176007238,49.31625979846516]}},{"id":"333","type":"Feature","properties":{"intersection_id":"CNV-INT-0334","street_names":"W 4TH ST / W CHIEF JOSEPH CRES","neighbourhood":"Lower Lonsdale","public_space_composite":47.79},"geometry":{"type":"Point","coordinates":[-123.08440538538498,49.3177909809036]}},{"id":"334","type":"Feature","properties":{"intersection_id":"CNV-INT-0335","street_names":"FORBES AVE / W 4TH ST","neighbourhood":"Squamish Nation (Mission IR 1)","public_space_composite":50.56},"geometry":{"type":"Point","coordinates":[-123.08578073289131,49.31842412334309]}},{"id":"335","type":"Feature","properties":{"intersection_id":"CNV-INT-0336","street_names":"W 5TH ST / W 6TH ST","neighbourhood":"Lower Lonsdale","public_space_composite":53.27},"geometry":{"type":"Point","coordinates":[-123.08425086866018,49.31896495583407]}},{"id":"336","type":"Feature","properties":{"intersection_id":"CNV-INT-0337","street_names":"MAHON AVE / W 6TH ST","neighbourhood":"Lower Lonsdale","public_space_composite":46.6},"geometry":{"type":"Point","coordinates":[-123.08066629694706,49.3186481874788]}},{"id":"337","type":"Feature","properties":{"intersection_id":"CNV-INT-0338","street_names":"DELBRUCK AVE / W ESPLANADE","neighbourhood":"Squamish Nation (Mission IR 1)","public_space_composite":35.98},"geometry":{"type":"Point","coordinates":[-123.0895520276434,49.31760270678428]}},{"id":"338","type":"Feature","properties":{"intersection_id":"CNV-INT-0339","street_names":"MISSION RD / W 2ND ST","neighbourhood":"Squamish Nation (Mission IR 1)","public_space_composite":38.95},"geometry":{"type":"Point","coordinates":[-123.08758467805318,49.3175104196041]}},{"id":"339","type":"Feature","properties":{"intersection_id":"CNV-INT-0340","street_names":"DELBRUCK AVE / W 1ST ST","neighbourhood":"Squamish Nation (Mission IR 1)","public_space_composite":38.23},"geometry":{"type":"Point","coordinates":[-123.0890585882573,49.317944902650574]}},{"id":"342","type":"Feature","properties":{"intersection_id":"CNV-INT-0343","street_names":"MISSION RD / W 4TH ST","neighbourhood":"Squamish Nation (Mission IR 1)","public_space_composite":44.97},"geometry":{"type":"Point","coordinates":[-123.08717875907843,49.31837195799549]}},{"id":"344","type":"Feature","properties":{"intersection_id":"CNV-INT-0345","street_names":"W 2ND ST / W 3RD ST / W 6TH ST","neighbourhood":"Squamish Nation (Mission IR 1)","public_space_composite":69.38},"geometry":{"type":"Point","coordinates":[-123.08982380939291,49.31903721747439]}},{"id":"345","type":"Feature","properties":{"intersection_id":"CNV-INT-0346","street_names":"BEWICKE AVE / MARINE DR / W 3RD ST / W KEITH RD","neighbourhood":"Marine-Hamilton","public_space_composite":74.04},"geometry":{"type":"Point","coordinates":[-123.09141286529828,49.32007490856621]}},{"id":"358","type":"Feature","properties":{"intersection_id":"CNV-INT-0359","street_names":"MARINE DR / W 14TH ST","neighbourhood":"Marine-Hamilton","public_space_composite":66.04},"geometry":{"type":"Point","coordinates":[-123.09382205070807,49.320896030210804]}},{"id":"360","type":"Feature","properties":{"intersection_id":"CNV-INT-0361","street_names":"HAMILTON AVE / MACKAY RD","neighbourhood":"Marine-Hamilton","public_space_composite":49.15},"geometry":{"type":"Point","coordinates":[-123.102207987012,49.32180642026369]}},{"id":"362","type":"Feature","properties":{"intersection_id":"CNV-INT-0363","street_names":"HANES AVE / MARINE DR","neighbourhood":"Marine-Hamilton","public_space_composite":67.69},"geometry":{"type":"Point","coordinates":[-123.09793374203697,49.322345330358274]}},{"id":"364","type":"Feature","properties":{"intersection_id":"CNV-INT-0365","street_names":"MOSQUITO CREEK LANE / W 15TH ST","neighbourhood":"Marine-Hamilton","public_space_composite":52.25},"geometry":{"type":"Point","coordinates":[-123.09343283718098,49.322242572378784]}},{"id":"369","type":"Feature","properties":{"intersection_id":"CNV-INT-0370","street_names":"JONES AVE / W 16TH ST","neighbourhood":"Mahon","public_space_composite":61.98},"geometry":{"type":"Point","coordinates":[-123.08167399013118,49.3231945096864]}},{"id":"371","type":"Feature","properties":{"intersection_id":"CNV-INT-0372","street_names":"FORBES AVE / W 6TH ST","neighbourhood":"Squamish Nation (Mission IR 1)","public_space_composite":44.84},"geometry":{"type":"Point","coordinates":[-123.08575152201729,49.31893686680449]}},{"id":"372","type":"Feature","properties":{"intersection_id":"CNV-INT-0373","street_names":"JONES AVE / W 6TH ST","neighbourhood":"Lower Lonsdale","public_space_composite":49.52},"geometry":{"type":"Point","coordinates":[-123.08176457088575,49.31894425373139]}},{"id":"373","type":"Feature","properties":{"intersection_id":"CNV-INT-0374","street_names":"FORBES AVE / W 6TH ST","neighbourhood":"Squamish Nation (Mission IR 1)","public_space_composite":46.37},"geometry":{"type":"Point","coordinates":[-123.084870538088,49.31898699024873]}},{"id":"378","type":"Feature","properties":{"intersection_id":"CNV-INT-0379","street_names":"MAHON AVE / W 13TH ST","neighbourhood":"Central Lonsdale","public_space_composite":73.94},"geometry":{"type":"Point","coordinates":[-123.07863377768757,49.320048329024864]}},{"id":"381","type":"Feature","properties":{"intersection_id":"CNV-INT-0382","street_names":"W 12TH ST / W 8TH ST","neighbourhood":"Central Lonsdale","public_space_composite":57.15},"geometry":{"type":"Point","coordinates":[-123.07502391176938,49.318962318573]}},{"id":"383","type":"Feature","properties":{"intersection_id":"CNV-INT-0384","street_names":"CIVIC PLACE MEWS / W 14TH ST","neighbourhood":"Central Lonsdale","public_space_composite":67.46},"geometry":{"type":"Point","coordinates":[-123.0747015697683,49.32105578049793]}},{"id":"401","type":"Feature","properties":{"intersection_id":"CNV-INT-0402","street_names":"MAHON AVE / W 20TH ST","neighbourhood":"Mahon","public_space_composite":37.39},"geometry":{"type":"Point","coordinates":[-123.07845829093515,49.327329989698654]}},{"id":"410","type":"Feature","properties":{"intersection_id":"CNV-INT-0411","street_names":"JONES AVE / W 21ST ST","neighbourhood":"Mahon","public_space_composite":50.55},"geometry":{"type":"Point","coordinates":[-123.08152946614135,49.32838478980298]}},{"id":"411","type":"Feature","properties":{"intersection_id":"CNV-INT-0412","street_names":"MAHON AVE / W 22ND ST","neighbourhood":"Mahon","public_space_composite":39.67},"geometry":{"type":"Point","coordinates":[-123.07841246111931,49.3293449240228]}},{"id":"412","type":"Feature","properties":{"intersection_id":"CNV-INT-0413","street_names":"JONES AVE / W 22ND ST","neighbourhood":"Mahon","public_space_composite":46.7},"geometry":{"type":"Point","coordinates":[-123.08150698664906,49.329356275875746]}},{"id":"415","type":"Feature","properties":{"intersection_id":"CNV-INT-0416","street_names":"MAHON AVE / W 24TH ST","neighbourhood":"Mahon","public_space_composite":37.72},"geometry":{"type":"Point","coordinates":[-123.07835018637668,49.33129690397732]}},{"id":"416","type":"Feature","properties":{"intersection_id":"CNV-INT-0417","street_names":"JONES AVE","neighbourhood":"Mahon","public_space_composite":45.23},"geometry":{"type":"Point","coordinates":[-123.0815012484721,49.32960197348711]}},{"id":"417","type":"Feature","properties":{"intersection_id":"CNV-INT-0418","street_names":"LARSON CRES / LARSON RD","neighbourhood":"Mahon","public_space_composite":42.99},"geometry":{"type":"Point","coordinates":[-123.0844635662694,49.329183247066666]}},{"id":"419","type":"Feature","properties":{"intersection_id":"CNV-INT-0420","street_names":"JONES AVE / W 24TH ST","neighbourhood":"Mahon","public_space_composite":36.78},"geometry":{"type":"Point","coordinates":[-123.08145819382426,49.331326237313675]}},{"id":"420","type":"Feature","properties":{"intersection_id":"CNV-INT-0421","street_names":"LARSON RD / W 24TH ST","neighbourhood":"Mahon","public_space_composite":29.03},"geometry":{"type":"Point","coordinates":[-123.08458253630577,49.33134648182382]}},{"id":"423","type":"Feature","properties":{"intersection_id":"CNV-INT-0424","street_names":"CHURCHILL CRES / MACKAY RD","neighbourhood":"Marine-Hamilton","public_space_composite":46.47},"geometry":{"type":"Point","coordinates":[-123.10216613155369,49.32298481718379]}},{"id":"425","type":"Feature","properties":{"intersection_id":"CNV-INT-0426","street_names":"HAMILTON AVE / W 16TH ST","neighbourhood":"Marine-Hamilton","public_space_composite":66.56},"geometry":{"type":"Point","coordinates":[-123.09977530801378,49.323283744564954]}},{"id":"426","type":"Feature","properties":{"intersection_id":"CNV-INT-0427","street_names":"LARSON RD / W 16TH ST","neighbourhood":"Mahon","public_space_composite":49.18},"geometry":{"type":"Point","coordinates":[-123.09293533235954,49.32339738827996]}},{"id":"432","type":"Feature","properties":{"intersection_id":"CNV-INT-0433","street_names":"BEWICKE AVE / W 16TH ST","neighbourhood":"Marine-Hamilton","public_space_composite":47.13},"geometry":{"type":"Point","coordinates":[-123.09120077010515,49.32328183355663]}},{"id":"433","type":"Feature","properties":{"intersection_id":"CNV-INT-0434","street_names":"BEWICKE AVE / LARSON RD","neighbourhood":"Mahon","public_space_composite":58.82},"geometry":{"type":"Point","coordinates":[-123.09114371507711,49.324289331921705]}},{"id":"434","type":"Feature","properties":{"intersection_id":"CNV-INT-0435","street_names":"LARSON RD / W 17TH ST","neighbourhood":"Mahon","public_space_composite":56.58},"geometry":{"type":"Point","coordinates":[-123.0910337475769,49.32435688101674]}},{"id":"435","type":"Feature","properties":{"intersection_id":"CNV-INT-0436","street_names":"W 17TH ST / WOLFE ST","neighbourhood":"Mahon","public_space_composite":37.39},"geometry":{"type":"Point","coordinates":[-123.08838241209803,49.32430496822955]}},{"id":"436","type":"Feature","properties":{"intersection_id":"CNV-INT-0437","street_names":"FIR ST / WOLFE ST","neighbourhood":"Mahon","public_space_composite":41.99},"geometry":{"type":"Point","coordinates":[-123.0883645174161,49.32511903993829]}},{"id":"439","type":"Feature","properties":{"intersection_id":"CNV-INT-0440","street_names":"HAMILTON AVE / W 17TH ST","neighbourhood":"Marine-Hamilton","public_space_composite":58.02},"geometry":{"type":"Point","coordinates":[-123.09900533979383,49.32447176229712]}},{"id":"440","type":"Feature","properties":{"intersection_id":"CNV-INT-0441","street_names":"CUMBERLAND CRES / HAMILTON AVE","neighbourhood":"Marine-Hamilton","public_space_composite":42.69},"geometry":{"type":"Point","coordinates":[-123.09817397242715,49.32572728833031]}},{"id":"443","type":"Feature","properties":{"intersection_id":"CNV-INT-0444","street_names":"CUMBERLAND CRES / W 19TH ST","neighbourhood":"Marine-Hamilton","public_space_composite":25.67},"geometry":{"type":"Point","coordinates":[-123.09437708543378,49.32645905479453]}},{"id":"444","type":"Feature","properties":{"intersection_id":"CNV-INT-0445","street_names":"LARSON RD / W 19TH ST","neighbourhood":"Mahon","public_space_composite":38.84},"geometry":{"type":"Point","coordinates":[-123.08740598148148,49.326365590663734]}},{"id":"446","type":"Feature","properties":{"intersection_id":"CNV-INT-0447","street_names":"LARSON RD / W 20TH ST","neighbourhood":"Mahon","public_space_composite":37.44},"geometry":{"type":"Point","coordinates":[-123.08659500222893,49.327171263135845]}},{"id":"448","type":"Feature","properties":{"intersection_id":"CNV-INT-0449","street_names":"W 20TH ST / WOLFE ST","neighbourhood":"Mahon","public_space_composite":26.01},"geometry":{"type":"Point","coordinates":[-123.08575683234469,49.32694701042155]}},{"id":"449","type":"Feature","properties":{"intersection_id":"CNV-INT-0450","street_names":"CARSON CRT / W 20TH ST","neighbourhood":"Mahon","public_space_composite":31.23},"geometry":{"type":"Point","coordinates":[-123.08614233679114,49.32702702800563]}},{"id":"450","type":"Feature","properties":{"intersection_id":"CNV-INT-0451","street_names":"LARSON RD / W 20TH ST","neighbourhood":"Mahon","public_space_composite":37.53},"geometry":{"type":"Point","coordinates":[-123.08641128582131,49.32737379140939]}},{"id":"452","type":"Feature","properties":{"intersection_id":"CNV-INT-0453","street_names":"MACKAY AVE / W 19TH ST","neighbourhood":"Marine-Hamilton","public_space_composite":44.08},"geometry":{"type":"Point","coordinates":[-123.10060459376653,49.32653475790015]}},{"id":"453","type":"Feature","properties":{"intersection_id":"CNV-INT-0454","street_names":"HAMILTON AVE / W 19TH ST","neighbourhood":"Marine-Hamilton","public_space_composite":40.71},"geometry":{"type":"Point","coordinates":[-123.09774500529772,49.32649673362325]}},{"id":"456","type":"Feature","properties":{"intersection_id":"CNV-INT-0457","street_names":"NEILSON AVE / W 20TH ST","neighbourhood":"Marine-Hamilton","public_space_composite":29.19},"geometry":{"type":"Point","coordinates":[-123.09538330264351,49.32750166202707]}},{"id":"457","type":"Feature","properties":{"intersection_id":"CNV-INT-0458","street_names":"HAMILTON AVE / W 20TH ST","neighbourhood":"Marine-Hamilton","public_space_composite":40.41},"geometry":{"type":"Point","coordinates":[-123.09783262969637,49.327526600074606]}},{"id":"459","type":"Feature","properties":{"intersection_id":"CNV-INT-0460","street_names":"NEILSON AVE / W 21ST ST","neighbourhood":"Marine-Hamilton","public_space_composite":24.49},"geometry":{"type":"Point","coordinates":[-123.09535078795228,49.32856155281454]}},{"id":"460","type":"Feature","properties":{"intersection_id":"CNV-INT-0461","street_names":"HAMILTON AVE / W 21ST ST","neighbourhood":"Marine-Hamilton","public_space_composite":31.65},"geometry":{"type":"Point","coordinates":[-123.09784803803731,49.32857451584371]}},{"id":"461","type":"Feature","properties":{"intersection_id":"CNV-INT-0462","street_names":"EDGEMONT BLVD / W 21ST ST","neighbourhood":"Marine-Hamilton","public_space_composite":27.22},"geometry":{"type":"Point","coordinates":[-123.09316735317348,49.32862253787849]}},{"id":"462","type":"Feature","properties":{"intersection_id":"CNV-INT-0463","street_names":"EDGEMONT BLVD / WESTMORELAND CRES","neighbourhood":"Marine-Hamilton","public_space_composite":29.1},"geometry":{"type":"Point","coordinates":[-123.09412683545709,49.32964352682088]}},{"id":"463","type":"Feature","properties":{"intersection_id":"CNV-INT-0464","street_names":"MACKAY AVE / W 22ND ST","neighbourhood":"Marine-Hamilton","public_space_composite":39.34},"geometry":{"type":"Point","coordinates":[-123.10177655220969,49.329677521008826]}},{"id":"466","type":"Feature","properties":{"intersection_id":"CNV-INT-0467","street_names":"ALDEN LANE / WESTMORELAND CRES","neighbourhood":"Marine-Hamilton","public_space_composite":22.92},"geometry":{"type":"Point","coordinates":[-123.0927951827601,49.32937025209133]}},{"id":"467","type":"Feature","properties":{"intersection_id":"CNV-INT-0468","street_names":"W 23RD ST / WESTVIEW DR","neighbourhood":"Mahon","public_space_composite":53.96},"geometry":{"type":"Point","coordinates":[-123.08819378730243,49.33041728652702]}},{"id":"468","type":"Feature","properties":{"intersection_id":"CNV-INT-0469","street_names":"ALDEN LANE / W 23RD ST","neighbourhood":null,"public_space_composite":24.19},"geometry":{"type":"Point","coordinates":[-123.0932486214239,49.33102948334372]}},{"id":"469","type":"Feature","properties":{"intersection_id":"CNV-INT-0470","street_names":"CHESTERFIELD AVE / W 24TH ST","neighbourhood":"Central Lonsdale","public_space_composite":36.13},"geometry":{"type":"Point","coordinates":[-123.07526580208177,49.33124498303991]}},{"id":"470","type":"Feature","properties":{"intersection_id":"CNV-INT-0471","street_names":"UPPER LEVELS HWY / UPPER LEVELS RAMP","neighbourhood":"Westview","public_space_composite":52.79},"geometry":{"type":"Point","coordinates":[-123.07830314143484,49.332007548638465]}},{"id":"471","type":"Feature","properties":{"intersection_id":"CNV-INT-0472","street_names":"UPPER LEVELS RAMP / W 25TH ST","neighbourhood":"Westview","public_space_composite":49.49},"geometry":{"type":"Point","coordinates":[-123.0738858730791,49.332298299875546]}},{"id":"472","type":"Feature","properties":{"intersection_id":"CNV-INT-0473","street_names":"CHESTERFIELD AVE / W 25TH ST","neighbourhood":"Westview","public_space_composite":33.82},"geometry":{"type":"Point","coordinates":[-123.0752253306104,49.33234690801283]}},{"id":"473","type":"Feature","properties":{"intersection_id":"CNV-INT-0474","street_names":"MAHON AVE / W 25TH ST","neighbourhood":"Westview","public_space_composite":33.62},"geometry":{"type":"Point","coordinates":[-123.07832693130979,49.33236283797709]}},{"id":"474","type":"Feature","properties":{"intersection_id":"CNV-INT-0475","street_names":"JONES AVE / W 25TH ST","neighbourhood":"Westview","public_space_composite":32.91},"geometry":{"type":"Point","coordinates":[-123.08144228143375,49.33236967992773]}},{"id":"475","type":"Feature","properties":{"intersection_id":"CNV-INT-0476","street_names":"MAHON AVE / W 26TH ST","neighbourhood":"Westview","public_space_composite":31.48},"geometry":{"type":"Point","coordinates":[-123.07830035694302,49.33323538036166]}},{"id":"476","type":"Feature","properties":{"intersection_id":"CNV-INT-0477","street_names":"CHESTERFIELD AVE / W 26TH ST","neighbourhood":"Westview","public_space_composite":34.05},"geometry":{"type":"Point","coordinates":[-123.07521286881072,49.33320145030287]}},{"id":"478","type":"Feature","properties":{"intersection_id":"CNV-INT-0479","street_names":"MAHON AVE / W 27TH ST","neighbourhood":"Westview","public_space_composite":30.96},"geometry":{"type":"Point","coordinates":[-123.07827437787864,49.334211365791866]}},{"id":"482","type":"Feature","properties":{"intersection_id":"CNV-INT-0483","street_names":"W 27TH ST / WESTERN AVE","neighbourhood":"Central Lonsdale","public_space_composite":45.66},"geometry":{"type":"Point","coordinates":[-123.07362713270899,49.334155951382655]}},{"id":"483","type":"Feature","properties":{"intersection_id":"CNV-INT-0484","street_names":"CHESTERFIELD AVE / W 28TH ST","neighbourhood":"Westview","public_space_composite":39.62},"geometry":{"type":"Point","coordinates":[-123.07516025269194,49.335085956824834]}},{"id":"485","type":"Feature","properties":{"intersection_id":"CNV-INT-0486","street_names":"MAHON AVE / W 28TH ST","neighbourhood":"Westview","public_space_composite":35.51},"geometry":{"type":"Point","coordinates":[-123.07826162179228,49.33511987890049]}},{"id":"487","type":"Feature","properties":{"intersection_id":"CNV-INT-0488","street_names":"W 23RD ST / W 24TH CL","neighbourhood":"Mahon","public_space_composite":37.11},"geometry":{"type":"Point","coordinates":[-123.08846948056289,49.330417075833715]}},{"id":"488","type":"Feature","properties":{"intersection_id":"CNV-INT-0489","street_names":"WESTVIEW DR","neighbourhood":"Mahon","public_space_composite":55.41},"geometry":{"type":"Point","coordinates":[-123.08818402465116,49.33169459904064]}},{"id":"489","type":"Feature","properties":{"intersection_id":"CNV-INT-0490","street_names":"UPPER LEVELS HWY / WESTVIEW DR","neighbourhood":"Westview","public_space_composite":59.81},"geometry":{"type":"Point","coordinates":[-123.08817565309735,49.33206340446458]}},{"id":"490","type":"Feature","properties":{"intersection_id":"CNV-INT-0491","street_names":"UPPER LEVELS HWY","neighbourhood":"Westview","public_space_composite":43.36},"geometry":{"type":"Point","coordinates":[-123.08369935244838,49.33206825416236]}},{"id":"491","type":"Feature","properties":{"intersection_id":"CNV-INT-0492","street_names":"WESTVIEW DR","neighbourhood":"Westview","public_space_composite":55.58},"geometry":{"type":"Point","coordinates":[-123.08816719027926,49.3323060374974]}},{"id":"492","type":"Feature","properties":{"intersection_id":"CNV-INT-0493","street_names":"LARSON RD / W 25TH ST","neighbourhood":"Westview","public_space_composite":26.19},"geometry":{"type":"Point","coordinates":[-123.08453689565913,49.332322482492025]}},{"id":"496","type":"Feature","properties":{"intersection_id":"CNV-INT-0497","street_names":null,"neighbourhood":"Westview","public_space_composite":31.37},"geometry":{"type":"Point","coordinates":[-123.08679264065994,49.33482395870139]}},{"id":"499","type":"Feature","properties":{"intersection_id":"CNV-INT-0500","street_names":"W 28TH ST","neighbourhood":"Westview","public_space_composite":36.81},"geometry":{"type":"Point","coordinates":[-123.08667101280344,49.33518235332698]}},{"id":"500","type":"Feature","properties":{"intersection_id":"CNV-INT-0501","street_names":"LARSON RD / W 29TH ST","neighbourhood":"Westview","public_space_composite":32.02},"geometry":{"type":"Point","coordinates":[-123.0844721451827,49.335642898544]}},{"id":"501","type":"Feature","properties":{"intersection_id":"CNV-INT-0502","street_names":"W 28TH ST / WESTVIEW DR","neighbourhood":"Westview","public_space_composite":54.51},"geometry":{"type":"Point","coordinates":[-123.08811414121243,49.33519374378813]}},{"id":"502","type":"Feature","properties":{"intersection_id":"CNV-INT-0503","street_names":"WESTVIEW CRES / WESTVIEW DR","neighbourhood":"Westview","public_space_composite":54.39},"geometry":{"type":"Point","coordinates":[-123.08811471655461,49.33527469918848]}}]}