{"type":"FeatureCollection","features":[{"id":"0","type":"Feature","properties":{"stop_name":"Northbound Lonsdale Ave @ E 19 St","stop_id":"10621","trips_per_weekday":157,"trips_am_peak":17,"routes_serving":5,"am_peak_avg_headway_min":7.1},"geometry":{"type":"Point","coordinates":[-123.072103,49.32662699999999]}},{"id":"2","type":"Feature","properties":{"stop_name":"Northbound Grand Blvd East @ E Keith Rd","stop_id":"10827","trips_per_weekday":105,"trips_am_peak":12,"routes_serving":2,"am_peak_avg_headway_min":10.0},"geometry":{"type":"Point","coordinates":[-123.05646800000001,49.313876]}},{"id":"3","type":"Feature","properties":{"stop_name":"Lonsdale Quay @ Bay 3","stop_id":"10865","trips_per_weekday":95,"trips_am_peak":12,"routes_serving":1,"am_peak_avg_headway_min":10.0},"geometry":{"type":"Point","coordinates":[-123.08258000000001,49.310916999999996]}},{"id":"4","type":"Feature","properties":{"stop_name":"Lonsdale Quay @ Bay 4","stop_id":"10866","trips_per_weekday":250,"trips_am_peak":31,"routes_serving":5,"am_peak_avg_headway_min":3.9},"geometry":{"type":"Point","coordinates":[-123.082393,49.3111]}},{"id":"5","type":"Feature","properties":{"stop_name":"Lonsdale Quay @ Bay 6","stop_id":"10867","trips_per_weekday":51,"trips_am_peak":2,"routes_serving":1,"am_peak_avg_headway_min":60.0},"geometry":{"type":"Point","coordinates":[-123.08255699999998,49.31106599999998]}},{"id":"6","type":"Feature","properties":{"stop_name":"Eastbound W 2nd St @ Bewicke Ave","stop_id":"11090","trips_per_weekday":5,"trips_am_peak":0,"routes_serving":1,"am_peak_avg_headway_min":null},"geometry":{"type":"Point","coordinates":[-123.09109199999999,49.31895799999999]}},{"id":"7","type":"Feature","properties":{"stop_name":"Westbound W 2nd St @ Bewicke Ave","stop_id":"11091","trips_per_weekday":5,"trips_am_peak":4,"routes_serving":1,"am_peak_avg_headway_min":30.0},"geometry":{"type":"Point","coordinates":[-123.09199899999999,49.31912499999999]}},{"id":"8","type":"Feature","properties":{"stop_name":"Eastbound Larson Rd @ Fir St","stop_id":"11261","trips_per_weekday":1,"trips_am_peak":1,"routes_serving":1,"am_peak_avg_headway_min":120.0},"geometry":{"type":"Point","coordinates":[-123.088428,49.32567499999998]}},{"id":"9","type":"Feature","properties":{"stop_name":"Southbound Grand Blvd East @ E 9th St","stop_id":"11263","trips_per_weekday":104,"trips_am_peak":14,"routes_serving":2,"am_peak_avg_headway_min":8.6},"geometry":{"type":"Point","coordinates":[-123.05661100000002,49.315354]}},{"id":"10","type":"Feature","properties":{"stop_name":"Westbound Marine Dr @ Hamilton Ave","stop_id":"11367","trips_per_weekday":307,"trips_am_peak":44,"routes_serving":7,"am_peak_avg_headway_min":2.7},"geometry":{"type":"Point","coordinates":[-123.0996,49.323076]}},{"id":"13","type":"Feature","properties":{"stop_name":"Westbound Cotton Rd @ Brooksbank Ave","stop_id":"11597","trips_per_weekday":95,"trips_am_peak":12,"routes_serving":1,"am_peak_avg_headway_min":10.0},"geometry":{"type":"Point","coordinates":[-123.04116000000002,49.307489999999994]}},{"id":"14","type":"Feature","properties":{"stop_name":"Eastbound Cotton Rd @ Brooksbank Ave","stop_id":"11598","trips_per_weekday":95,"trips_am_peak":11,"routes_serving":1,"am_peak_avg_headway_min":10.9},"geometry":{"type":"Point","coordinates":[-123.04088800000001,49.307195]}},{"id":"15","type":"Feature","properties":{"stop_name":"Southbound Brooksbank Ave @ E Keith Rd","stop_id":"11600","trips_per_weekday":37,"trips_am_peak":4,"routes_serving":1,"am_peak_avg_headway_min":30.0},"geometry":{"type":"Point","coordinates":[-123.040448,49.31283299999998]}},{"id":"16","type":"Feature","properties":{"stop_name":"Southbound Brooksbank Ave @ E 3rd St","stop_id":"11602","trips_per_weekday":37,"trips_am_peak":4,"routes_serving":1,"am_peak_avg_headway_min":30.0},"geometry":{"type":"Point","coordinates":[-123.040574,49.308077]}},{"id":"17","type":"Feature","properties":{"stop_name":"Southbound Brooksbank Ave @ E 4th St","stop_id":"11603","trips_per_weekday":37,"trips_am_peak":4,"routes_serving":1,"am_peak_avg_headway_min":30.0},"geometry":{"type":"Point","coordinates":[-123.04053000000002,49.30963599999999]}},{"id":"18","type":"Feature","properties":{"stop_name":"Northbound Brooksbank Ave @ E 3rd St","stop_id":"11604","trips_per_weekday":34,"trips_am_peak":4,"routes_serving":1,"am_peak_avg_headway_min":30.0},"geometry":{"type":"Point","coordinates":[-123.040349,49.30854899999999]}},{"id":"19","type":"Feature","properties":{"stop_name":"Northbound Brooksbank Ave @ E 5th St","stop_id":"11605","trips_per_weekday":34,"trips_am_peak":4,"routes_serving":1,"am_peak_avg_headway_min":30.0},"geometry":{"type":"Point","coordinates":[-123.040304,49.310559]}},{"id":"22","type":"Feature","properties":{"stop_name":"Eastbound W 3rd St @ Mission Rd","stop_id":"11726","trips_per_weekday":54,"trips_am_peak":4,"routes_serving":1,"am_peak_avg_headway_min":30.0},"geometry":{"type":"Point","coordinates":[-123.08772900000001,49.318001]}},{"id":"23","type":"Feature","properties":{"stop_name":"Westbound W 3rd St @ Mission Rd","stop_id":"11727","trips_per_weekday":152,"trips_am_peak":16,"routes_serving":4,"am_peak_avg_headway_min":7.5},"geometry":{"type":"Point","coordinates":[-123.088085,49.318364]}},{"id":"24","type":"Feature","properties":{"stop_name":"Eastbound W 3rd St @ Bewicke Ave","stop_id":"11929","trips_per_weekday":255,"trips_am_peak":28,"routes_serving":5,"am_peak_avg_headway_min":4.3},"geometry":{"type":"Point","coordinates":[-123.092847,49.3204]}},{"id":"25","type":"Feature","properties":{"stop_name":"Southbound Forbes Ave @ W 1st St","stop_id":"12025","trips_per_weekday":59,"trips_am_peak":3,"routes_serving":2,"am_peak_avg_headway_min":40.0},"geometry":{"type":"Point","coordinates":[-123.08601800000001,49.314507]}},{"id":"26","type":"Feature","properties":{"stop_name":"Westbound E Keith Rd @ Sutherland Ave","stop_id":"12349","trips_per_weekday":84,"trips_am_peak":9,"routes_serving":2,"am_peak_avg_headway_min":13.3},"geometry":{"type":"Point","coordinates":[-123.05516200000001,49.31355]}},{"id":"30","type":"Feature","properties":{"stop_name":"Southbound Lonsdale Ave @ W 3rd St","stop_id":"12682","trips_per_weekday":95,"trips_am_peak":12,"routes_serving":1,"am_peak_avg_headway_min":10.0},"geometry":{"type":"Point","coordinates":[-123.07775100000002,49.31292899999998]}},{"id":"32","type":"Feature","properties":{"stop_name":"Eastbound W 3rd St @ Chesterfield Ave","stop_id":"12686","trips_per_weekday":50,"trips_am_peak":6,"routes_serving":1,"am_peak_avg_headway_min":20.0},"geometry":{"type":"Point","coordinates":[-123.079648,49.314479000000006]}},{"id":"33","type":"Feature","properties":{"stop_name":"Westbound W 3rd St @ Lonsdale Ave","stop_id":"12687","trips_per_weekday":51,"trips_am_peak":6,"routes_serving":1,"am_peak_avg_headway_min":20.0},"geometry":{"type":"Point","coordinates":[-123.07747900000001,49.31370400000001]}},{"id":"34","type":"Feature","properties":{"stop_name":"Lonsdale Quay @ Bay 9","stop_id":"12693","trips_per_weekday":10,"trips_am_peak":4,"routes_serving":1,"am_peak_avg_headway_min":30.0},"geometry":{"type":"Point","coordinates":[-123.08251399999999,49.311537]}},{"id":"35","type":"Feature","properties":{"stop_name":"Northbound Grand Blvd East @ E 15 St","stop_id":"12696","trips_per_weekday":56,"trips_am_peak":6,"routes_serving":2,"am_peak_avg_headway_min":20.0},"geometry":{"type":"Point","coordinates":[-123.05627200000002,49.32211299999999]}},{"id":"36","type":"Feature","properties":{"stop_name":"Northbound Grand Blvd East @ E 13 St","stop_id":"12697","trips_per_weekday":105,"trips_am_peak":12,"routes_serving":2,"am_peak_avg_headway_min":10.0},"geometry":{"type":"Point","coordinates":[-123.05632300000002,49.320103]}},{"id":"37","type":"Feature","properties":{"stop_name":"Westbound Larson Rd @ Bewicke Ave","stop_id":"13186","trips_per_weekday":48,"trips_am_peak":7,"routes_serving":1,"am_peak_avg_headway_min":17.1},"geometry":{"type":"Point","coordinates":[-123.09148,49.324187999999985]}},{"id":"42","type":"Feature","properties":{"stop_name":"Eastbound E 3rd St @ Ridgeway Ave","stop_id":"3994","trips_per_weekday":147,"trips_am_peak":17,"routes_serving":2,"am_peak_avg_headway_min":7.1},"geometry":{"type":"Point","coordinates":[-123.062174,49.308441]}},{"id":"43","type":"Feature","properties":{"stop_name":"Eastbound E 3rd St @ Moody Ave","stop_id":"3995","trips_per_weekday":52,"trips_am_peak":6,"routes_serving":1,"am_peak_avg_headway_min":20.0},"geometry":{"type":"Point","coordinates":[-123.059819,49.308434000000005]}},{"id":"44","type":"Feature","properties":{"stop_name":"Westbound E 3rd St @ Queensbury Ave","stop_id":"4001","trips_per_weekday":54,"trips_am_peak":8,"routes_serving":1,"am_peak_avg_headway_min":15.0},"geometry":{"type":"Point","coordinates":[-123.05770400000002,49.308546]}},{"id":"45","type":"Feature","properties":{"stop_name":"Westbound E 3rd St @ Moody Ave","stop_id":"4002","trips_per_weekday":54,"trips_am_peak":8,"routes_serving":1,"am_peak_avg_headway_min":15.0},"geometry":{"type":"Point","coordinates":[-123.060598,49.308563]}},{"id":"53","type":"Feature","properties":{"stop_name":"Northbound Boulevard Cres @ E 19 St","stop_id":"4011","trips_per_weekday":152,"trips_am_peak":22,"routes_serving":3,"am_peak_avg_headway_min":5.5},"geometry":{"type":"Point","coordinates":[-123.056094,49.326339]}},{"id":"65","type":"Feature","properties":{"stop_name":"Southbound Boulevard Cres @ Sutherland Ave","stop_id":"4058","trips_per_weekday":149,"trips_am_peak":20,"routes_serving":2,"am_peak_avg_headway_min":6.0},"geometry":{"type":"Point","coordinates":[-123.054317,49.328615]}},{"id":"66","type":"Feature","properties":{"stop_name":"Southbound Grand Blvd East @ E 19 St","stop_id":"4059","trips_per_weekday":150,"trips_am_peak":20,"routes_serving":2,"am_peak_avg_headway_min":6.0},"geometry":{"type":"Point","coordinates":[-123.05635300000002,49.32577599999999]}},{"id":"67","type":"Feature","properties":{"stop_name":"Southbound Grand Blvd East @ E 17 St","stop_id":"4060","trips_per_weekday":150,"trips_am_peak":21,"routes_serving":2,"am_peak_avg_headway_min":5.7},"geometry":{"type":"Point","coordinates":[-123.056406,49.323723999999984]}},{"id":"68","type":"Feature","properties":{"stop_name":"Southbound Grand Blvd East @ E 15 St","stop_id":"4061","trips_per_weekday":105,"trips_am_peak":14,"routes_serving":2,"am_peak_avg_headway_min":8.6},"geometry":{"type":"Point","coordinates":[-123.056457,49.32155899999999]}},{"id":"69","type":"Feature","properties":{"stop_name":"Southbound Grand Blvd East @ E 13 St","stop_id":"4062","trips_per_weekday":104,"trips_am_peak":14,"routes_serving":2,"am_peak_avg_headway_min":8.6},"geometry":{"type":"Point","coordinates":[-123.056514,49.319562999999995]}},{"id":"70","type":"Feature","properties":{"stop_name":"Southbound Grand Blvd East @ E 11 St","stop_id":"4063","trips_per_weekday":104,"trips_am_peak":14,"routes_serving":2,"am_peak_avg_headway_min":8.6},"geometry":{"type":"Point","coordinates":[-123.056559,49.31743199999998]}},{"id":"71","type":"Feature","properties":{"stop_name":"Southbound Queensbury Ave @ E Keith Rd","stop_id":"4065","trips_per_weekday":54,"trips_am_peak":8,"routes_serving":1,"am_peak_avg_headway_min":15.0},"geometry":{"type":"Point","coordinates":[-123.05722,49.313132]}},{"id":"72","type":"Feature","properties":{"stop_name":"Southbound Queensbury Ave @ E 5th St","stop_id":"4066","trips_per_weekday":54,"trips_am_peak":8,"routes_serving":1,"am_peak_avg_headway_min":15.0},"geometry":{"type":"Point","coordinates":[-123.057297,49.310294]}},{"id":"73","type":"Feature","properties":{"stop_name":"Northbound Lonsdale Ave @ E 2nd St","stop_id":"4186","trips_per_weekday":105,"trips_am_peak":10,"routes_serving":3,"am_peak_avg_headway_min":12.0},"geometry":{"type":"Point","coordinates":[-123.077418,49.312944]}},{"id":"74","type":"Feature","properties":{"stop_name":"Northbound Lonsdale Ave @ E 4th St","stop_id":"4187","trips_per_weekday":155,"trips_am_peak":16,"routes_serving":4,"am_peak_avg_headway_min":7.5},"geometry":{"type":"Point","coordinates":[-123.075822,49.314476000000006]}},{"id":"75","type":"Feature","properties":{"stop_name":"Northbound Lonsdale Ave @ E Keith Rd","stop_id":"4188","trips_per_weekday":105,"trips_am_peak":10,"routes_serving":3,"am_peak_avg_headway_min":12.0},"geometry":{"type":"Point","coordinates":[-123.07331700000002,49.316942999999995]}},{"id":"76","type":"Feature","properties":{"stop_name":"Northbound Lonsdale Ave @ E 8th St","stop_id":"4189","trips_per_weekday":92,"trips_am_peak":9,"routes_serving":3,"am_peak_avg_headway_min":13.3},"geometry":{"type":"Point","coordinates":[-123.07258499999999,49.317657]}},{"id":"77","type":"Feature","properties":{"stop_name":"Northbound Lonsdale Ave @ E 13 St","stop_id":"4190","trips_per_weekday":189,"trips_am_peak":20,"routes_serving":5,"am_peak_avg_headway_min":6.0},"geometry":{"type":"Point","coordinates":[-123.07224000000001,49.32035200000001]}},{"id":"78","type":"Feature","properties":{"stop_name":"Eastbound E 15 St @ Lonsdale Ave","stop_id":"4191","trips_per_weekday":146,"trips_am_peak":23,"routes_serving":3,"am_peak_avg_headway_min":5.2},"geometry":{"type":"Point","coordinates":[-123.07163899999999,49.321996000000006]}},{"id":"79","type":"Feature","properties":{"stop_name":"Westbound E 3rd St @ Ridgeway Ave","stop_id":"4194","trips_per_weekday":149,"trips_am_peak":19,"routes_serving":2,"am_peak_avg_headway_min":6.3},"geometry":{"type":"Point","coordinates":[-123.063835,49.308596]}},{"id":"80","type":"Feature","properties":{"stop_name":"Westbound E 3rd St @ St. Patricks Ave","stop_id":"4195","trips_per_weekday":54,"trips_am_peak":8,"routes_serving":1,"am_peak_avg_headway_min":15.0},"geometry":{"type":"Point","coordinates":[-123.068347,49.309723]}},{"id":"81","type":"Feature","properties":{"stop_name":"Westbound E 3rd St @ St. Andrews Ave","stop_id":"4196","trips_per_weekday":54,"trips_am_peak":8,"routes_serving":1,"am_peak_avg_headway_min":15.0},"geometry":{"type":"Point","coordinates":[-123.07131,49.31101599999999]}},{"id":"82","type":"Feature","properties":{"stop_name":"Westbound E 3rd St @ St. Georges Ave","stop_id":"4197","trips_per_weekday":54,"trips_am_peak":7,"routes_serving":1,"am_peak_avg_headway_min":17.1},"geometry":{"type":"Point","coordinates":[-123.074445,49.312375]}},{"id":"83","type":"Feature","properties":{"stop_name":"Southbound Lonsdale Ave @ W 13 St","stop_id":"4200","trips_per_weekday":183,"trips_am_peak":20,"routes_serving":5,"am_peak_avg_headway_min":6.0},"geometry":{"type":"Point","coordinates":[-123.072529,49.319603]}},{"id":"84","type":"Feature","properties":{"stop_name":"Southbound Lonsdale Ave @ W Keith Rd","stop_id":"4201","trips_per_weekday":146,"trips_am_peak":18,"routes_serving":4,"am_peak_avg_headway_min":6.7},"geometry":{"type":"Point","coordinates":[-123.07370200000001,49.316896]}},{"id":"85","type":"Feature","properties":{"stop_name":"Southbound Lonsdale Ave @ W 5th St","stop_id":"4203","trips_per_weekday":146,"trips_am_peak":19,"routes_serving":4,"am_peak_avg_headway_min":6.3},"geometry":{"type":"Point","coordinates":[-123.07581800000001,49.31482]}},{"id":"86","type":"Feature","properties":{"stop_name":"Southbound Lonsdale Ave @ W 3rd St","stop_id":"4204","trips_per_weekday":149,"trips_am_peak":21,"routes_serving":4,"am_peak_avg_headway_min":5.7},"geometry":{"type":"Point","coordinates":[-123.07747,49.313219]}},{"id":"87","type":"Feature","properties":{"stop_name":"Southbound Lonsdale Ave @ W 1st St","stop_id":"4205","trips_per_weekday":149,"trips_am_peak":21,"routes_serving":4,"am_peak_avg_headway_min":5.7},"geometry":{"type":"Point","coordinates":[-123.079099,49.311561]}},{"id":"88","type":"Feature","properties":{"stop_name":"Northbound Lonsdale Ave @ E 1st St","stop_id":"4211","trips_per_weekday":157,"trips_am_peak":17,"routes_serving":4,"am_peak_avg_headway_min":7.1},"geometry":{"type":"Point","coordinates":[-123.07821,49.312182]}},{"id":"89","type":"Feature","properties":{"stop_name":"Eastbound E 3rd St @ Lonsdale Ave","stop_id":"4212","trips_per_weekday":147,"trips_am_peak":19,"routes_serving":2,"am_peak_avg_headway_min":6.3},"geometry":{"type":"Point","coordinates":[-123.07657899999998,49.313157000000004]}},{"id":"90","type":"Feature","properties":{"stop_name":"Eastbound E 3rd St @ St. Georges Ave","stop_id":"4213","trips_per_weekday":52,"trips_am_peak":7,"routes_serving":1,"am_peak_avg_headway_min":17.1},"geometry":{"type":"Point","coordinates":[-123.07367700000002,49.311865]}},{"id":"91","type":"Feature","properties":{"stop_name":"Eastbound E 3rd St @ St. Andrews Ave","stop_id":"4214","trips_per_weekday":52,"trips_am_peak":7,"routes_serving":1,"am_peak_avg_headway_min":17.1},"geometry":{"type":"Point","coordinates":[-123.070625,49.310579]}},{"id":"92","type":"Feature","properties":{"stop_name":"Eastbound E 3rd St @ St. Patricks Ave","stop_id":"4215","trips_per_weekday":52,"trips_am_peak":7,"routes_serving":1,"am_peak_avg_headway_min":17.1},"geometry":{"type":"Point","coordinates":[-123.06760399999999,49.309251]}},{"id":"93","type":"Feature","properties":{"stop_name":"Northbound Queensbury Ave @ E 4th St","stop_id":"4217","trips_per_weekday":55,"trips_am_peak":6,"routes_serving":1,"am_peak_avg_headway_min":20.0},"geometry":{"type":"Point","coordinates":[-123.057121,49.30969300000001]}},{"id":"94","type":"Feature","properties":{"stop_name":"Northbound Queensbury Ave @ E 7th St","stop_id":"4218","trips_per_weekday":55,"trips_am_peak":6,"routes_serving":1,"am_peak_avg_headway_min":20.0},"geometry":{"type":"Point","coordinates":[-123.057031,49.312736]}},{"id":"95","type":"Feature","properties":{"stop_name":"Northbound Grand Blvd East @ E 9th St","stop_id":"4220","trips_per_weekday":105,"trips_am_peak":12,"routes_serving":2,"am_peak_avg_headway_min":10.0},"geometry":{"type":"Point","coordinates":[-123.056418,49.315862]}},{"id":"96","type":"Feature","properties":{"stop_name":"Northbound Grand Blvd East @ E 11 St","stop_id":"4221","trips_per_weekday":105,"trips_am_peak":12,"routes_serving":2,"am_peak_avg_headway_min":10.0},"geometry":{"type":"Point","coordinates":[-123.056364,49.317961]}},{"id":"97","type":"Feature","properties":{"stop_name":"Eastbound E 15 St @ Grand Blvd East","stop_id":"4224","trips_per_weekday":96,"trips_am_peak":16,"routes_serving":2,"am_peak_avg_headway_min":7.5},"geometry":{"type":"Point","coordinates":[-123.05668999999999,49.32183800000001]}},{"id":"98","type":"Feature","properties":{"stop_name":"Northbound Grand Blvd East @ E 17 St","stop_id":"4225","trips_per_weekday":151,"trips_am_peak":22,"routes_serving":2,"am_peak_avg_headway_min":5.5},"geometry":{"type":"Point","coordinates":[-123.05618500000001,49.32423199999999]}},{"id":"99","type":"Feature","properties":{"stop_name":"Lonsdale Quay @ Bay 2","stop_id":"4242","trips_per_weekday":52,"trips_am_peak":7,"routes_serving":1,"am_peak_avg_headway_min":17.1},"geometry":{"type":"Point","coordinates":[-123.082752,49.31075299999999]}},{"id":"100","type":"Feature","properties":{"stop_name":"Northbound Lonsdale Ave @ E 15 St","stop_id":"4243","trips_per_weekday":157,"trips_am_peak":17,"routes_serving":5,"am_peak_avg_headway_min":7.1},"geometry":{"type":"Point","coordinates":[-123.07218200000001,49.322458]}},{"id":"101","type":"Feature","properties":{"stop_name":"Northbound Lonsdale Ave @ E 17 St","stop_id":"4244","trips_per_weekday":157,"trips_am_peak":17,"routes_serving":5,"am_peak_avg_headway_min":7.1},"geometry":{"type":"Point","coordinates":[-123.072122,49.324591999999996]}},{"id":"102","type":"Feature","properties":{"stop_name":"Northbound Lonsdale Ave @ E 21 St","stop_id":"4246","trips_per_weekday":157,"trips_am_peak":16,"routes_serving":5,"am_peak_avg_headway_min":7.5},"geometry":{"type":"Point","coordinates":[-123.072061,49.32887999999999]}},{"id":"103","type":"Feature","properties":{"stop_name":"Northbound Lonsdale Ave @ E 23 St","stop_id":"4247","trips_per_weekday":157,"trips_am_peak":16,"routes_serving":5,"am_peak_avg_headway_min":7.5},"geometry":{"type":"Point","coordinates":[-123.07199099999998,49.330025]}},{"id":"104","type":"Feature","properties":{"stop_name":"Northbound Lonsdale Ave @ E 27 St","stop_id":"4248","trips_per_weekday":157,"trips_am_peak":16,"routes_serving":5,"am_peak_avg_headway_min":7.5},"geometry":{"type":"Point","coordinates":[-123.071871,49.334503000000005]}},{"id":"105","type":"Feature","properties":{"stop_name":"Eastbound E 29 St @ Lonsdale Ave","stop_id":"4249","trips_per_weekday":57,"trips_am_peak":4,"routes_serving":2,"am_peak_avg_headway_min":30.0},"geometry":{"type":"Point","coordinates":[-123.071305,49.335573]}},{"id":"106","type":"Feature","properties":{"stop_name":"Eastbound E 29 St @ St. Georges Ave","stop_id":"4250","trips_per_weekday":57,"trips_am_peak":4,"routes_serving":2,"am_peak_avg_headway_min":30.0},"geometry":{"type":"Point","coordinates":[-123.06845700000001,49.33557799999999]}},{"id":"107","type":"Feature","properties":{"stop_name":"Eastbound E 29 St @ St. Andrews Ave","stop_id":"4251","trips_per_weekday":57,"trips_am_peak":4,"routes_serving":2,"am_peak_avg_headway_min":30.0},"geometry":{"type":"Point","coordinates":[-123.065638,49.33557]}},{"id":"108","type":"Feature","properties":{"stop_name":"Eastbound E 29 St @ St. Kilda Ave","stop_id":"4252","trips_per_weekday":57,"trips_am_peak":4,"routes_serving":2,"am_peak_avg_headway_min":30.0},"geometry":{"type":"Point","coordinates":[-123.061435,49.335549]}},{"id":"109","type":"Feature","properties":{"stop_name":"Eastbound E 29 St @ Brand St","stop_id":"4253","trips_per_weekday":57,"trips_am_peak":4,"routes_serving":2,"am_peak_avg_headway_min":30.0},"geometry":{"type":"Point","coordinates":[-123.058455,49.33553299999999]}},{"id":"110","type":"Feature","properties":{"stop_name":"Eastbound E 29 St @ Tempe Glen Dr","stop_id":"4254","trips_per_weekday":57,"trips_am_peak":4,"routes_serving":2,"am_peak_avg_headway_min":30.0},"geometry":{"type":"Point","coordinates":[-123.0542,49.335508]}},{"id":"120","type":"Feature","properties":{"stop_name":"Southbound Lonsdale Ave @ W 29 St","stop_id":"4295","trips_per_weekday":144,"trips_am_peak":26,"routes_serving":5,"am_peak_avg_headway_min":4.6},"geometry":{"type":"Point","coordinates":[-123.072124,49.33531299999999]}},{"id":"121","type":"Feature","properties":{"stop_name":"Southbound Lonsdale Ave @ W 27 St","stop_id":"4296","trips_per_weekday":144,"trips_am_peak":26,"routes_serving":5,"am_peak_avg_headway_min":4.6},"geometry":{"type":"Point","coordinates":[-123.072163,49.333811]}},{"id":"122","type":"Feature","properties":{"stop_name":"Southbound Lonsdale Ave @ W 23 St","stop_id":"4297","trips_per_weekday":144,"trips_am_peak":26,"routes_serving":5,"am_peak_avg_headway_min":4.6},"geometry":{"type":"Point","coordinates":[-123.072265,49.32978099999998]}},{"id":"123","type":"Feature","properties":{"stop_name":"Southbound Lonsdale Ave @ W 21 St","stop_id":"4298","trips_per_weekday":144,"trips_am_peak":26,"routes_serving":5,"am_peak_avg_headway_min":4.6},"geometry":{"type":"Point","coordinates":[-123.072286,49.327966999999994]}},{"id":"124","type":"Feature","properties":{"stop_name":"Southbound Lonsdale Ave @ W 19 St","stop_id":"4299","trips_per_weekday":144,"trips_am_peak":25,"routes_serving":5,"am_peak_avg_headway_min":4.8},"geometry":{"type":"Point","coordinates":[-123.072367,49.325941]}},{"id":"125","type":"Feature","properties":{"stop_name":"Southbound Lonsdale Ave @ W 17 St","stop_id":"4300","trips_per_weekday":144,"trips_am_peak":25,"routes_serving":5,"am_peak_avg_headway_min":4.8},"geometry":{"type":"Point","coordinates":[-123.072421,49.323861]}},{"id":"126","type":"Feature","properties":{"stop_name":"Southbound Lonsdale Ave @ W 15 St","stop_id":"4301","trips_per_weekday":183,"trips_am_peak":20,"routes_serving":5,"am_peak_avg_headway_min":6.0},"geometry":{"type":"Point","coordinates":[-123.072483,49.3217]}},{"id":"130","type":"Feature","properties":{"stop_name":"Westbound W 3rd St @ Chesterfield Ave","stop_id":"4326","trips_per_weekday":101,"trips_am_peak":14,"routes_serving":3,"am_peak_avg_headway_min":8.6},"geometry":{"type":"Point","coordinates":[-123.080729,49.315137]}},{"id":"131","type":"Feature","properties":{"stop_name":"Westbound W 3rd St @ Mahon Ave","stop_id":"4327","trips_per_weekday":101,"trips_am_peak":14,"routes_serving":3,"am_peak_avg_headway_min":8.6},"geometry":{"type":"Point","coordinates":[-123.083796,49.316465]}},{"id":"132","type":"Feature","properties":{"stop_name":"Westbound W 3rd St @ Forbes Ave","stop_id":"4328","trips_per_weekday":101,"trips_am_peak":14,"routes_serving":3,"am_peak_avg_headway_min":8.6},"geometry":{"type":"Point","coordinates":[-123.085089,49.31703699999999]}},{"id":"133","type":"Feature","properties":{"stop_name":"Northbound Bewicke Ave @ W Keith Rd","stop_id":"4329","trips_per_weekday":48,"trips_am_peak":8,"routes_serving":1,"am_peak_avg_headway_min":15.0},"geometry":{"type":"Point","coordinates":[-123.09128,49.32054]}},{"id":"134","type":"Feature","properties":{"stop_name":"Northbound Bewicke Ave @ W 16 St","stop_id":"4330","trips_per_weekday":48,"trips_am_peak":8,"routes_serving":1,"am_peak_avg_headway_min":15.0},"geometry":{"type":"Point","coordinates":[-123.09109799999999,49.323552]}},{"id":"135","type":"Feature","properties":{"stop_name":"Northbound Westview Dr @ Larson Rd","stop_id":"4331","trips_per_weekday":48,"trips_am_peak":7,"routes_serving":1,"am_peak_avg_headway_min":17.1},"geometry":{"type":"Point","coordinates":[-123.08937400000002,49.325698]}},{"id":"136","type":"Feature","properties":{"stop_name":"Northbound Westview Dr @ W 19 St","stop_id":"4332","trips_per_weekday":48,"trips_am_peak":7,"routes_serving":1,"am_peak_avg_headway_min":17.1},"geometry":{"type":"Point","coordinates":[-123.089368,49.32672]}},{"id":"137","type":"Feature","properties":{"stop_name":"Northbound Westview Dr @ W 23 St","stop_id":"4334","trips_per_weekday":48,"trips_am_peak":7,"routes_serving":1,"am_peak_avg_headway_min":17.1},"geometry":{"type":"Point","coordinates":[-123.088076,49.330194000000006]}},{"id":"138","type":"Feature","properties":{"stop_name":"Northbound Westview Dr @ Hwy One","stop_id":"4335","trips_per_weekday":48,"trips_am_peak":7,"routes_serving":1,"am_peak_avg_headway_min":17.1},"geometry":{"type":"Point","coordinates":[-123.087965,49.33356299999999]}},{"id":"139","type":"Feature","properties":{"stop_name":"Northbound Westview Dr @ W 28 St","stop_id":"4336","trips_per_weekday":48,"trips_am_peak":7,"routes_serving":1,"am_peak_avg_headway_min":17.1},"geometry":{"type":"Point","coordinates":[-123.087974,49.33552999999999]}},{"id":"145","type":"Feature","properties":{"stop_name":"Eastbound E Keith Rd @ Lonsdale Ave","stop_id":"4365","trips_per_weekday":37,"trips_am_peak":3,"routes_serving":1,"am_peak_avg_headway_min":40.0},"geometry":{"type":"Point","coordinates":[-123.073505,49.316210999999996]}},{"id":"146","type":"Feature","properties":{"stop_name":"Eastbound E Keith Rd @ St. Georges Ave","stop_id":"4366","trips_per_weekday":37,"trips_am_peak":3,"routes_serving":1,"am_peak_avg_headway_min":40.0},"geometry":{"type":"Point","coordinates":[-123.070212,49.315256]}},{"id":"147","type":"Feature","properties":{"stop_name":"Eastbound E Keith Rd @ St. Andrews Ave","stop_id":"4367","trips_per_weekday":37,"trips_am_peak":3,"routes_serving":1,"am_peak_avg_headway_min":40.0},"geometry":{"type":"Point","coordinates":[-123.067296,49.313987999999995]}},{"id":"148","type":"Feature","properties":{"stop_name":"Eastbound E Keith Rd @ St. Davids Ave","stop_id":"4368","trips_per_weekday":37,"trips_am_peak":3,"routes_serving":1,"am_peak_avg_headway_min":40.0},"geometry":{"type":"Point","coordinates":[-123.06531899999999,49.31353399999999]}},{"id":"149","type":"Feature","properties":{"stop_name":"Eastbound E Keith Rd @ Ridgeway Ave","stop_id":"4369","trips_per_weekday":37,"trips_am_peak":3,"routes_serving":1,"am_peak_avg_headway_min":40.0},"geometry":{"type":"Point","coordinates":[-123.062739,49.313509]}},{"id":"150","type":"Feature","properties":{"stop_name":"Eastbound E Keith Rd @ Moody Ave","stop_id":"4370","trips_per_weekday":37,"trips_am_peak":3,"routes_serving":1,"am_peak_avg_headway_min":40.0},"geometry":{"type":"Point","coordinates":[-123.059739,49.31347399999999]}},{"id":"151","type":"Feature","properties":{"stop_name":"Eastbound E Keith Rd @ Grand Blvd East","stop_id":"4371","trips_per_weekday":87,"trips_am_peak":8,"routes_serving":2,"am_peak_avg_headway_min":15.0},"geometry":{"type":"Point","coordinates":[-123.056138,49.313425]}},{"id":"152","type":"Feature","properties":{"stop_name":"Eastbound E Keith Rd @ Sutherland Ave","stop_id":"4372","trips_per_weekday":87,"trips_am_peak":8,"routes_serving":2,"am_peak_avg_headway_min":15.0},"geometry":{"type":"Point","coordinates":[-123.053995,49.313392]}},{"id":"153","type":"Feature","properties":{"stop_name":"Eastbound E Keith Rd @ Hendry Ave","stop_id":"4373","trips_per_weekday":87,"trips_am_peak":8,"routes_serving":2,"am_peak_avg_headway_min":15.0},"geometry":{"type":"Point","coordinates":[-123.051554,49.313372]}},{"id":"154","type":"Feature","properties":{"stop_name":"Eastbound E Keith Rd @ Adderley St","stop_id":"4374","trips_per_weekday":87,"trips_am_peak":8,"routes_serving":2,"am_peak_avg_headway_min":15.0},"geometry":{"type":"Point","coordinates":[-123.04855399999998,49.313317]}},{"id":"155","type":"Feature","properties":{"stop_name":"Eastbound E Keith Rd @ Cloverley St","stop_id":"4375","trips_per_weekday":87,"trips_am_peak":9,"routes_serving":2,"am_peak_avg_headway_min":13.3},"geometry":{"type":"Point","coordinates":[-123.04582000000002,49.313272999999995]}},{"id":"161","type":"Feature","properties":{"stop_name":"Westbound E Keith Rd @ Grand Blvd West","stop_id":"4391","trips_per_weekday":34,"trips_am_peak":3,"routes_serving":1,"am_peak_avg_headway_min":40.0},"geometry":{"type":"Point","coordinates":[-123.058096,49.313585999999994]}},{"id":"162","type":"Feature","properties":{"stop_name":"Westbound E Keith Rd @ Moody Ave","stop_id":"4392","trips_per_weekday":34,"trips_am_peak":3,"routes_serving":1,"am_peak_avg_headway_min":40.0},"geometry":{"type":"Point","coordinates":[-123.06097400000002,49.313620999999976]}},{"id":"163","type":"Feature","properties":{"stop_name":"Westbound E Keith Rd @ Ridgeway Ave","stop_id":"4393","trips_per_weekday":34,"trips_am_peak":3,"routes_serving":1,"am_peak_avg_headway_min":40.0},"geometry":{"type":"Point","coordinates":[-123.06364300000001,49.31365999999999]}},{"id":"164","type":"Feature","properties":{"stop_name":"Westbound E Keith Rd @ St. Andrews Ave","stop_id":"4394","trips_per_weekday":34,"trips_am_peak":3,"routes_serving":1,"am_peak_avg_headway_min":40.0},"geometry":{"type":"Point","coordinates":[-123.067727,49.31455299999998]}},{"id":"165","type":"Feature","properties":{"stop_name":"Westbound E Keith Rd @ St. Georges Ave","stop_id":"4395","trips_per_weekday":34,"trips_am_peak":3,"routes_serving":1,"am_peak_avg_headway_min":40.0},"geometry":{"type":"Point","coordinates":[-123.07079800000001,49.31592]}},{"id":"171","type":"Feature","properties":{"stop_name":"Westbound W Esplanade Ave @ Rogers Ave","stop_id":"4424","trips_per_weekday":101,"trips_am_peak":10,"routes_serving":3,"am_peak_avg_headway_min":12.0},"geometry":{"type":"Point","coordinates":[-123.08138700000002,49.31199999999999]}},{"id":"172","type":"Feature","properties":{"stop_name":"Westbound W Esplanade Ave @ Semisch Ave","stop_id":"4425","trips_per_weekday":56,"trips_am_peak":6,"routes_serving":2,"am_peak_avg_headway_min":20.0},"geometry":{"type":"Point","coordinates":[-123.084338,49.31327000000001]}},{"id":"173","type":"Feature","properties":{"stop_name":"Northbound Forbes Ave @ W 1st St","stop_id":"4426","trips_per_weekday":56,"trips_am_peak":6,"routes_serving":2,"am_peak_avg_headway_min":20.0},"geometry":{"type":"Point","coordinates":[-123.085773,49.315326000000006]}},{"id":"174","type":"Feature","properties":{"stop_name":"Westbound Marine Dr @ Bewicke Ave","stop_id":"4427","trips_per_weekday":306,"trips_am_peak":42,"routes_serving":7,"am_peak_avg_headway_min":2.9},"geometry":{"type":"Point","coordinates":[-123.09270600000002,49.320609999999995]}},{"id":"175","type":"Feature","properties":{"stop_name":"Westbound Marine Dr @ Fell Ave","stop_id":"4429","trips_per_weekday":211,"trips_am_peak":32,"routes_serving":5,"am_peak_avg_headway_min":3.8},"geometry":{"type":"Point","coordinates":[-123.095264,49.321509999999996]}},{"id":"176","type":"Feature","properties":{"stop_name":"Westbound Marine Dr @ Hanes Ave","stop_id":"4430","trips_per_weekday":212,"trips_am_peak":32,"routes_serving":6,"am_peak_avg_headway_min":3.8},"geometry":{"type":"Point","coordinates":[-123.09742300000002,49.322273]}},{"id":"177","type":"Feature","properties":{"stop_name":"Northbound Mackay Ave @ Marine Dr","stop_id":"4432","trips_per_weekday":53,"trips_am_peak":3,"routes_serving":2,"am_peak_avg_headway_min":40.0},"geometry":{"type":"Point","coordinates":[-123.10101499999999,49.323926]}},{"id":"178","type":"Feature","properties":{"stop_name":"Northbound Mackay Ave @ W 19 St","stop_id":"4433","trips_per_weekday":53,"trips_am_peak":3,"routes_serving":2,"am_peak_avg_headway_min":40.0},"geometry":{"type":"Point","coordinates":[-123.10052,49.32675699999999]}},{"id":"179","type":"Feature","properties":{"stop_name":"Northbound Mackay Ave @ 2000 Block","stop_id":"4434","trips_per_weekday":53,"trips_am_peak":3,"routes_serving":2,"am_peak_avg_headway_min":40.0},"geometry":{"type":"Point","coordinates":[-123.101386,49.328369]}},{"id":"183","type":"Feature","properties":{"stop_name":"Eastbound W 3rd St @ Forbes Ave","stop_id":"4442","trips_per_weekday":106,"trips_am_peak":12,"routes_serving":3,"am_peak_avg_headway_min":10.0},"geometry":{"type":"Point","coordinates":[-123.084748,49.31672499999999]}},{"id":"184","type":"Feature","properties":{"stop_name":"Eastbound W 3rd St @ Mahon Ave","stop_id":"4443","trips_per_weekday":106,"trips_am_peak":12,"routes_serving":3,"am_peak_avg_headway_min":10.0},"geometry":{"type":"Point","coordinates":[-123.08270300000001,49.315826]}},{"id":"187","type":"Feature","properties":{"stop_name":"Southbound Mackay Ave @ W 21 St","stop_id":"4452","trips_per_weekday":55,"trips_am_peak":5,"routes_serving":2,"am_peak_avg_headway_min":24.0},"geometry":{"type":"Point","coordinates":[-123.10182599999999,49.328769]}},{"id":"188","type":"Feature","properties":{"stop_name":"Southbound Mackay Ave @ W 19 St","stop_id":"4453","trips_per_weekday":55,"trips_am_peak":5,"routes_serving":2,"am_peak_avg_headway_min":24.0},"geometry":{"type":"Point","coordinates":[-123.100669,49.32665699999999]}},{"id":"189","type":"Feature","properties":{"stop_name":"Eastbound Marine Dr @ Hamilton Ave","stop_id":"4456","trips_per_weekday":315,"trips_am_peak":38,"routes_serving":6,"am_peak_avg_headway_min":3.2},"geometry":{"type":"Point","coordinates":[-123.09903900000002,49.322588999999994]}},{"id":"190","type":"Feature","properties":{"stop_name":"Eastbound W Esplanade @ Semisch Ave","stop_id":"4458","trips_per_weekday":59,"trips_am_peak":3,"routes_serving":2,"am_peak_avg_headway_min":40.0},"geometry":{"type":"Point","coordinates":[-123.08387600000002,49.31285]}},{"id":"191","type":"Feature","properties":{"stop_name":"Lonsdale Quay @ Bay 7","stop_id":"4459","trips_per_weekday":95,"trips_am_peak":12,"routes_serving":1,"am_peak_avg_headway_min":10.0},"geometry":{"type":"Point","coordinates":[-123.08273899999999,49.310903]}},{"id":"194","type":"Feature","properties":{"stop_name":"Southbound Chesterfield Ave @ W 3rd St","stop_id":"4469","trips_per_weekday":56,"trips_am_peak":6,"routes_serving":2,"am_peak_avg_headway_min":20.0},"geometry":{"type":"Point","coordinates":[-123.08058700000001,49.314494]}},{"id":"195","type":"Feature","properties":{"stop_name":"Southbound Chesterfield Ave @ W 1st St","stop_id":"4470","trips_per_weekday":56,"trips_am_peak":6,"routes_serving":2,"am_peak_avg_headway_min":20.0},"geometry":{"type":"Point","coordinates":[-123.08216599999999,49.31297]}},{"id":"196","type":"Feature","properties":{"stop_name":"Lonsdale Quay @ Bay 1","stop_id":"4471","trips_per_weekday":51,"trips_am_peak":4,"routes_serving":2,"am_peak_avg_headway_min":30.0},"geometry":{"type":"Point","coordinates":[-123.08291800000002,49.31059699999999]}},{"id":"197","type":"Feature","properties":{"stop_name":"Northbound Chesterfield Ave @ W 1st St","stop_id":"4476","trips_per_weekday":50,"trips_am_peak":8,"routes_serving":2,"am_peak_avg_headway_min":15.0},"geometry":{"type":"Point","coordinates":[-123.08134800000002,49.31351699999998]}},{"id":"198","type":"Feature","properties":{"stop_name":"Northbound Chesterfield Ave @ W 2nd St","stop_id":"4477","trips_per_weekday":50,"trips_am_peak":8,"routes_serving":2,"am_peak_avg_headway_min":15.0},"geometry":{"type":"Point","coordinates":[-123.080618,49.31423499999999]}},{"id":"201","type":"Feature","properties":{"stop_name":"Eastbound W Keith Rd @ Bewicke Ave","stop_id":"4500","trips_per_weekday":108,"trips_am_peak":16,"routes_serving":2,"am_peak_avg_headway_min":7.5},"geometry":{"type":"Point","coordinates":[-123.090448,49.31992899999999]}},{"id":"202","type":"Feature","properties":{"stop_name":"Eastbound W Keith Rd @ Delbruck Ave","stop_id":"4501","trips_per_weekday":108,"trips_am_peak":16,"routes_serving":2,"am_peak_avg_headway_min":7.5},"geometry":{"type":"Point","coordinates":[-123.087019,49.319899999999976]}},{"id":"203","type":"Feature","properties":{"stop_name":"Eastbound W Keith Rd @ Forbes Ave","stop_id":"4502","trips_per_weekday":108,"trips_am_peak":16,"routes_serving":2,"am_peak_avg_headway_min":7.5},"geometry":{"type":"Point","coordinates":[-123.08443200000002,49.31986599999999]}},{"id":"204","type":"Feature","properties":{"stop_name":"Northbound Jones Ave @ W Keith Rd","stop_id":"4503","trips_per_weekday":108,"trips_am_peak":16,"routes_serving":2,"am_peak_avg_headway_min":7.5},"geometry":{"type":"Point","coordinates":[-123.081636,49.320339]}},{"id":"205","type":"Feature","properties":{"stop_name":"Eastbound W 15 St @ Jones Ave","stop_id":"4504","trips_per_weekday":108,"trips_am_peak":16,"routes_serving":2,"am_peak_avg_headway_min":7.5},"geometry":{"type":"Point","coordinates":[-123.08114700000002,49.32209399999999]}},{"id":"206","type":"Feature","properties":{"stop_name":"Eastbound W 15 St @ Mahon Ave","stop_id":"4505","trips_per_weekday":108,"trips_am_peak":16,"routes_serving":2,"am_peak_avg_headway_min":7.5},"geometry":{"type":"Point","coordinates":[-123.078179,49.322067000000004]}},{"id":"207","type":"Feature","properties":{"stop_name":"Eastbound W 15 St @ Chesterfield Ave","stop_id":"4506","trips_per_weekday":108,"trips_am_peak":16,"routes_serving":2,"am_peak_avg_headway_min":7.5},"geometry":{"type":"Point","coordinates":[-123.074863,49.32202499999998]}},{"id":"208","type":"Feature","properties":{"stop_name":"Eastbound E 15 St @ St. Georges Ave","stop_id":"4507","trips_per_weekday":146,"trips_am_peak":23,"routes_serving":3,"am_peak_avg_headway_min":5.2},"geometry":{"type":"Point","coordinates":[-123.0688,49.32196899999999]}},{"id":"209","type":"Feature","properties":{"stop_name":"Eastbound E 15 St @ St. Andrews Ave","stop_id":"4508","trips_per_weekday":146,"trips_am_peak":23,"routes_serving":3,"am_peak_avg_headway_min":5.2},"geometry":{"type":"Point","coordinates":[-123.06541400000002,49.321934]}},{"id":"210","type":"Feature","properties":{"stop_name":"Eastbound E 15 St @ Ridgeway Ave","stop_id":"4509","trips_per_weekday":146,"trips_am_peak":23,"routes_serving":3,"am_peak_avg_headway_min":5.2},"geometry":{"type":"Point","coordinates":[-123.06269800000001,49.3219]}},{"id":"211","type":"Feature","properties":{"stop_name":"Eastbound E 15 St @ Moody Ave","stop_id":"4510","trips_per_weekday":145,"trips_am_peak":22,"routes_serving":2,"am_peak_avg_headway_min":5.5},"geometry":{"type":"Point","coordinates":[-123.059574,49.32186900000001]}},{"id":"212","type":"Feature","properties":{"stop_name":"Westbound E 15 St @ Moody Ave","stop_id":"4511","trips_per_weekday":145,"trips_am_peak":19,"routes_serving":2,"am_peak_avg_headway_min":6.3},"geometry":{"type":"Point","coordinates":[-123.06036800000001,49.321997]}},{"id":"213","type":"Feature","properties":{"stop_name":"Westbound E 15 St @ Ridgeway Ave","stop_id":"4512","trips_per_weekday":145,"trips_am_peak":20,"routes_serving":2,"am_peak_avg_headway_min":6.0},"geometry":{"type":"Point","coordinates":[-123.063435,49.322028]}},{"id":"214","type":"Feature","properties":{"stop_name":"Westbound E 15 St @ St. Andrews Ave","stop_id":"4513","trips_per_weekday":145,"trips_am_peak":20,"routes_serving":2,"am_peak_avg_headway_min":6.0},"geometry":{"type":"Point","coordinates":[-123.066504,49.32207400000001]}},{"id":"215","type":"Feature","properties":{"stop_name":"Westbound W 15th St @ Lonsdale Ave","stop_id":"4514","trips_per_weekday":106,"trips_am_peak":25,"routes_serving":2,"am_peak_avg_headway_min":4.8},"geometry":{"type":"Point","coordinates":[-123.072934,49.322137999999995]}},{"id":"216","type":"Feature","properties":{"stop_name":"Westbound W 15 St @ Chesterfield Ave","stop_id":"4515","trips_per_weekday":106,"trips_am_peak":25,"routes_serving":2,"am_peak_avg_headway_min":4.8},"geometry":{"type":"Point","coordinates":[-123.07594700000001,49.32216699999999]}},{"id":"217","type":"Feature","properties":{"stop_name":"Westbound W 15 St @ Mahon Ave","stop_id":"4516","trips_per_weekday":106,"trips_am_peak":25,"routes_serving":2,"am_peak_avg_headway_min":4.8},"geometry":{"type":"Point","coordinates":[-123.07905199999999,49.322196999999996]}},{"id":"218","type":"Feature","properties":{"stop_name":"Southbound Jones Ave @ W 15 St","stop_id":"4517","trips_per_weekday":106,"trips_am_peak":25,"routes_serving":2,"am_peak_avg_headway_min":4.8},"geometry":{"type":"Point","coordinates":[-123.081783,49.321847]}},{"id":"219","type":"Feature","properties":{"stop_name":"Southbound Jones Ave @ W Keith Rd","stop_id":"4518","trips_per_weekday":106,"trips_am_peak":24,"routes_serving":2,"am_peak_avg_headway_min":5.0},"geometry":{"type":"Point","coordinates":[-123.08182,49.320339000000004]}},{"id":"220","type":"Feature","properties":{"stop_name":"Westbound W Keith Rd @ Forbes Ave","stop_id":"4519","trips_per_weekday":107,"trips_am_peak":24,"routes_serving":3,"am_peak_avg_headway_min":5.0},"geometry":{"type":"Point","coordinates":[-123.085235,49.320182]}},{"id":"221","type":"Feature","properties":{"stop_name":"Westbound W Keith Rd @ Delbruck Ave","stop_id":"4520","trips_per_weekday":107,"trips_am_peak":24,"routes_serving":3,"am_peak_avg_headway_min":5.0},"geometry":{"type":"Point","coordinates":[-123.08856100000001,49.32020599999999]}},{"id":"223","type":"Feature","properties":{"stop_name":"Southbound Westview Dr @ W 28 St","stop_id":"4560","trips_per_weekday":48,"trips_am_peak":7,"routes_serving":1,"am_peak_avg_headway_min":17.1},"geometry":{"type":"Point","coordinates":[-123.088223,49.334862]}},{"id":"224","type":"Feature","properties":{"stop_name":"Southbound Westview Dr @ Hwy One","stop_id":"4561","trips_per_weekday":48,"trips_am_peak":7,"routes_serving":1,"am_peak_avg_headway_min":17.1},"geometry":{"type":"Point","coordinates":[-123.088271,49.333105]}},{"id":"225","type":"Feature","properties":{"stop_name":"Southbound Westview Dr @ W 23 St","stop_id":"4562","trips_per_weekday":48,"trips_am_peak":7,"routes_serving":1,"am_peak_avg_headway_min":17.1},"geometry":{"type":"Point","coordinates":[-123.088313,49.330081]}},{"id":"226","type":"Feature","properties":{"stop_name":"Southbound Westview Dr @ W 21 St","stop_id":"4563","trips_per_weekday":48,"trips_am_peak":7,"routes_serving":1,"am_peak_avg_headway_min":17.1},"geometry":{"type":"Point","coordinates":[-123.089478,49.328402999999994]}},{"id":"227","type":"Feature","properties":{"stop_name":"Southbound Westview Dr @ W 20 St","stop_id":"4564","trips_per_weekday":48,"trips_am_peak":7,"routes_serving":1,"am_peak_avg_headway_min":17.1},"geometry":{"type":"Point","coordinates":[-123.089561,49.327044]}},{"id":"228","type":"Feature","properties":{"stop_name":"Lonsdale Quay @ Bay 8","stop_id":"4568","trips_per_weekday":56,"trips_am_peak":6,"routes_serving":2,"am_peak_avg_headway_min":20.0},"geometry":{"type":"Point","coordinates":[-123.082912,49.31074199999999]}},{"id":"232","type":"Feature","properties":{"stop_name":"Westbound E 15 St @ Grand Blvd East","stop_id":"4830","trips_per_weekday":146,"trips_am_peak":19,"routes_serving":3,"am_peak_avg_headway_min":6.3},"geometry":{"type":"Point","coordinates":[-123.057142,49.321967]}},{"id":"233","type":"Feature","properties":{"stop_name":"Southbound Jones Ave @ W 21 St","stop_id":"8018","trips_per_weekday":2,"trips_am_peak":0,"routes_serving":1,"am_peak_avg_headway_min":null},"geometry":{"type":"Point","coordinates":[-123.081606,49.328504]}},{"id":"234","type":"Feature","properties":{"stop_name":"Lonsdale Quay Northbound","stop_id":"8036","trips_per_weekday":82,"trips_am_peak":11,"routes_serving":1,"am_peak_avg_headway_min":10.9},"geometry":{"type":"Point","coordinates":[-123.08323,49.31011600000001]}},{"id":"235","type":"Feature","properties":{"stop_name":"Lonsdale Quay Southbound","stop_id":"8037","trips_per_weekday":82,"trips_am_peak":12,"routes_serving":1,"am_peak_avg_headway_min":10.0},"geometry":{"type":"Point","coordinates":[-123.083358,49.310160999999994]}},{"id":"236","type":"Feature","properties":{"stop_name":"Southbound Fell Ave @ AutoMall Dr","stop_id":"9109","trips_per_weekday":5,"trips_am_peak":4,"routes_serving":1,"am_peak_avg_headway_min":30.0},"geometry":{"type":"Point","coordinates":[-123.094909,49.31547799999999]}},{"id":"237","type":"Feature","properties":{"stop_name":"Eastbound Harbourside Dr @ Harbourside Place","stop_id":"9110","trips_per_weekday":10,"trips_am_peak":4,"routes_serving":1,"am_peak_avg_headway_min":30.0},"geometry":{"type":"Point","coordinates":[-123.09939300000002,49.31451699999999]}},{"id":"238","type":"Feature","properties":{"stop_name":"Northbound Fell Ave @ AutoMall Dr","stop_id":"9111","trips_per_weekday":5,"trips_am_peak":0,"routes_serving":1,"am_peak_avg_headway_min":null},"geometry":{"type":"Point","coordinates":[-123.094673,49.316129999999994]}},{"id":"240","type":"Feature","properties":{"stop_name":"Lonsdale Quay @ Bay 5","stop_id":"989","trips_per_weekday":48,"trips_am_peak":8,"routes_serving":1,"am_peak_avg_headway_min":15.0},"geometry":{"type":"Point","coordinates":[-123.082407,49.311218000000004]}},{"id":"241","type":"Feature","properties":{"stop_name":"Eastbound Marine Dr @ Fell Ave","stop_id":"9944","trips_per_weekday":220,"trips_am_peak":27,"routes_serving":5,"am_peak_avg_headway_min":4.4},"geometry":{"type":"Point","coordinates":[-123.09495899999999,49.321178]}},{"id":"242","type":"Feature","properties":{"stop_name":"Lonsdale Quay Station","stop_id":"99958","trips_per_weekday":0,"trips_am_peak":0,"routes_serving":0,"am_peak_avg_headway_min":null},"geometry":{"type":"Point","coordinates":[-123.08330900000001,49.310142]}},{"id":"243","type":"Feature","properties":{"stop_name":"Lonsdale Quay Station SeaBus entrance","stop_id":"LQSBE","trips_per_weekday":0,"trips_am_peak":0,"routes_serving":0,"am_peak_avg_headway_min":null},"geometry":{"type":"Point","coordinates":[-123.08326700000002,49.31019899999999]}}]}