{"type":"FeatureCollection","features":[{"id":"0","type":"Feature","properties":{"place_name":"Carson Graham Secondary School","address":"2145 Jones Ave","place_type":"General","year":2022,"mayoral_votes_2022":703.0,"polling_boundary_status":"NOT_AVAILABLE"},"geometry":{"type":"Point","coordinates":[-123.08199350000001,49.3289347]}},{"id":"1","type":"Feature","properties":{"place_name":"Larson Elementary School","address":"2605 Larson Rd","place_type":"General","year":2022,"mayoral_votes_2022":376.0,"polling_boundary_status":"NOT_AVAILABLE"},"geometry":{"type":"Point","coordinates":[-123.085181,49.333372999999995]}},{"id":"2","type":"Feature","properties":{"place_name":"Memorial Recreation Centre","address":"125 East 23rd St","place_type":"General","year":2022,"mayoral_votes_2022":594.0,"polling_boundary_status":"NOT_AVAILABLE"},"geometry":{"type":"Point","coordinates":[-123.06948330000002,49.3298602]}},{"id":"3","type":"Feature","properties":{"place_name":"North Shore Neighbourhood House","address":"225 East 2nd St","place_type":"General","year":2022,"mayoral_votes_2022":742.0,"polling_boundary_status":"NOT_AVAILABLE"},"geometry":{"type":"Point","coordinates":[-123.07434360000002,49.310817699999994]}},{"id":"4","type":"Feature","properties":{"place_name":"Queen Mary Elementary School","address":"230 West Keith Rd","place_type":"General","year":2022,"mayoral_votes_2022":1021.0,"polling_boundary_status":"NOT_AVAILABLE"},"geometry":{"type":"Point","coordinates":[-123.0781481,49.3194466]}},{"id":"5","type":"Feature","properties":{"place_name":"Ridgeway Elementary School","address":"420 East 8th St","place_type":"General","year":2022,"mayoral_votes_2022":1117.0,"polling_boundary_status":"NOT_AVAILABLE"},"geometry":{"type":"Point","coordinates":[-123.0613468,49.31521719999999]}},{"id":"6","type":"Feature","properties":{"place_name":"Sutherland Secondary School","address":"1860 Sutherland Ave","place_type":"General","year":2022,"mayoral_votes_2022":725.0,"polling_boundary_status":"NOT_AVAILABLE"},"geometry":{"type":"Point","coordinates":[-123.05295,49.326]}},{"id":"7","type":"Feature","properties":{"place_name":"The Pipe Shop","address":"115 Victory Ship Way","place_type":"General","year":2022,"mayoral_votes_2022":946.0,"polling_boundary_status":"NOT_AVAILABLE"},"geometry":{"type":"Point","coordinates":[-123.07955000000001,49.310256]}},{"id":"8","type":"Feature","properties":{"place_name":"Westview Elementary School","address":"641 West 17th St","place_type":"General","year":2022,"mayoral_votes_2022":479.0,"polling_boundary_status":"NOT_AVAILABLE"},"geometry":{"type":"Point","coordinates":[-123.089478,49.323816]}},{"id":"9","type":"Feature","properties":{"place_name":"North Vancouver City Hall (Conference Room A)","address":"141 West 14th St","place_type":"Advance","year":2022,"mayoral_votes_2022":null,"polling_boundary_status":"NOT_AVAILABLE"},"geometry":{"type":"Point","coordinates":[-123.073799,49.32067899999999]}}]}